{
"type": "FeatureCollection",
"name": "aq_ince",
"crs": { "type": "name", "properties": { "name": "urn:ogc:def:crs:OGC:1.3:CRS84" } },
"features": [
{ "type": "Feature", "properties": { "NOM_NUC": "Sin Información", "NOMGEO": "Durango", "NOM_ENT": "Durango", "cluster": 0, "fpc_inicio": "2026-01-05T13:19:00", "fpc_final": "2026-01-05T15:54:00", "num_puntos": 35, "AQ_ha": 206.2394 }, "geometry": { "type": "Polygon", "coordinates": [ [ [ -104.42788, 24.01216 ], [ -104.43257, 24.01032 ], [ -104.43636, 24.01183 ], [ -104.436, 24.01308 ], [ -104.43631, 24.0153 ], [ -104.43372, 24.01959 ], [ -104.43295, 24.01982 ], [ -104.43072, 24.02128 ], [ -104.42921, 24.02612 ], [ -104.42832, 24.02599 ], [ -104.42418, 24.02653 ], [ -104.42327, 24.02637 ], [ -104.4207, 24.02263 ], [ -104.41772, 24.02062 ], [ -104.42059, 24.01715 ], [ -104.42223, 24.01413 ], [ -104.42257, 24.0117 ], [ -104.42788, 24.01216 ] ] ] } },
{ "type": "Feature", "properties": { "NOM_NUC": "Sin Información", "NOMGEO": "Durango", "NOM_ENT": "Durango", "cluster": 1, "fpc_inicio": "2026-01-05T13:19:00", "fpc_final": "2026-01-05T15:54:00", "num_puntos": 23, "AQ_ha": 100.5812 }, "geometry": { "type": "Polygon", "coordinates": [ [ [ -104.63845, 24.09906 ], [ -104.63793, 24.09847 ], [ -104.6409, 24.09697 ], [ -104.64245, 24.10093 ], [ -104.6428, 24.10263 ], [ -104.64349, 24.10662 ], [ -104.64339, 24.10694 ], [ -104.64487, 24.11095 ], [ -104.64429, 24.11295 ], [ -104.64632, 24.11983 ], [ -104.64226, 24.11478 ], [ -104.63717, 24.11517 ], [ -104.63926, 24.11337 ], [ -104.64032, 24.11108 ], [ -104.63968, 24.10708 ], [ -104.63657, 24.10479 ], [ -104.63845, 24.09906 ] ] ] } },
{ "type": "Feature", "properties": { "NOM_NUC": "Sin Información", "NOMGEO": "Pueblo Nuevo", "NOM_ENT": "Durango", "cluster": 2, "fpc_inicio": "2025-12-30T13:32:00", "fpc_final": "2025-12-31T03:11:00", "num_puntos": 6, "AQ_ha": 8.7219 }, "geometry": { "type": "Polygon", "coordinates": [ [ [ -105.3343, 23.81095 ], [ -105.33435, 23.80883 ], [ -105.33684, 23.80743 ], [ -105.33859, 23.80867 ], [ -105.33466, 23.81098 ], [ -105.3343, 23.81095 ] ] ] } },
{ "type": "Feature", "properties": { "NOM_NUC": "San Bernardino de Milpillas Chico", "NOMGEO": "Pueblo Nuevo", "NOM_ENT": "Durango", "cluster": 3, "fpc_inicio": "2025-12-30T14:42:00", "fpc_final": "2025-12-30T15:12:00", "num_puntos": 5, "AQ_ha": 5.8545 }, "geometry": { "type": "Polygon", "coordinates": [ [ [ -105.27871, 23.21076 ], [ -105.27522, 23.2098 ], [ -105.27336, 23.20889 ], [ -105.27636, 23.2087 ], [ -105.27849, 23.20958 ], [ -105.27871, 23.21076 ] ] ] } },
{ "type": "Feature", "properties": { "NOM_NUC": "Sin Información", "NOMGEO": "Lerdo", "NOM_ENT": "Durango", "cluster": 4, "fpc_inicio": "2026-01-02T02:32:00", "fpc_final": "2026-01-03T02:41:00", "num_puntos": 5, "AQ_ha": 5.8115 }, "geometry": { "type": "Polygon", "coordinates": [ [ [ -103.68974, 25.46143 ], [ -103.68585, 25.46049 ], [ -103.68681, 25.45911 ], [ -103.68749, 25.45749 ], [ -103.68809, 25.4595 ], [ -103.68974, 25.46143 ] ] ] } },
{ "type": "Feature", "properties": { "NOM_NUC": "Sin Información", "NOMGEO": "Torreón", "NOM_ENT": "Coahuila de Zaragoza", "cluster": 5, "fpc_inicio": "2026-01-02T02:32:00", "fpc_final": "2026-01-06T03:26:00", "num_puntos": 10, "AQ_ha": 3.6619 }, "geometry": { "type": "Polygon", "coordinates": [ [ [ -103.39585, 25.48866 ], [ -103.39514, 25.48671 ], [ -103.39683, 25.4869 ], [ -103.39722, 25.48723 ], [ -103.39758, 25.48766 ], [ -103.3971, 25.48869 ], [ -103.39585, 25.48866 ] ] ] } },
{ "type": "Feature", "properties": { "NOM_NUC": "Astilleros de Abajo", "NOMGEO": "Nuevo Ideal", "NOM_ENT": "Durango", "cluster": 6, "fpc_inicio": "2026-01-05T13:19:00", "fpc_final": "2026-01-05T14:59:00", "num_puntos": 15, "AQ_ha": 77.8606 }, "geometry": { "type": "MultiPolygon", "coordinates": [ [ [ [ -105.08681, 24.82073 ], [ -105.08614, 24.81713 ], [ -105.08632, 24.8148 ], [ -105.09106, 24.81443 ], [ -105.09427, 24.81529 ], [ -105.09598, 24.81511 ], [ -105.09419, 24.81909 ], [ -105.09157, 24.82036 ], [ -105.08917, 24.8237 ], [ -105.0836, 24.82438 ], [ -105.08681, 24.82073 ] ] ], [ [ [ -105.0836, 24.82438 ], [ -105.08257, 24.82702 ], [ -105.07782, 24.82739 ], [ -105.0836, 24.82438 ] ] ] ] } }
]
}
