{
"type": "FeatureCollection",
"name": "final2",
"crs": { "type": "name", "properties": { "name": "urn:ogc:def:crs:OGC:1.3:CRS84" } },
"features": [
{ "type": "Feature", "properties": { "WKT": "POINT (-104.0675 23.97696)", "latitude": 23.97696, "longitude": -104.0675, "brightness": 316.71, "scan": 1.13, "track": 1.06, "acq_date": "2026-01-02", "acq_time": 2140, "acq_datetime": "2026/01/02", "confidence": "75", "brightness_2": 304.26, "frp": 9.34, "index_right": 19, "CVEGEO": "10022", "CVE_ENT": "10", "CVE_MUN": "022", "NOMGEO": "Poanas", "NOM_ENT": "Durango", "COV_": 296, "COV_ID": 298, "AREA": 111528.976388, "PERIMETER": 259042.72701, "acq_date_mex": "2026-01-02T15:40:00" }, "geometry": { "type": "Point", "coordinates": [ -104.0675, 23.97696 ] } },
{ "type": "Feature", "properties": { "WKT": "POINT (-103.874 24.23063)", "latitude": 24.23063, "longitude": -103.874, "brightness": 317.47, "scan": 1.1, "track": 1.05, "acq_date": "2026-01-02", "acq_time": 2140, "acq_datetime": "2026/01/02", "confidence": "66", "brightness_2": 296.54, "frp": 12.67, "index_right": 23, "CVEGEO": "10004", "CVE_ENT": "10", "CVE_MUN": "004", "NOMGEO": "Cuencamé", "NOM_ENT": "Durango", "COV_": 300, "COV_ID": 301, "AREA": 529350.62926099997, "PERIMETER": 618005.21758699999, "acq_date_mex": "2026-01-02T15:40:00" }, "geometry": { "type": "Point", "coordinates": [ -103.874, 24.23063 ] } },
{ "type": "Feature", "properties": { "WKT": "POINT (-104.42257 24.0117)", "latitude": 24.0117, "longitude": -104.42257, "brightness": 328.72, "scan": 1.06, "track": 1.03, "acq_date": "2026-01-05", "acq_time": 2154, "acq_datetime": "2026/01/05", "confidence": "84", "brightness_2": 303.25, "frp": 22.49, "index_right": 44, "CVEGEO": "10005", "CVE_ENT": "10", "CVE_MUN": "005", "NOMGEO": "Durango", "NOM_ENT": "Durango", "COV_": 321, "COV_ID": 322, "AREA": 918510.06569800002, "PERIMETER": 698110.38960600004, "acq_date_mex": "2026-01-05T15:54:00" }, "geometry": { "type": "Point", "coordinates": [ -104.42257, 24.0117 ] } },
{ "type": "Feature", "properties": { "WKT": "POINT (-104.43257 24.01032)", "latitude": 24.01032, "longitude": -104.43257, "brightness": 323.94, "scan": 1.05, "track": 1.03, "acq_date": "2026-01-05", "acq_time": 2154, "acq_datetime": "2026/01/05", "confidence": "80", "brightness_2": 304.4, "frp": 16.53, "index_right": 44, "CVEGEO": "10005", "CVE_ENT": "10", "CVE_MUN": "005", "NOMGEO": "Durango", "NOM_ENT": "Durango", "COV_": 321, "COV_ID": 322, "AREA": 918510.06569800002, "PERIMETER": 698110.38960600004, "acq_date_mex": "2026-01-05T15:54:00" }, "geometry": { "type": "Point", "coordinates": [ -104.43257, 24.01032 ] } },
{ "type": "Feature", "properties": { "WKT": "POINT (-104.4207 24.02263)", "latitude": 24.02263, "longitude": -104.4207, "brightness": 317.25, "scan": 1.06, "track": 1.03, "acq_date": "2026-01-05", "acq_time": 2154, "acq_datetime": "2026/01/05", "confidence": "72", "brightness_2": 300.23, "frp": 11.37, "index_right": 44, "CVEGEO": "10005", "CVE_ENT": "10", "CVE_MUN": "005", "NOMGEO": "Durango", "NOM_ENT": "Durango", "COV_": 321, "COV_ID": 322, "AREA": 918510.06569800002, "PERIMETER": 698110.38960600004, "acq_date_mex": "2026-01-05T15:54:00" }, "geometry": { "type": "Point", "coordinates": [ -104.4207, 24.02263 ] } },
{ "type": "Feature", "properties": { "WKT": "POINT (-104.43072 24.02128)", "latitude": 24.02128, "longitude": -104.43072, "brightness": 321.69, "scan": 1.06, "track": 1.03, "acq_date": "2026-01-05", "acq_time": 2154, "acq_datetime": "2026/01/05", "confidence": "77", "brightness_2": 303.56, "frp": 16.04, "index_right": 44, "CVEGEO": "10005", "CVE_ENT": "10", "CVE_MUN": "005", "NOMGEO": "Durango", "NOM_ENT": "Durango", "COV_": 321, "COV_ID": 322, "AREA": 918510.06569800002, "PERIMETER": 698110.38960600004, "acq_date_mex": "2026-01-05T15:54:00" }, "geometry": { "type": "Point", "coordinates": [ -104.43072, 24.02128 ] } },
{ "type": "Feature", "properties": { "WKT": "POINT (-104.64487 24.11095)", "latitude": 24.11095, "longitude": -104.64487, "brightness": 354.4, "scan": 1.04, "track": 1.02, "acq_date": "2026-01-05", "acq_time": 2154, "acq_datetime": "2026/01/05", "confidence": "97", "brightness_2": 303.7, "frp": 68.69, "index_right": 44, "CVEGEO": "10005", "CVE_ENT": "10", "CVE_MUN": "005", "NOMGEO": "Durango", "NOM_ENT": "Durango", "COV_": 321, "COV_ID": 322, "AREA": 918510.06569800002, "PERIMETER": 698110.38960600004, "acq_date_mex": "2026-01-05T15:54:00" }, "geometry": { "type": "Point", "coordinates": [ -104.64487, 24.11095 ] } },
{ "type": "Feature", "properties": { "WKT": "POINT (-104.63644 24.12119)", "latitude": 24.12119, "longitude": -104.63644, "brightness": 372.67, "scan": 1.04, "track": 1.02, "acq_date": "2026-01-05", "acq_time": 2154, "acq_datetime": "2026/01/05", "confidence": "100", "brightness_2": 306.21, "frp": 125.79, "index_right": 44, "CVEGEO": "10005", "CVE_ENT": "10", "CVE_MUN": "005", "NOMGEO": "Durango", "NOM_ENT": "Durango", "COV_": 321, "COV_ID": 322, "AREA": 918510.06569800002, "PERIMETER": 698110.38960600004, "acq_date_mex": "2026-01-05T15:54:00" }, "geometry": { "type": "Point", "coordinates": [ -104.63644, 24.12119 ] } },
{ "type": "Feature", "properties": { "WKT": "POINT (-104.64632 24.11983)", "latitude": 24.11983, "longitude": -104.64632, "brightness": 353.48, "scan": 1.04, "track": 1.02, "acq_date": "2026-01-05", "acq_time": 2154, "acq_datetime": "2026/01/05", "confidence": "97", "brightness_2": 304.74, "frp": 66.38, "index_right": 44, "CVEGEO": "10005", "CVE_ENT": "10", "CVE_MUN": "005", "NOMGEO": "Durango", "NOM_ENT": "Durango", "COV_": 321, "COV_ID": 322, "AREA": 918510.06569800002, "PERIMETER": 698110.38960600004, "acq_date_mex": "2026-01-05T15:54:00" }, "geometry": { "type": "Point", "coordinates": [ -104.64632, 24.11983 ] } },
{ "type": "Feature", "properties": { "WKT": "POINT (-104.63783 24.13008)", "latitude": 24.13008, "longitude": -104.63783, "brightness": 324.52, "scan": 1.04, "track": 1.02, "acq_date": "2026-01-05", "acq_time": 2154, "acq_datetime": "2026/01/05", "confidence": "79", "brightness_2": 298.26, "frp": 17.63, "index_right": 44, "CVEGEO": "10005", "CVE_ENT": "10", "CVE_MUN": "005", "NOMGEO": "Durango", "NOM_ENT": "Durango", "COV_": 321, "COV_ID": 322, "AREA": 918510.06569800002, "PERIMETER": 698110.38960600004, "acq_date_mex": "2026-01-05T15:54:00" }, "geometry": { "type": "Point", "coordinates": [ -104.63783, 24.13008 ] } },
{ "type": "Feature", "properties": { "WKT": "POINT (-105.00629 24.91029)", "latitude": 24.91029, "longitude": -105.00629, "brightness": 313.04, "scan": 1.03, "track": 1.01, "acq_date": "2026-01-05", "acq_time": 2154, "acq_datetime": "2026/01/05", "confidence": "65", "brightness_2": 301.96, "frp": 5.55, "index_right": 42, "CVEGEO": "10039", "CVE_ENT": "10", "CVE_MUN": "039", "NOMGEO": "Nuevo Ideal", "NOM_ENT": "Durango", "COV_": 319, "COV_ID": 320, "AREA": 183247.44658799999, "PERIMETER": 290114.84698199999, "acq_date_mex": "2026-01-05T15:54:00" }, "geometry": { "type": "Point", "coordinates": [ -105.00629, 24.91029 ] } },
{ "type": "Feature", "properties": { "WKT": "POINT (-105.01613 24.90892)", "latitude": 24.90892, "longitude": -105.01613, "brightness": 312.57, "scan": 1.03, "track": 1.01, "acq_date": "2026-01-05", "acq_time": 2154, "acq_datetime": "2026/01/05", "confidence": "63", "brightness_2": 301.75, "frp": 5.04, "index_right": 42, "CVEGEO": "10039", "CVE_ENT": "10", "CVE_MUN": "039", "NOMGEO": "Nuevo Ideal", "NOM_ENT": "Durango", "COV_": 319, "COV_ID": 320, "AREA": 183247.44658799999, "PERIMETER": 290114.84698199999, "acq_date_mex": "2026-01-05T15:54:00" }, "geometry": { "type": "Point", "coordinates": [ -105.01613, 24.90892 ] } },
{ "type": "Feature", "properties": { "WKT": "POINT (-105.33435 23.80883)", "latitude": 23.80883, "longitude": -105.33435, "brightness": 331.05, "scan": 0.43, "track": 0.62, "acq_date": "2025-12-30", "acq_time": 1932, "acq_datetime": "2025/12/30", "confidence": "n", "brightness_2": 290.37, "frp": 3.57, "index_right": 17, "CVEGEO": "10023", "CVE_ENT": "10", "CVE_MUN": "023", "NOMGEO": "Pueblo Nuevo", "NOM_ENT": "Durango", "COV_": 294, "COV_ID": 292, "AREA": 689248.15241099999, "PERIMETER": 483819.55518800003, "acq_date_mex": "2025-12-30T13:32:00" }, "geometry": { "type": "Point", "coordinates": [ -105.33435, 23.80883 ] } },
{ "type": "Feature", "properties": { "WKT": "POINT (-105.33466 23.81098)", "latitude": 23.81098, "longitude": -105.33466, "brightness": 327.76, "scan": 0.43, "track": 0.62, "acq_date": "2025-12-30", "acq_time": 1932, "acq_datetime": "2025/12/30", "confidence": "n", "brightness_2": 290.47, "frp": 2.85, "index_right": 17, "CVEGEO": "10023", "CVE_ENT": "10", "CVE_MUN": "023", "NOMGEO": "Pueblo Nuevo", "NOM_ENT": "Durango", "COV_": 294, "COV_ID": 292, "AREA": 689248.15241099999, "PERIMETER": 483819.55518800003, "acq_date_mex": "2025-12-30T13:32:00" }, "geometry": { "type": "Point", "coordinates": [ -105.33466, 23.81098 ] } },
{ "type": "Feature", "properties": { "WKT": "POINT (-105.27522 23.2098)", "latitude": 23.2098, "longitude": -105.27522, "brightness": 351.21, "scan": 0.68, "track": 0.74, "acq_date": "2025-12-30", "acq_time": 2112, "acq_datetime": "2025/12/30", "confidence": "n", "brightness_2": 295.81, "frp": 19.42, "index_right": 17, "CVEGEO": "10023", "CVE_ENT": "10", "CVE_MUN": "023", "NOMGEO": "Pueblo Nuevo", "NOM_ENT": "Durango", "COV_": 294, "COV_ID": 292, "AREA": 689248.15241099999, "PERIMETER": 483819.55518800003, "acq_date_mex": "2025-12-30T15:12:00" }, "geometry": { "type": "Point", "coordinates": [ -105.27522, 23.2098 ] } },
{ "type": "Feature", "properties": { "WKT": "POINT (-105.27849 23.20958)", "latitude": 23.20958, "longitude": -105.27849, "brightness": 334.38, "scan": 0.68, "track": 0.74, "acq_date": "2025-12-30", "acq_time": 2112, "acq_datetime": "2025/12/30", "confidence": "n", "brightness_2": 295.61, "frp": 8.4, "index_right": 17, "CVEGEO": "10023", "CVE_ENT": "10", "CVE_MUN": "023", "NOMGEO": "Pueblo Nuevo", "NOM_ENT": "Durango", "COV_": 294, "COV_ID": 292, "AREA": 689248.15241099999, "PERIMETER": 483819.55518800003, "acq_date_mex": "2025-12-30T15:12:00" }, "geometry": { "type": "Point", "coordinates": [ -105.27849, 23.20958 ] } },
{ "type": "Feature", "properties": { "WKT": "POINT (-105.27336 23.20889)", "latitude": 23.20889, "longitude": -105.27336, "brightness": 330.51, "scan": 0.68, "track": 0.74, "acq_date": "2025-12-30", "acq_time": 2112, "acq_datetime": "2025/12/30", "confidence": "n", "brightness_2": 295.06, "frp": 8.06, "index_right": 17, "CVEGEO": "10023", "CVE_ENT": "10", "CVE_MUN": "023", "NOMGEO": "Pueblo Nuevo", "NOM_ENT": "Durango", "COV_": 294, "COV_ID": 292, "AREA": 689248.15241099999, "PERIMETER": 483819.55518800003, "acq_date_mex": "2025-12-30T15:12:00" }, "geometry": { "type": "Point", "coordinates": [ -105.27336, 23.20889 ] } },
{ "type": "Feature", "properties": { "WKT": "POINT (-105.27636 23.2087)", "latitude": 23.2087, "longitude": -105.27636, "brightness": 342.45, "scan": 0.68, "track": 0.74, "acq_date": "2025-12-30", "acq_time": 2112, "acq_datetime": "2025/12/30", "confidence": "n", "brightness_2": 295.71, "frp": 15.54, "index_right": 17, "CVEGEO": "10023", "CVE_ENT": "10", "CVE_MUN": "023", "NOMGEO": "Pueblo Nuevo", "NOM_ENT": "Durango", "COV_": 294, "COV_ID": 292, "AREA": 689248.15241099999, "PERIMETER": 483819.55518800003, "acq_date_mex": "2025-12-30T15:12:00" }, "geometry": { "type": "Point", "coordinates": [ -105.27636, 23.2087 ] } },
{ "type": "Feature", "properties": { "WKT": "POINT (-105.27317 23.21587)", "latitude": 23.21587, "longitude": -105.27317, "brightness": 328.69, "scan": 0.68, "track": 0.74, "acq_date": "2025-12-30", "acq_time": 2112, "acq_datetime": "2025/12/30", "confidence": "n", "brightness_2": 292.61, "frp": 8.06, "index_right": 17, "CVEGEO": "10023", "CVE_ENT": "10", "CVE_MUN": "023", "NOMGEO": "Pueblo Nuevo", "NOM_ENT": "Durango", "COV_": 294, "COV_ID": 292, "AREA": 689248.15241099999, "PERIMETER": 483819.55518800003, "acq_date_mex": "2025-12-30T15:12:00" }, "geometry": { "type": "Point", "coordinates": [ -105.27317, 23.21587 ] } },
{ "type": "Feature", "properties": { "WKT": "POINT (-105.70444 23.9778)", "latitude": 23.9778, "longitude": -105.70444, "brightness": 367.0, "scan": 0.66, "track": 0.73, "acq_date": "2025-12-30", "acq_time": 2112, "acq_datetime": "2025/12/30", "confidence": "h", "brightness_2": 294.8, "frp": 12.51, "index_right": 20, "CVEGEO": "10026", "CVE_ENT": "10", "CVE_MUN": "026", "NOMGEO": "San Dimas", "NOM_ENT": "Durango", "COV_": 297, "COV_ID": 296, "AREA": 540108.49908700003, "PERIMETER": 535088.08707200002, "acq_date_mex": "2025-12-30T15:12:00" }, "geometry": { "type": "Point", "coordinates": [ -105.70444, 23.9778 ] } },
{ "type": "Feature", "properties": { "WKT": "POINT (-103.68974 25.46143)", "latitude": 25.46143, "longitude": -103.68974, "brightness": 305.44, "scan": 0.55, "track": 0.43, "acq_date": "2026-01-02", "acq_time": 902, "acq_datetime": "2026/01/02", "confidence": "n", "brightness_2": 279.18, "frp": 1.0, "index_right": 45, "CVEGEO": "10012", "CVE_ENT": "10", "CVE_MUN": "012", "NOMGEO": "Lerdo", "NOM_ENT": "Durango", "COV_": 322, "COV_ID": 323, "AREA": 212678.88978500001, "PERIMETER": 285631.88972899999, "acq_date_mex": "2026-01-02T03:02:00" }, "geometry": { "type": "Point", "coordinates": [ -103.68974, 25.46143 ] } },
{ "type": "Feature", "properties": { "WKT": "POINT (-103.68585 25.46049)", "latitude": 25.46049, "longitude": -103.68585, "brightness": 306.27, "scan": 0.55, "track": 0.43, "acq_date": "2026-01-02", "acq_time": 902, "acq_datetime": "2026/01/02", "confidence": "n", "brightness_2": 279.28, "frp": 1.4, "index_right": 45, "CVEGEO": "10012", "CVE_ENT": "10", "CVE_MUN": "012", "NOMGEO": "Lerdo", "NOM_ENT": "Durango", "COV_": 322, "COV_ID": 323, "AREA": 212678.88978500001, "PERIMETER": 285631.88972899999, "acq_date_mex": "2026-01-02T03:02:00" }, "geometry": { "type": "Point", "coordinates": [ -103.68585, 25.46049 ] } },
{ "type": "Feature", "properties": { "WKT": "POINT (-104.00719 26.79672)", "latitude": 26.79672, "longitude": -104.00719, "brightness": 345.36, "scan": 0.41, "track": 0.37, "acq_date": "2026-01-02", "acq_time": 2016, "acq_datetime": "2026/01/02", "confidence": "n", "brightness_2": 306.38, "frp": 8.06, "index_right": 13, "CVEGEO": "08036", "CVE_ENT": "08", "CVE_MUN": "036", "NOMGEO": "Jiménez", "NOM_ENT": "Chihuahua", "COV_": 273, "COV_ID": 274, "AREA": 1069522.54523, "PERIMETER": 622029.10795600002, "acq_date_mex": "2026-01-02T14:16:00" }, "geometry": { "type": "Point", "coordinates": [ -104.00719, 26.79672 ] } },
{ "type": "Feature", "properties": { "WKT": "POINT (-104.22441 24.35739)", "latitude": 24.35739, "longitude": -104.22441, "brightness": 339.67, "scan": 0.39, "track": 0.36, "acq_date": "2026-01-02", "acq_time": 2016, "acq_datetime": "2026/01/02", "confidence": "n", "brightness_2": 309.1, "frp": 3.91, "index_right": 33, "CVEGEO": "10020", "CVE_ENT": "10", "CVE_MUN": "020", "NOMGEO": "Pánuco de Coronado", "NOM_ENT": "Durango", "COV_": 310, "COV_ID": 311, "AREA": 101531.727402, "PERIMETER": 262457.71890699997, "acq_date_mex": "2026-01-02T14:16:00" }, "geometry": { "type": "Point", "coordinates": [ -104.22441, 24.35739 ] } },
{ "type": "Feature", "properties": { "WKT": "POINT (-103.39585 25.48866)", "latitude": 25.48866, "longitude": -103.39585, "brightness": 300.73, "scan": 0.39, "track": 0.36, "acq_date": "2026-01-03", "acq_time": 841, "acq_datetime": "2026/01/03", "confidence": "n", "brightness_2": 285.87, "frp": 0.54, "index_right": 1, "CVEGEO": "05035", "CVE_ENT": "05", "CVE_MUN": "035", "NOMGEO": "Torreón", "NOM_ENT": "Coahuila de Zaragoza", "COV_": 40, "COV_ID": 41, "AREA": 126984.42531200001, "PERIMETER": 310843.77231299999, "acq_date_mex": "2026-01-03T02:41:00" }, "geometry": { "type": "Point", "coordinates": [ -103.39585, 25.48866 ] } },
{ "type": "Feature", "properties": { "WKT": "POINT (-103.68749 25.45749)", "latitude": 25.45749, "longitude": -103.68749, "brightness": 302.85, "scan": 0.38, "track": 0.36, "acq_date": "2026-01-03", "acq_time": 841, "acq_datetime": "2026/01/03", "confidence": "n", "brightness_2": 277.97, "frp": 0.82, "index_right": 45, "CVEGEO": "10012", "CVE_ENT": "10", "CVE_MUN": "012", "NOMGEO": "Lerdo", "NOM_ENT": "Durango", "COV_": 322, "COV_ID": 323, "AREA": 212678.88978500001, "PERIMETER": 285631.88972899999, "acq_date_mex": "2026-01-03T02:41:00" }, "geometry": { "type": "Point", "coordinates": [ -103.68749, 25.45749 ] } },
{ "type": "Feature", "properties": { "WKT": "POINT (-104.97465 24.84488)", "latitude": 24.84488, "longitude": -104.97465, "brightness": 332.28, "scan": 0.5, "track": 0.41, "acq_date": "2026-01-03", "acq_time": 1955, "acq_datetime": "2026/01/03", "confidence": "l", "brightness_2": 306.5, "frp": 1.83, "index_right": 42, "CVEGEO": "10039", "CVE_ENT": "10", "CVE_MUN": "039", "NOMGEO": "Nuevo Ideal", "NOM_ENT": "Durango", "COV_": 319, "COV_ID": 320, "AREA": 183247.44658799999, "PERIMETER": 290114.84698199999, "acq_date_mex": "2026-01-03T13:55:00" }, "geometry": { "type": "Point", "coordinates": [ -104.97465, 24.84488 ] } },
{ "type": "Feature", "properties": { "WKT": "POINT (-104.97772 24.84493)", "latitude": 24.84493, "longitude": -104.97772, "brightness": 335.23, "scan": 0.5, "track": 0.41, "acq_date": "2026-01-03", "acq_time": 1955, "acq_datetime": "2026/01/03", "confidence": "n", "brightness_2": 307.0, "frp": 2.75, "index_right": 42, "CVEGEO": "10039", "CVE_ENT": "10", "CVE_MUN": "039", "NOMGEO": "Nuevo Ideal", "NOM_ENT": "Durango", "COV_": 319, "COV_ID": 320, "AREA": 183247.44658799999, "PERIMETER": 290114.84698199999, "acq_date_mex": "2026-01-03T13:55:00" }, "geometry": { "type": "Point", "coordinates": [ -104.97772, 24.84493 ] } },
{ "type": "Feature", "properties": { "WKT": "POINT (-105.09657 25.02509)", "latitude": 25.02509, "longitude": -105.09657, "brightness": 331.93, "scan": 0.5, "track": 0.41, "acq_date": "2026-01-03", "acq_time": 1955, "acq_datetime": "2026/01/03", "confidence": "l", "brightness_2": 305.81, "frp": 3.03, "index_right": 42, "CVEGEO": "10039", "CVE_ENT": "10", "CVE_MUN": "039", "NOMGEO": "Nuevo Ideal", "NOM_ENT": "Durango", "COV_": 319, "COV_ID": 320, "AREA": 183247.44658799999, "PERIMETER": 290114.84698199999, "acq_date_mex": "2026-01-03T13:55:00" }, "geometry": { "type": "Point", "coordinates": [ -105.09657, 25.02509 ] } },
{ "type": "Feature", "properties": { "WKT": "POINT (-105.40944 25.47719)", "latitude": 25.47719, "longitude": -105.40944, "brightness": 332.4, "scan": 0.51, "track": 0.41, "acq_date": "2026-01-03", "acq_time": 1957, "acq_datetime": "2026/01/03", "confidence": "n", "brightness_2": 301.98, "frp": 4.03, "index_right": 32, "CVEGEO": "10018", "CVE_ENT": "10", "CVE_MUN": "018", "NOMGEO": "El Oro", "NOM_ENT": "Durango", "COV_": 309, "COV_ID": 310, "AREA": 349598.78598500002, "PERIMETER": 446417.69504100003, "acq_date_mex": "2026-01-03T13:57:00" }, "geometry": { "type": "Point", "coordinates": [ -105.40944, 25.47719 ] } },
{ "type": "Feature", "properties": { "WKT": "POINT (-104.07552 26.37375)", "latitude": 26.37375, "longitude": -104.07552, "brightness": 335.58, "scan": 0.44, "track": 0.38, "acq_date": "2026-01-03", "acq_time": 1957, "acq_datetime": "2026/01/03", "confidence": "n", "brightness_2": 305.28, "frp": 4.05, "index_right": 30, "CVEGEO": "10013", "CVE_ENT": "10", "CVE_MUN": "013", "NOMGEO": "Mapimí", "NOM_ENT": "Durango", "COV_": 307, "COV_ID": 308, "AREA": 766206.41040499997, "PERIMETER": 569095.79172900005, "acq_date_mex": "2026-01-03T13:57:00" }, "geometry": { "type": "Point", "coordinates": [ -104.07552, 26.37375 ] } },
{ "type": "Feature", "properties": { "WKT": "POINT (-103.39551 25.48706)", "latitude": 25.48706, "longitude": -103.39551, "brightness": 302.17, "scan": 0.5, "track": 0.41, "acq_date": "2026-01-04", "acq_time": 824, "acq_datetime": "2026/01/04", "confidence": "n", "brightness_2": 283.92, "frp": 0.91, "index_right": 1, "CVEGEO": "05035", "CVE_ENT": "05", "CVE_MUN": "035", "NOMGEO": "Torreón", "NOM_ENT": "Coahuila de Zaragoza", "COV_": 40, "COV_ID": 41, "AREA": 126984.42531200001, "PERIMETER": 310843.77231299999, "acq_date_mex": "2026-01-04T02:24:00" }, "geometry": { "type": "Point", "coordinates": [ -103.39551, 25.48706 ] } },
{ "type": "Feature", "properties": { "WKT": "POINT (-104.56682 24.10534)", "latitude": 24.10534, "longitude": -104.56682, "brightness": 340.9, "scan": 0.61, "track": 0.54, "acq_date": "2026-01-04", "acq_time": 1938, "acq_datetime": "2026/01/04", "confidence": "n", "brightness_2": 301.99, "frp": 5.25, "index_right": 44, "CVEGEO": "10005", "CVE_ENT": "10", "CVE_MUN": "005", "NOMGEO": "Durango", "NOM_ENT": "Durango", "COV_": 321, "COV_ID": 322, "AREA": 918510.06569800002, "PERIMETER": 698110.38960600004, "acq_date_mex": "2026-01-04T13:38:00" }, "geometry": { "type": "Point", "coordinates": [ -104.56682, 24.10534 ] } },
{ "type": "Feature", "properties": { "WKT": "POINT (-104.43636 24.01183)", "latitude": 24.01183, "longitude": -104.43636, "brightness": 340.93, "scan": 0.59, "track": 0.7, "acq_date": "2026-01-05", "acq_time": 1919, "acq_datetime": "2026/01/05", "confidence": "n", "brightness_2": 301.23, "frp": 4.03, "index_right": 44, "CVEGEO": "10005", "CVE_ENT": "10", "CVE_MUN": "005", "NOMGEO": "Durango", "NOM_ENT": "Durango", "COV_": 321, "COV_ID": 322, "AREA": 918510.06569800002, "PERIMETER": 698110.38960600004, "acq_date_mex": "2026-01-05T13:19:00" }, "geometry": { "type": "Point", "coordinates": [ -104.43636, 24.01183 ] } },
{ "type": "Feature", "properties": { "WKT": "POINT (-104.57619 24.02507)", "latitude": 24.02507, "longitude": -104.57619, "brightness": 327.9, "scan": 0.6, "track": 0.71, "acq_date": "2026-01-05", "acq_time": 1919, "acq_datetime": "2026/01/05", "confidence": "l", "brightness_2": 300.09, "frp": 4.42, "index_right": 44, "CVEGEO": "10005", "CVE_ENT": "10", "CVE_MUN": "005", "NOMGEO": "Durango", "NOM_ENT": "Durango", "COV_": 321, "COV_ID": 322, "AREA": 918510.06569800002, "PERIMETER": 698110.38960600004, "acq_date_mex": "2026-01-05T13:19:00" }, "geometry": { "type": "Point", "coordinates": [ -104.57619, 24.02507 ] } },
{ "type": "Feature", "properties": { "WKT": "POINT (-104.63793 24.09847)", "latitude": 24.09847, "longitude": -104.63793, "brightness": 332.71, "scan": 0.6, "track": 0.71, "acq_date": "2026-01-05", "acq_time": 1919, "acq_datetime": "2026/01/05", "confidence": "n", "brightness_2": 301.17, "frp": 7.54, "index_right": 44, "CVEGEO": "10005", "CVE_ENT": "10", "CVE_MUN": "005", "NOMGEO": "Durango", "NOM_ENT": "Durango", "COV_": 321, "COV_ID": 322, "AREA": 918510.06569800002, "PERIMETER": 698110.38960600004, "acq_date_mex": "2026-01-05T13:19:00" }, "geometry": { "type": "Point", "coordinates": [ -104.63793, 24.09847 ] } },
{ "type": "Feature", "properties": { "WKT": "POINT (-104.63966 24.10489)", "latitude": 24.10489, "longitude": -104.63966, "brightness": 367.0, "scan": 0.6, "track": 0.71, "acq_date": "2026-01-05", "acq_time": 1919, "acq_datetime": "2026/01/05", "confidence": "h", "brightness_2": 301.25, "frp": 14.24, "index_right": 44, "CVEGEO": "10005", "CVE_ENT": "10", "CVE_MUN": "005", "NOMGEO": "Durango", "NOM_ENT": "Durango", "COV_": 321, "COV_ID": 322, "AREA": 918510.06569800002, "PERIMETER": 698110.38960600004, "acq_date_mex": "2026-01-05T13:19:00" }, "geometry": { "type": "Point", "coordinates": [ -104.63966, 24.10489 ] } },
{ "type": "Feature", "properties": { "WKT": "POINT (-104.6409 24.09697)", "latitude": 24.09697, "longitude": -104.6409, "brightness": 342.32, "scan": 0.6, "track": 0.71, "acq_date": "2026-01-05", "acq_time": 1919, "acq_datetime": "2026/01/05", "confidence": "n", "brightness_2": 302.18, "frp": 6.54, "index_right": 44, "CVEGEO": "10005", "CVE_ENT": "10", "CVE_MUN": "005", "NOMGEO": "Durango", "NOM_ENT": "Durango", "COV_": 321, "COV_ID": 322, "AREA": 918510.06569800002, "PERIMETER": 698110.38960600004, "acq_date_mex": "2026-01-05T13:19:00" }, "geometry": { "type": "Point", "coordinates": [ -104.6409, 24.09697 ] } },
{ "type": "Feature", "properties": { "WKT": "POINT (-104.64236 24.10345)", "latitude": 24.10345, "longitude": -104.64236, "brightness": 367.0, "scan": 0.6, "track": 0.71, "acq_date": "2026-01-05", "acq_time": 1919, "acq_datetime": "2026/01/05", "confidence": "h", "brightness_2": 302.19, "frp": 17.09, "index_right": 44, "CVEGEO": "10005", "CVE_ENT": "10", "CVE_MUN": "005", "NOMGEO": "Durango", "NOM_ENT": "Durango", "COV_": 321, "COV_ID": 322, "AREA": 918510.06569800002, "PERIMETER": 698110.38960600004, "acq_date_mex": "2026-01-05T13:19:00" }, "geometry": { "type": "Point", "coordinates": [ -104.64236, 24.10345 ] } },
{ "type": "Feature", "properties": { "WKT": "POINT (-105.08831 24.81681)", "latitude": 24.81681, "longitude": -105.08831, "brightness": 338.95, "scan": 0.62, "track": 0.71, "acq_date": "2026-01-05", "acq_time": 1919, "acq_datetime": "2026/01/05", "confidence": "n", "brightness_2": 299.21, "frp": 4.87, "index_right": 42, "CVEGEO": "10039", "CVE_ENT": "10", "CVE_MUN": "039", "NOMGEO": "Nuevo Ideal", "NOM_ENT": "Durango", "COV_": 319, "COV_ID": 320, "AREA": 183247.44658799999, "PERIMETER": 290114.84698199999, "acq_date_mex": "2026-01-05T13:19:00" }, "geometry": { "type": "Point", "coordinates": [ -105.08831, 24.81681 ] } },
{ "type": "Feature", "properties": { "WKT": "POINT (-105.09427 24.81529)", "latitude": 24.81529, "longitude": -105.09427, "brightness": 334.24, "scan": 0.62, "track": 0.71, "acq_date": "2026-01-05", "acq_time": 1919, "acq_datetime": "2026/01/05", "confidence": "n", "brightness_2": 299.34, "frp": 4.87, "index_right": 42, "CVEGEO": "10039", "CVE_ENT": "10", "CVE_MUN": "039", "NOMGEO": "Nuevo Ideal", "NOM_ENT": "Durango", "COV_": 319, "COV_ID": 320, "AREA": 183247.44658799999, "PERIMETER": 290114.84698199999, "acq_date_mex": "2026-01-05T13:19:00" }, "geometry": { "type": "Point", "coordinates": [ -105.09427, 24.81529 ] } },
{ "type": "Feature", "properties": { "WKT": "POINT (-104.43282 24.01949)", "latitude": 24.01949, "longitude": -104.43282, "brightness": 367.0, "scan": 0.5, "track": 0.66, "acq_date": "2026-01-05", "acq_time": 2059, "acq_datetime": "2026/01/05", "confidence": "h", "brightness_2": 310.76, "frp": 20.0, "index_right": 44, "CVEGEO": "10005", "CVE_ENT": "10", "CVE_MUN": "005", "NOMGEO": "Durango", "NOM_ENT": "Durango", "COV_": 321, "COV_ID": 322, "AREA": 918510.06569800002, "PERIMETER": 698110.38960600004, "acq_date_mex": "2026-01-05T14:59:00" }, "geometry": { "type": "Point", "coordinates": [ -104.43282, 24.01949 ] } },
{ "type": "Feature", "properties": { "WKT": "POINT (-104.6436 23.96582)", "latitude": 23.96582, "longitude": -104.6436, "brightness": 343.75, "scan": 0.48, "track": 0.65, "acq_date": "2026-01-05", "acq_time": 2059, "acq_datetime": "2026/01/05", "confidence": "n", "brightness_2": 302.52, "frp": 4.11, "index_right": 44, "CVEGEO": "10005", "CVE_ENT": "10", "CVE_MUN": "005", "NOMGEO": "Durango", "NOM_ENT": "Durango", "COV_": 321, "COV_ID": 322, "AREA": 918510.06569800002, "PERIMETER": 698110.38960600004, "acq_date_mex": "2026-01-05T14:59:00" }, "geometry": { "type": "Point", "coordinates": [ -104.6436, 23.96582 ] } },
{ "type": "Feature", "properties": { "WKT": "POINT (-104.42316 24.01429)", "latitude": 24.01429, "longitude": -104.42316, "brightness": 367.0, "scan": 0.5, "track": 0.66, "acq_date": "2026-01-05", "acq_time": 2059, "acq_datetime": "2026/01/05", "confidence": "h", "brightness_2": 309.42, "frp": 37.12, "index_right": 44, "CVEGEO": "10005", "CVE_ENT": "10", "CVE_MUN": "005", "NOMGEO": "Durango", "NOM_ENT": "Durango", "COV_": 321, "COV_ID": 322, "AREA": 918510.06569800002, "PERIMETER": 698110.38960600004, "acq_date_mex": "2026-01-05T14:59:00" }, "geometry": { "type": "Point", "coordinates": [ -104.42316, 24.01429 ] } },
{ "type": "Feature", "properties": { "WKT": "POINT (-104.42818 24.01388)", "latitude": 24.01388, "longitude": -104.42818, "brightness": 356.84, "scan": 0.5, "track": 0.66, "acq_date": "2026-01-05", "acq_time": 2059, "acq_datetime": "2026/01/05", "confidence": "n", "brightness_2": 314.39, "frp": 21.39, "index_right": 44, "CVEGEO": "10005", "CVE_ENT": "10", "CVE_MUN": "005", "NOMGEO": "Durango", "NOM_ENT": "Durango", "COV_": 321, "COV_ID": 322, "AREA": 918510.06569800002, "PERIMETER": 698110.38960600004, "acq_date_mex": "2026-01-05T14:59:00" }, "geometry": { "type": "Point", "coordinates": [ -104.42818, 24.01388 ] } },
{ "type": "Feature", "properties": { "WKT": "POINT (-104.43322 24.01348)", "latitude": 24.01348, "longitude": -104.43322, "brightness": 352.99, "scan": 0.5, "track": 0.66, "acq_date": "2026-01-05", "acq_time": 2059, "acq_datetime": "2026/01/05", "confidence": "n", "brightness_2": 309.09, "frp": 21.39, "index_right": 44, "CVEGEO": "10005", "CVE_ENT": "10", "CVE_MUN": "005", "NOMGEO": "Durango", "NOM_ENT": "Durango", "COV_": 321, "COV_ID": 322, "AREA": 918510.06569800002, "PERIMETER": 698110.38960600004, "acq_date_mex": "2026-01-05T14:59:00" }, "geometry": { "type": "Point", "coordinates": [ -104.43322, 24.01348 ] } },
{ "type": "Feature", "properties": { "WKT": "POINT (-104.41864 24.02082)", "latitude": 24.02082, "longitude": -104.41864, "brightness": 367.0, "scan": 0.5, "track": 0.66, "acq_date": "2026-01-05", "acq_time": 2059, "acq_datetime": "2026/01/05", "confidence": "h", "brightness_2": 304.01, "frp": 12.98, "index_right": 44, "CVEGEO": "10005", "CVE_ENT": "10", "CVE_MUN": "005", "NOMGEO": "Durango", "NOM_ENT": "Durango", "COV_": 321, "COV_ID": 322, "AREA": 918510.06569800002, "PERIMETER": 698110.38960600004, "acq_date_mex": "2026-01-05T14:59:00" }, "geometry": { "type": "Point", "coordinates": [ -104.41864, 24.02082 ] } },
{ "type": "Feature", "properties": { "WKT": "POINT (-104.4287 24.02)", "latitude": 24.02, "longitude": -104.4287, "brightness": 367.0, "scan": 0.5, "track": 0.66, "acq_date": "2026-01-05", "acq_time": 2059, "acq_datetime": "2026/01/05", "confidence": "h", "brightness_2": 316.49, "frp": 13.9, "index_right": 44, "CVEGEO": "10005", "CVE_ENT": "10", "CVE_MUN": "005", "NOMGEO": "Durango", "NOM_ENT": "Durango", "COV_": 321, "COV_ID": 322, "AREA": 918510.06569800002, "PERIMETER": 698110.38960600004, "acq_date_mex": "2026-01-05T14:59:00" }, "geometry": { "type": "Point", "coordinates": [ -104.4287, 24.02 ] } },
{ "type": "Feature", "properties": { "WKT": "POINT (-104.43372 24.01959)", "latitude": 24.01959, "longitude": -104.43372, "brightness": 367.0, "scan": 0.5, "track": 0.66, "acq_date": "2026-01-05", "acq_time": 2059, "acq_datetime": "2026/01/05", "confidence": "h", "brightness_2": 308.54, "frp": 13.9, "index_right": 44, "CVEGEO": "10005", "CVE_ENT": "10", "CVE_MUN": "005", "NOMGEO": "Durango", "NOM_ENT": "Durango", "COV_": 321, "COV_ID": 322, "AREA": 918510.06569800002, "PERIMETER": 698110.38960600004, "acq_date_mex": "2026-01-05T14:59:00" }, "geometry": { "type": "Point", "coordinates": [ -104.43372, 24.01959 ] } },
{ "type": "Feature", "properties": { "WKT": "POINT (-104.42367 24.02041)", "latitude": 24.02041, "longitude": -104.42367, "brightness": 342.86, "scan": 0.5, "track": 0.66, "acq_date": "2026-01-05", "acq_time": 2059, "acq_datetime": "2026/01/05", "confidence": "n", "brightness_2": 303.23, "frp": 12.98, "index_right": 44, "CVEGEO": "10005", "CVE_ENT": "10", "CVE_MUN": "005", "NOMGEO": "Durango", "NOM_ENT": "Durango", "COV_": 321, "COV_ID": 322, "AREA": 918510.06569800002, "PERIMETER": 698110.38960600004, "acq_date_mex": "2026-01-05T14:59:00" }, "geometry": { "type": "Point", "coordinates": [ -104.42367, 24.02041 ] } },
{ "type": "Feature", "properties": { "WKT": "POINT (-104.42418 24.02653)", "latitude": 24.02653, "longitude": -104.42418, "brightness": 351.41, "scan": 0.5, "track": 0.66, "acq_date": "2026-01-05", "acq_time": 2059, "acq_datetime": "2026/01/05", "confidence": "n", "brightness_2": 301.34, "frp": 12.98, "index_right": 44, "CVEGEO": "10005", "CVE_ENT": "10", "CVE_MUN": "005", "NOMGEO": "Durango", "NOM_ENT": "Durango", "COV_": 321, "COV_ID": 322, "AREA": 918510.06569800002, "PERIMETER": 698110.38960600004, "acq_date_mex": "2026-01-05T14:59:00" }, "geometry": { "type": "Point", "coordinates": [ -104.42418, 24.02653 ] } },
{ "type": "Feature", "properties": { "WKT": "POINT (-104.42921 24.02612)", "latitude": 24.02612, "longitude": -104.42921, "brightness": 347.01, "scan": 0.5, "track": 0.66, "acq_date": "2026-01-05", "acq_time": 2059, "acq_datetime": "2026/01/05", "confidence": "n", "brightness_2": 304.98, "frp": 13.9, "index_right": 44, "CVEGEO": "10005", "CVE_ENT": "10", "CVE_MUN": "005", "NOMGEO": "Durango", "NOM_ENT": "Durango", "COV_": 321, "COV_ID": 322, "AREA": 918510.06569800002, "PERIMETER": 698110.38960600004, "acq_date_mex": "2026-01-05T14:59:00" }, "geometry": { "type": "Point", "coordinates": [ -104.42921, 24.02612 ] } },
{ "type": "Feature", "properties": { "WKT": "POINT (-104.42223 24.01413)", "latitude": 24.01413, "longitude": -104.42223, "brightness": 367.0, "scan": 0.5, "track": 0.66, "acq_date": "2026-01-05", "acq_time": 2059, "acq_datetime": "2026/01/05", "confidence": "h", "brightness_2": 308.05, "frp": 19.66, "index_right": 44, "CVEGEO": "10005", "CVE_ENT": "10", "CVE_MUN": "005", "NOMGEO": "Durango", "NOM_ENT": "Durango", "COV_": 321, "COV_ID": 322, "AREA": 918510.06569800002, "PERIMETER": 698110.38960600004, "acq_date_mex": "2026-01-05T14:59:00" }, "geometry": { "type": "Point", "coordinates": [ -104.42223, 24.01413 ] } },
{ "type": "Feature", "properties": { "WKT": "POINT (-104.42727 24.01375)", "latitude": 24.01375, "longitude": -104.42727, "brightness": 367.0, "scan": 0.5, "track": 0.66, "acq_date": "2026-01-05", "acq_time": 2059, "acq_datetime": "2026/01/05", "confidence": "h", "brightness_2": 315.04, "frp": 20.0, "index_right": 44, "CVEGEO": "10005", "CVE_ENT": "10", "CVE_MUN": "005", "NOMGEO": "Durango", "NOM_ENT": "Durango", "COV_": 321, "COV_ID": 322, "AREA": 918510.06569800002, "PERIMETER": 698110.38960600004, "acq_date_mex": "2026-01-05T14:59:00" }, "geometry": { "type": "Point", "coordinates": [ -104.42727, 24.01375 ] } },
{ "type": "Feature", "properties": { "WKT": "POINT (-104.4323 24.01337)", "latitude": 24.01337, "longitude": -104.4323, "brightness": 367.0, "scan": 0.5, "track": 0.66, "acq_date": "2026-01-05", "acq_time": 2059, "acq_datetime": "2026/01/05", "confidence": "h", "brightness_2": 309.72, "frp": 20.0, "index_right": 44, "CVEGEO": "10005", "CVE_ENT": "10", "CVE_MUN": "005", "NOMGEO": "Durango", "NOM_ENT": "Durango", "COV_": 321, "COV_ID": 322, "AREA": 918510.06569800002, "PERIMETER": 698110.38960600004, "acq_date_mex": "2026-01-05T14:59:00" }, "geometry": { "type": "Point", "coordinates": [ -104.4323, 24.01337 ] } },
{ "type": "Feature", "properties": { "WKT": "POINT (-104.41772 24.02062)", "latitude": 24.02062, "longitude": -104.41772, "brightness": 367.0, "scan": 0.5, "track": 0.66, "acq_date": "2026-01-05", "acq_time": 2059, "acq_datetime": "2026/01/05", "confidence": "h", "brightness_2": 302.68, "frp": 19.66, "index_right": 44, "CVEGEO": "10005", "CVE_ENT": "10", "CVE_MUN": "005", "NOMGEO": "Durango", "NOM_ENT": "Durango", "COV_": 321, "COV_ID": 322, "AREA": 918510.06569800002, "PERIMETER": 698110.38960600004, "acq_date_mex": "2026-01-05T14:59:00" }, "geometry": { "type": "Point", "coordinates": [ -104.41772, 24.02062 ] } },
{ "type": "Feature", "properties": { "WKT": "POINT (-104.4278 24.01987)", "latitude": 24.01987, "longitude": -104.4278, "brightness": 367.0, "scan": 0.5, "track": 0.66, "acq_date": "2026-01-05", "acq_time": 2059, "acq_datetime": "2026/01/05", "confidence": "h", "brightness_2": 314.28, "frp": 20.0, "index_right": 44, "CVEGEO": "10005", "CVE_ENT": "10", "CVE_MUN": "005", "NOMGEO": "Durango", "NOM_ENT": "Durango", "COV_": 321, "COV_ID": 322, "AREA": 918510.06569800002, "PERIMETER": 698110.38960600004, "acq_date_mex": "2026-01-05T14:59:00" }, "geometry": { "type": "Point", "coordinates": [ -104.4278, 24.01987 ] } },
{ "type": "Feature", "properties": { "WKT": "POINT (-104.42275 24.02025)", "latitude": 24.02025, "longitude": -104.42275, "brightness": 336.63, "scan": 0.5, "track": 0.66, "acq_date": "2026-01-05", "acq_time": 2059, "acq_datetime": "2026/01/05", "confidence": "n", "brightness_2": 301.97, "frp": 19.66, "index_right": 44, "CVEGEO": "10005", "CVE_ENT": "10", "CVE_MUN": "005", "NOMGEO": "Durango", "NOM_ENT": "Durango", "COV_": 321, "COV_ID": 322, "AREA": 918510.06569800002, "PERIMETER": 698110.38960600004, "acq_date_mex": "2026-01-05T14:59:00" }, "geometry": { "type": "Point", "coordinates": [ -104.42275, 24.02025 ] } },
{ "type": "Feature", "properties": { "WKT": "POINT (-104.64226 24.11478)", "latitude": 24.11478, "longitude": -104.64226, "brightness": 343.44, "scan": 0.49, "track": 0.65, "acq_date": "2026-01-05", "acq_time": 2059, "acq_datetime": "2026/01/05", "confidence": "n", "brightness_2": 310.66, "frp": 28.75, "index_right": 44, "CVEGEO": "10005", "CVE_ENT": "10", "CVE_MUN": "005", "NOMGEO": "Durango", "NOM_ENT": "Durango", "COV_": 321, "COV_ID": 322, "AREA": 918510.06569800002, "PERIMETER": 698110.38960600004, "acq_date_mex": "2026-01-05T14:59:00" }, "geometry": { "type": "Point", "coordinates": [ -104.64226, 24.11478 ] } },
{ "type": "Feature", "properties": { "WKT": "POINT (-104.42327 24.02637)", "latitude": 24.02637, "longitude": -104.42327, "brightness": 348.62, "scan": 0.5, "track": 0.66, "acq_date": "2026-01-05", "acq_time": 2059, "acq_datetime": "2026/01/05", "confidence": "n", "brightness_2": 300.29, "frp": 11.02, "index_right": 44, "CVEGEO": "10005", "CVE_ENT": "10", "CVE_MUN": "005", "NOMGEO": "Durango", "NOM_ENT": "Durango", "COV_": 321, "COV_ID": 322, "AREA": 918510.06569800002, "PERIMETER": 698110.38960600004, "acq_date_mex": "2026-01-05T14:59:00" }, "geometry": { "type": "Point", "coordinates": [ -104.42327, 24.02637 ] } },
{ "type": "Feature", "properties": { "WKT": "POINT (-104.42832 24.02599)", "latitude": 24.02599, "longitude": -104.42832, "brightness": 353.97, "scan": 0.5, "track": 0.66, "acq_date": "2026-01-05", "acq_time": 2059, "acq_datetime": "2026/01/05", "confidence": "n", "brightness_2": 304.93, "frp": 11.52, "index_right": 44, "CVEGEO": "10005", "CVE_ENT": "10", "CVE_MUN": "005", "NOMGEO": "Durango", "NOM_ENT": "Durango", "COV_": 321, "COV_ID": 322, "AREA": 918510.06569800002, "PERIMETER": 698110.38960600004, "acq_date_mex": "2026-01-05T14:59:00" }, "geometry": { "type": "Point", "coordinates": [ -104.42832, 24.02599 ] } },
{ "type": "Feature", "properties": { "WKT": "POINT (-104.64245 24.10093)", "latitude": 24.10093, "longitude": -104.64245, "brightness": 333.74, "scan": 0.49, "track": 0.65, "acq_date": "2026-01-05", "acq_time": 2059, "acq_datetime": "2026/01/05", "confidence": "l", "brightness_2": 304.49, "frp": 7.91, "index_right": 44, "CVEGEO": "10005", "CVE_ENT": "10", "CVE_MUN": "005", "NOMGEO": "Durango", "NOM_ENT": "Durango", "COV_": 321, "COV_ID": 322, "AREA": 918510.06569800002, "PERIMETER": 698110.38960600004, "acq_date_mex": "2026-01-05T14:59:00" }, "geometry": { "type": "Point", "coordinates": [ -104.64245, 24.10093 ] } },
{ "type": "Feature", "properties": { "WKT": "POINT (-104.64339 24.10694)", "latitude": 24.10694, "longitude": -104.64339, "brightness": 337.11, "scan": 0.49, "track": 0.65, "acq_date": "2026-01-05", "acq_time": 2059, "acq_datetime": "2026/01/05", "confidence": "n", "brightness_2": 302.05, "frp": 19.16, "index_right": 44, "CVEGEO": "10005", "CVE_ENT": "10", "CVE_MUN": "005", "NOMGEO": "Durango", "NOM_ENT": "Durango", "COV_": 321, "COV_ID": 322, "AREA": 918510.06569800002, "PERIMETER": 698110.38960600004, "acq_date_mex": "2026-01-05T14:59:00" }, "geometry": { "type": "Point", "coordinates": [ -104.64339, 24.10694 ] } },
{ "type": "Feature", "properties": { "WKT": "POINT (-104.63926 24.11337)", "latitude": 24.11337, "longitude": -104.63926, "brightness": 367.0, "scan": 0.49, "track": 0.65, "acq_date": "2026-01-05", "acq_time": 2059, "acq_datetime": "2026/01/05", "confidence": "h", "brightness_2": 312.25, "frp": 19.16, "index_right": 44, "CVEGEO": "10005", "CVE_ENT": "10", "CVE_MUN": "005", "NOMGEO": "Durango", "NOM_ENT": "Durango", "COV_": 321, "COV_ID": 322, "AREA": 918510.06569800002, "PERIMETER": 698110.38960600004, "acq_date_mex": "2026-01-05T14:59:00" }, "geometry": { "type": "Point", "coordinates": [ -104.63926, 24.11337 ] } },
{ "type": "Feature", "properties": { "WKT": "POINT (-104.64429 24.11295)", "latitude": 24.11295, "longitude": -104.64429, "brightness": 353.35, "scan": 0.49, "track": 0.65, "acq_date": "2026-01-05", "acq_time": 2059, "acq_datetime": "2026/01/05", "confidence": "n", "brightness_2": 302.19, "frp": 19.16, "index_right": 44, "CVEGEO": "10005", "CVE_ENT": "10", "CVE_MUN": "005", "NOMGEO": "Durango", "NOM_ENT": "Durango", "COV_": 321, "COV_ID": 322, "AREA": 918510.06569800002, "PERIMETER": 698110.38960600004, "acq_date_mex": "2026-01-05T14:59:00" }, "geometry": { "type": "Point", "coordinates": [ -104.64429, 24.11295 ] } },
{ "type": "Feature", "properties": { "WKT": "POINT (-104.64066 24.10273)", "latitude": 24.10273, "longitude": -104.64066, "brightness": 331.73, "scan": 0.49, "track": 0.65, "acq_date": "2026-01-05", "acq_time": 2059, "acq_datetime": "2026/01/05", "confidence": "l", "brightness_2": 303.34, "frp": 5.24, "index_right": 44, "CVEGEO": "10005", "CVE_ENT": "10", "CVE_MUN": "005", "NOMGEO": "Durango", "NOM_ENT": "Durango", "COV_": 321, "COV_ID": 322, "AREA": 918510.06569800002, "PERIMETER": 698110.38960600004, "acq_date_mex": "2026-01-05T14:59:00" }, "geometry": { "type": "Point", "coordinates": [ -104.64066, 24.10273 ] } },
{ "type": "Feature", "properties": { "WKT": "POINT (-104.6415 24.10875)", "latitude": 24.10875, "longitude": -104.6415, "brightness": 346.67, "scan": 0.49, "track": 0.65, "acq_date": "2026-01-05", "acq_time": 2059, "acq_datetime": "2026/01/05", "confidence": "n", "brightness_2": 303.47, "frp": 5.24, "index_right": 44, "CVEGEO": "10005", "CVE_ENT": "10", "CVE_MUN": "005", "NOMGEO": "Durango", "NOM_ENT": "Durango", "COV_": 321, "COV_ID": 322, "AREA": 918510.06569800002, "PERIMETER": 698110.38960600004, "acq_date_mex": "2026-01-05T14:59:00" }, "geometry": { "type": "Point", "coordinates": [ -104.6415, 24.10875 ] } },
{ "type": "Feature", "properties": { "WKT": "POINT (-104.63717 24.11517)", "latitude": 24.11517, "longitude": -104.63717, "brightness": 367.0, "scan": 0.49, "track": 0.65, "acq_date": "2026-01-05", "acq_time": 2059, "acq_datetime": "2026/01/05", "confidence": "h", "brightness_2": 299.89, "frp": 28.75, "index_right": 44, "CVEGEO": "10005", "CVE_ENT": "10", "CVE_MUN": "005", "NOMGEO": "Durango", "NOM_ENT": "Durango", "COV_": 321, "COV_ID": 322, "AREA": 918510.06569800002, "PERIMETER": 698110.38960600004, "acq_date_mex": "2026-01-05T14:59:00" }, "geometry": { "type": "Point", "coordinates": [ -104.63717, 24.11517 ] } },
{ "type": "Feature", "properties": { "WKT": "POINT (-105.08632 24.8148)", "latitude": 24.8148, "longitude": -105.08632, "brightness": 349.8, "scan": 0.46, "track": 0.64, "acq_date": "2026-01-05", "acq_time": 2059, "acq_datetime": "2026/01/05", "confidence": "n", "brightness_2": 301.07, "frp": 8.46, "index_right": 42, "CVEGEO": "10039", "CVE_ENT": "10", "CVE_MUN": "039", "NOMGEO": "Nuevo Ideal", "NOM_ENT": "Durango", "COV_": 319, "COV_ID": 320, "AREA": 183247.44658799999, "PERIMETER": 290114.84698199999, "acq_date_mex": "2026-01-05T14:59:00" }, "geometry": { "type": "Point", "coordinates": [ -105.08632, 24.8148 ] } },
{ "type": "Feature", "properties": { "WKT": "POINT (-105.09106 24.81443)", "latitude": 24.81443, "longitude": -105.09106, "brightness": 335.43, "scan": 0.46, "track": 0.64, "acq_date": "2026-01-05", "acq_time": 2059, "acq_datetime": "2026/01/05", "confidence": "n", "brightness_2": 300.65, "frp": 6.17, "index_right": 42, "CVEGEO": "10039", "CVE_ENT": "10", "CVE_MUN": "039", "NOMGEO": "Nuevo Ideal", "NOM_ENT": "Durango", "COV_": 319, "COV_ID": 320, "AREA": 183247.44658799999, "PERIMETER": 290114.84698199999, "acq_date_mex": "2026-01-05T14:59:00" }, "geometry": { "type": "Point", "coordinates": [ -105.09106, 24.81443 ] } },
{ "type": "Feature", "properties": { "WKT": "POINT (-105.08681 24.82073)", "latitude": 24.82073, "longitude": -105.08681, "brightness": 330.35, "scan": 0.46, "track": 0.64, "acq_date": "2026-01-05", "acq_time": 2059, "acq_datetime": "2026/01/05", "confidence": "l", "brightness_2": 301.38, "frp": 8.46, "index_right": 42, "CVEGEO": "10039", "CVE_ENT": "10", "CVE_MUN": "039", "NOMGEO": "Nuevo Ideal", "NOM_ENT": "Durango", "COV_": 319, "COV_ID": 320, "AREA": 183247.44658799999, "PERIMETER": 290114.84698199999, "acq_date_mex": "2026-01-05T14:59:00" }, "geometry": { "type": "Point", "coordinates": [ -105.08681, 24.82073 ] } },
{ "type": "Feature", "properties": { "WKT": "POINT (-105.09157 24.82036)", "latitude": 24.82036, "longitude": -105.09157, "brightness": 334.21, "scan": 0.46, "track": 0.64, "acq_date": "2026-01-05", "acq_time": 2059, "acq_datetime": "2026/01/05", "confidence": "n", "brightness_2": 301.39, "frp": 6.17, "index_right": 42, "CVEGEO": "10039", "CVE_ENT": "10", "CVE_MUN": "039", "NOMGEO": "Nuevo Ideal", "NOM_ENT": "Durango", "COV_": 319, "COV_ID": 320, "AREA": 183247.44658799999, "PERIMETER": 290114.84698199999, "acq_date_mex": "2026-01-05T14:59:00" }, "geometry": { "type": "Point", "coordinates": [ -105.09157, 24.82036 ] } },
{ "type": "Feature", "properties": { "WKT": "POINT (-105.07782 24.82739)", "latitude": 24.82739, "longitude": -105.07782, "brightness": 367.0, "scan": 0.46, "track": 0.64, "acq_date": "2026-01-05", "acq_time": 2059, "acq_datetime": "2026/01/05", "confidence": "h", "brightness_2": 299.57, "frp": 37.59, "index_right": 42, "CVEGEO": "10039", "CVE_ENT": "10", "CVE_MUN": "039", "NOMGEO": "Nuevo Ideal", "NOM_ENT": "Durango", "COV_": 319, "COV_ID": 320, "AREA": 183247.44658799999, "PERIMETER": 290114.84698199999, "acq_date_mex": "2026-01-05T14:59:00" }, "geometry": { "type": "Point", "coordinates": [ -105.07782, 24.82739 ] } },
{ "type": "Feature", "properties": { "WKT": "POINT (-105.08257 24.82702)", "latitude": 24.82702, "longitude": -105.08257, "brightness": 345.33, "scan": 0.46, "track": 0.64, "acq_date": "2026-01-05", "acq_time": 2059, "acq_datetime": "2026/01/05", "confidence": "n", "brightness_2": 305.34, "frp": 34.13, "index_right": 42, "CVEGEO": "10039", "CVE_ENT": "10", "CVE_MUN": "039", "NOMGEO": "Nuevo Ideal", "NOM_ENT": "Durango", "COV_": 319, "COV_ID": 320, "AREA": 183247.44658799999, "PERIMETER": 290114.84698199999, "acq_date_mex": "2026-01-05T14:59:00" }, "geometry": { "type": "Point", "coordinates": [ -105.08257, 24.82702 ] } },
{ "type": "Feature", "properties": { "WKT": "POINT (-104.85798 23.07786)", "latitude": 23.07786, "longitude": -104.85798, "brightness": 330.51, "scan": 0.46, "track": 0.63, "acq_date": "2026-01-05", "acq_time": 2059, "acq_datetime": "2026/01/05", "confidence": "n", "brightness_2": 299.84, "frp": 2.18, "index_right": 46, "CVEGEO": "10014", "CVE_ENT": "10", "CVE_MUN": "014", "NOMGEO": "Mezquital", "NOM_ENT": "Durango", "COV_": 323, "COV_ID": 324, "AREA": 828342.300529, "PERIMETER": 737198.80097600003, "acq_date_mex": "2026-01-05T14:59:00" }, "geometry": { "type": "Point", "coordinates": [ -104.85798, 23.07786 ] } },
{ "type": "Feature", "properties": { "WKT": "POINT (-103.96935 23.76868)", "latitude": 23.76868, "longitude": -103.96935, "brightness": 296.38, "scan": 0.65, "track": 0.73, "acq_date": "2026-01-06", "acq_time": 745, "acq_datetime": "2026/01/06", "confidence": "n", "brightness_2": 277.25, "frp": 1.28, "index_right": 48, "CVEGEO": "10038", "CVE_ENT": "10", "CVE_MUN": "038", "NOMGEO": "Vicente Guerrero", "NOM_ENT": "Durango", "COV_": 325, "COV_ID": 326, "AREA": 36569.5285544, "PERIMETER": 135245.891718, "acq_date_mex": "2026-01-06T01:45:00" }, "geometry": { "type": "Point", "coordinates": [ -103.96935, 23.76868 ] } },
{ "type": "Feature", "properties": { "WKT": "POINT (-103.96952 23.76703)", "latitude": 23.76703, "longitude": -103.96952, "brightness": 297.0, "scan": 0.65, "track": 0.73, "acq_date": "2026-01-06", "acq_time": 745, "acq_datetime": "2026/01/06", "confidence": "n", "brightness_2": 277.42, "frp": 0.99, "index_right": 48, "CVEGEO": "10038", "CVE_ENT": "10", "CVE_MUN": "038", "NOMGEO": "Vicente Guerrero", "NOM_ENT": "Durango", "COV_": 325, "COV_ID": 326, "AREA": 36569.5285544, "PERIMETER": 135245.891718, "acq_date_mex": "2026-01-06T01:45:00" }, "geometry": { "type": "Point", "coordinates": [ -103.96952, 23.76703 ] } },
{ "type": "Feature", "properties": { "WKT": "POINT (-103.39683 25.4869)", "latitude": 25.4869, "longitude": -103.39683, "brightness": 297.92, "scan": 0.45, "track": 0.63, "acq_date": "2026-01-06", "acq_time": 926, "acq_datetime": "2026/01/06", "confidence": "n", "brightness_2": 283.75, "frp": 0.6, "index_right": 1, "CVEGEO": "05035", "CVE_ENT": "05", "CVE_MUN": "035", "NOMGEO": "Torreón", "NOM_ENT": "Coahuila de Zaragoza", "COV_": 40, "COV_ID": 41, "AREA": 126984.42531200001, "PERIMETER": 310843.77231299999, "acq_date_mex": "2026-01-06T03:26:00" }, "geometry": { "type": "Point", "coordinates": [ -103.39683, 25.4869 ] } },
{ "type": "Feature", "properties": { "WKT": "POINT (-105.33684 23.80743)", "latitude": 23.80743, "longitude": -105.33684, "brightness": 331.43, "scan": 0.54, "track": 0.42, "acq_date": "2025-12-30", "acq_time": 1953, "acq_datetime": "2025/12/30", "confidence": "n", "brightness_2": 293.58, "frp": 4.3, "index_right": 17, "CVEGEO": "10023", "CVE_ENT": "10", "CVE_MUN": "023", "NOMGEO": "Pueblo Nuevo", "NOM_ENT": "Durango", "COV_": 294, "COV_ID": 292, "AREA": 689248.15241099999, "PERIMETER": 483819.55518800003, "acq_date_mex": "2025-12-30T13:53:00" }, "geometry": { "type": "Point", "coordinates": [ -105.33684, 23.80743 ] } },
{ "type": "Feature", "properties": { "WKT": "POINT (-105.33859 23.80867)", "latitude": 23.80867, "longitude": -105.33859, "brightness": 299.7, "scan": 0.4, "track": 0.45, "acq_date": "2025-12-31", "acq_time": 820, "acq_datetime": "2025/12/31", "confidence": "n", "brightness_2": 272.71, "frp": 0.59, "index_right": 17, "CVEGEO": "10023", "CVE_ENT": "10", "CVE_MUN": "023", "NOMGEO": "Pueblo Nuevo", "NOM_ENT": "Durango", "COV_": 294, "COV_ID": 292, "AREA": 689248.15241099999, "PERIMETER": 483819.55518800003, "acq_date_mex": "2025-12-31T02:20:00" }, "geometry": { "type": "Point", "coordinates": [ -105.33859, 23.80867 ] } },
{ "type": "Feature", "properties": { "WKT": "POINT (-103.94562 25.26181)", "latitude": 25.26181, "longitude": -103.94562, "brightness": 296.31, "scan": 0.34, "track": 0.56, "acq_date": "2026-01-01", "acq_time": 800, "acq_datetime": "2026/01/01", "confidence": "n", "brightness_2": 278.94, "frp": 0.73, "index_right": 36, "CVEGEO": "10015", "CVE_ENT": "10", "CVE_MUN": "015", "NOMGEO": "Nazas", "NOM_ENT": "Durango", "COV_": 313, "COV_ID": 314, "AREA": 236361.96706699999, "PERIMETER": 320247.40721899999, "acq_date_mex": "2026-01-01T02:00:00" }, "geometry": { "type": "Point", "coordinates": [ -103.94562, 25.26181 ] } },
{ "type": "Feature", "properties": { "WKT": "POINT (-105.02321 24.92322)", "latitude": 24.92322, "longitude": -105.02321, "brightness": 341.19, "scan": 0.47, "track": 0.48, "acq_date": "2026-01-02", "acq_time": 2036, "acq_datetime": "2026/01/02", "confidence": "n", "brightness_2": 303.94, "frp": 5.2, "index_right": 42, "CVEGEO": "10039", "CVE_ENT": "10", "CVE_MUN": "039", "NOMGEO": "Nuevo Ideal", "NOM_ENT": "Durango", "COV_": 319, "COV_ID": 320, "AREA": 183247.44658799999, "PERIMETER": 290114.84698199999, "acq_date_mex": "2026-01-02T14:36:00" }, "geometry": { "type": "Point", "coordinates": [ -105.02321, 24.92322 ] } },
{ "type": "Feature", "properties": { "WKT": "POINT (-105.02657 24.92312)", "latitude": 24.92312, "longitude": -105.02657, "brightness": 339.42, "scan": 0.47, "track": 0.48, "acq_date": "2026-01-02", "acq_time": 2036, "acq_datetime": "2026/01/02", "confidence": "n", "brightness_2": 302.07, "frp": 1.8, "index_right": 42, "CVEGEO": "10039", "CVE_ENT": "10", "CVE_MUN": "039", "NOMGEO": "Nuevo Ideal", "NOM_ENT": "Durango", "COV_": 319, "COV_ID": 320, "AREA": 183247.44658799999, "PERIMETER": 290114.84698199999, "acq_date_mex": "2026-01-02T14:36:00" }, "geometry": { "type": "Point", "coordinates": [ -105.02657, 24.92312 ] } },
{ "type": "Feature", "properties": { "WKT": "POINT (-103.39657 25.48736)", "latitude": 25.48736, "longitude": -103.39657, "brightness": 299.48, "scan": 0.47, "track": 0.48, "acq_date": "2026-01-03", "acq_time": 904, "acq_datetime": "2026/01/03", "confidence": "n", "brightness_2": 284.73, "frp": 0.86, "index_right": 1, "CVEGEO": "05035", "CVE_ENT": "05", "CVE_MUN": "035", "NOMGEO": "Torreón", "NOM_ENT": "Coahuila de Zaragoza", "COV_": 40, "COV_ID": 41, "AREA": 126984.42531200001, "PERIMETER": 310843.77231299999, "acq_date_mex": "2026-01-03T03:04:00" }, "geometry": { "type": "Point", "coordinates": [ -103.39657, 25.48736 ] } },
{ "type": "Feature", "properties": { "WKT": "POINT (-106.89561 25.13393)", "latitude": 25.13393, "longitude": -106.89561, "brightness": 328.17, "scan": 0.38, "track": 0.36, "acq_date": "2026-01-03", "acq_time": 2018, "acq_datetime": "2026/01/03", "confidence": "n", "brightness_2": 302.56, "frp": 1.52, "index_right": 41, "CVEGEO": "10034", "CVE_ENT": "10", "CVE_MUN": "034", "NOMGEO": "Tamazula", "NOM_ENT": "Durango", "COV_": 318, "COV_ID": 319, "AREA": 574131.17006499995, "PERIMETER": 643101.37118500005, "acq_date_mex": "2026-01-03T14:18:00" }, "geometry": { "type": "Point", "coordinates": [ -106.89561, 25.13393 ] } },
{ "type": "Feature", "properties": { "WKT": "POINT (-105.25705 23.13503)", "latitude": 23.13503, "longitude": -105.25705, "brightness": 332.66, "scan": 0.4, "track": 0.37, "acq_date": "2026-01-03", "acq_time": 2018, "acq_datetime": "2026/01/03", "confidence": "l", "brightness_2": 306.97, "frp": 4.58, "index_right": 17, "CVEGEO": "10023", "CVE_ENT": "10", "CVE_MUN": "023", "NOMGEO": "Pueblo Nuevo", "NOM_ENT": "Durango", "COV_": 294, "COV_ID": 292, "AREA": 689248.15241099999, "PERIMETER": 483819.55518800003, "acq_date_mex": "2026-01-03T14:18:00" }, "geometry": { "type": "Point", "coordinates": [ -105.25705, 23.13503 ] } },
{ "type": "Feature", "properties": { "WKT": "POINT (-105.41149 25.47529)", "latitude": 25.47529, "longitude": -105.41149, "brightness": 337.19, "scan": 0.41, "track": 0.37, "acq_date": "2026-01-03", "acq_time": 2018, "acq_datetime": "2026/01/03", "confidence": "n", "brightness_2": 301.82, "frp": 5.42, "index_right": 32, "CVEGEO": "10018", "CVE_ENT": "10", "CVE_MUN": "018", "NOMGEO": "El Oro", "NOM_ENT": "Durango", "COV_": 309, "COV_ID": 310, "AREA": 349598.78598500002, "PERIMETER": 446417.69504100003, "acq_date_mex": "2026-01-03T14:18:00" }, "geometry": { "type": "Point", "coordinates": [ -105.41149, 25.47529 ] } },
{ "type": "Feature", "properties": { "WKT": "POINT (-103.3971 25.48869)", "latitude": 25.48869, "longitude": -103.3971, "brightness": 303.65, "scan": 0.42, "track": 0.37, "acq_date": "2026-01-04", "acq_time": 843, "acq_datetime": "2026/01/04", "confidence": "n", "brightness_2": 285.92, "frp": 0.81, "index_right": 1, "CVEGEO": "05035", "CVE_ENT": "05", "CVE_MUN": "035", "NOMGEO": "Torreón", "NOM_ENT": "Coahuila de Zaragoza", "COV_": 40, "COV_ID": 41, "AREA": 126984.42531200001, "PERIMETER": 310843.77231299999, "acq_date_mex": "2026-01-04T02:43:00" }, "geometry": { "type": "Point", "coordinates": [ -103.3971, 25.48869 ] } },
{ "type": "Feature", "properties": { "WKT": "POINT (-104.63461 23.97913)", "latitude": 23.97913, "longitude": -104.63461, "brightness": 328.26, "scan": 0.43, "track": 0.38, "acq_date": "2026-01-04", "acq_time": 1957, "acq_datetime": "2026/01/04", "confidence": "l", "brightness_2": 299.45, "frp": 4.54, "index_right": 44, "CVEGEO": "10005", "CVE_ENT": "10", "CVE_MUN": "005", "NOMGEO": "Durango", "NOM_ENT": "Durango", "COV_": 321, "COV_ID": 322, "AREA": 918510.06569800002, "PERIMETER": 698110.38960600004, "acq_date_mex": "2026-01-04T13:57:00" }, "geometry": { "type": "Point", "coordinates": [ -104.63461, 23.97913 ] } },
{ "type": "Feature", "properties": { "WKT": "POINT (-103.39689 25.48823)", "latitude": 25.48823, "longitude": -103.39689, "brightness": 301.18, "scan": 0.43, "track": 0.38, "acq_date": "2026-01-05", "acq_time": 826, "acq_datetime": "2026/01/05", "confidence": "n", "brightness_2": 284.29, "frp": 0.87, "index_right": 1, "CVEGEO": "05035", "CVE_ENT": "05", "CVE_MUN": "035", "NOMGEO": "Torreón", "NOM_ENT": "Coahuila de Zaragoza", "COV_": 40, "COV_ID": 41, "AREA": 126984.42531200001, "PERIMETER": 310843.77231299999, "acq_date_mex": "2026-01-05T02:26:00" }, "geometry": { "type": "Point", "coordinates": [ -103.39689, 25.48823 ] } },
{ "type": "Feature", "properties": { "WKT": "POINT (-104.43135 24.01403)", "latitude": 24.01403, "longitude": -104.43135, "brightness": 330.9, "scan": 0.49, "track": 0.48, "acq_date": "2026-01-05", "acq_time": 1940, "acq_datetime": "2026/01/05", "confidence": "l", "brightness_2": 301.08, "frp": 7.79, "index_right": 44, "CVEGEO": "10005", "CVE_ENT": "10", "CVE_MUN": "005", "NOMGEO": "Durango", "NOM_ENT": "Durango", "COV_": 321, "COV_ID": 322, "AREA": 918510.06569800002, "PERIMETER": 698110.38960600004, "acq_date_mex": "2026-01-05T13:40:00" }, "geometry": { "type": "Point", "coordinates": [ -104.43135, 24.01403 ] } },
{ "type": "Feature", "properties": { "WKT": "POINT (-104.436 24.01308)", "latitude": 24.01308, "longitude": -104.436, "brightness": 339.57, "scan": 0.49, "track": 0.48, "acq_date": "2026-01-05", "acq_time": 1940, "acq_datetime": "2026/01/05", "confidence": "n", "brightness_2": 306.65, "frp": 7.79, "index_right": 44, "CVEGEO": "10005", "CVE_ENT": "10", "CVE_MUN": "005", "NOMGEO": "Durango", "NOM_ENT": "Durango", "COV_": 321, "COV_ID": 322, "AREA": 918510.06569800002, "PERIMETER": 698110.38960600004, "acq_date_mex": "2026-01-05T13:40:00" }, "geometry": { "type": "Point", "coordinates": [ -104.436, 24.01308 ] } },
{ "type": "Feature", "properties": { "WKT": "POINT (-104.57235 24.02656)", "latitude": 24.02656, "longitude": -104.57235, "brightness": 342.74, "scan": 0.5, "track": 0.49, "acq_date": "2026-01-05", "acq_time": 1940, "acq_datetime": "2026/01/05", "confidence": "n", "brightness_2": 304.45, "frp": 5.41, "index_right": 44, "CVEGEO": "10005", "CVE_ENT": "10", "CVE_MUN": "005", "NOMGEO": "Durango", "NOM_ENT": "Durango", "COV_": 321, "COV_ID": 322, "AREA": 918510.06569800002, "PERIMETER": 698110.38960600004, "acq_date_mex": "2026-01-05T13:40:00" }, "geometry": { "type": "Point", "coordinates": [ -104.57235, 24.02656 ] } },
{ "type": "Feature", "properties": { "WKT": "POINT (-104.64046 24.09938)", "latitude": 24.09938, "longitude": -104.64046, "brightness": 348.89, "scan": 0.5, "track": 0.49, "acq_date": "2026-01-05", "acq_time": 1940, "acq_datetime": "2026/01/05", "confidence": "n", "brightness_2": 305.36, "frp": 8.44, "index_right": 44, "CVEGEO": "10005", "CVE_ENT": "10", "CVE_MUN": "005", "NOMGEO": "Durango", "NOM_ENT": "Durango", "COV_": 321, "COV_ID": 322, "AREA": 918510.06569800002, "PERIMETER": 698110.38960600004, "acq_date_mex": "2026-01-05T13:40:00" }, "geometry": { "type": "Point", "coordinates": [ -104.64046, 24.09938 ] } },
{ "type": "Feature", "properties": { "WKT": "POINT (-104.63657 24.10479)", "latitude": 24.10479, "longitude": -104.63657, "brightness": 339.92, "scan": 0.5, "track": 0.49, "acq_date": "2026-01-05", "acq_time": 1940, "acq_datetime": "2026/01/05", "confidence": "n", "brightness_2": 302.65, "frp": 8.44, "index_right": 44, "CVEGEO": "10005", "CVE_ENT": "10", "CVE_MUN": "005", "NOMGEO": "Durango", "NOM_ENT": "Durango", "COV_": 321, "COV_ID": 322, "AREA": 918510.06569800002, "PERIMETER": 698110.38960600004, "acq_date_mex": "2026-01-05T13:40:00" }, "geometry": { "type": "Point", "coordinates": [ -104.63657, 24.10479 ] } },
{ "type": "Feature", "properties": { "WKT": "POINT (-104.64139 24.1038)", "latitude": 24.1038, "longitude": -104.64139, "brightness": 348.94, "scan": 0.5, "track": 0.49, "acq_date": "2026-01-05", "acq_time": 1940, "acq_datetime": "2026/01/05", "confidence": "n", "brightness_2": 307.19, "frp": 8.44, "index_right": 44, "CVEGEO": "10005", "CVE_ENT": "10", "CVE_MUN": "005", "NOMGEO": "Durango", "NOM_ENT": "Durango", "COV_": 321, "COV_ID": 322, "AREA": 918510.06569800002, "PERIMETER": 698110.38960600004, "acq_date_mex": "2026-01-05T13:40:00" }, "geometry": { "type": "Point", "coordinates": [ -104.64139, 24.1038 ] } },
{ "type": "Feature", "properties": { "WKT": "POINT (-105.08614 24.81713)", "latitude": 24.81713, "longitude": -105.08614, "brightness": 334.8, "scan": 0.51, "track": 0.5, "acq_date": "2026-01-05", "acq_time": 1940, "acq_datetime": "2026/01/05", "confidence": "n", "brightness_2": 303.03, "frp": 4.05, "index_right": 42, "CVEGEO": "10039", "CVE_ENT": "10", "CVE_MUN": "039", "NOMGEO": "Nuevo Ideal", "NOM_ENT": "Durango", "COV_": 319, "COV_ID": 320, "AREA": 183247.44658799999, "PERIMETER": 290114.84698199999, "acq_date_mex": "2026-01-05T13:40:00" }, "geometry": { "type": "Point", "coordinates": [ -105.08614, 24.81713 ] } },
{ "type": "Feature", "properties": { "WKT": "POINT (-105.09106 24.81612)", "latitude": 24.81612, "longitude": -105.09106, "brightness": 346.83, "scan": 0.51, "track": 0.5, "acq_date": "2026-01-05", "acq_time": 1940, "acq_datetime": "2026/01/05", "confidence": "n", "brightness_2": 305.09, "frp": 5.35, "index_right": 42, "CVEGEO": "10039", "CVE_ENT": "10", "CVE_MUN": "039", "NOMGEO": "Nuevo Ideal", "NOM_ENT": "Durango", "COV_": 319, "COV_ID": 320, "AREA": 183247.44658799999, "PERIMETER": 290114.84698199999, "acq_date_mex": "2026-01-05T13:40:00" }, "geometry": { "type": "Point", "coordinates": [ -105.09106, 24.81612 ] } },
{ "type": "Feature", "properties": { "WKT": "POINT (-105.09598 24.81511)", "latitude": 24.81511, "longitude": -105.09598, "brightness": 333.18, "scan": 0.52, "track": 0.5, "acq_date": "2026-01-05", "acq_time": 1940, "acq_datetime": "2026/01/05", "confidence": "n", "brightness_2": 304.43, "frp": 5.35, "index_right": 42, "CVEGEO": "10039", "CVE_ENT": "10", "CVE_MUN": "039", "NOMGEO": "Nuevo Ideal", "NOM_ENT": "Durango", "COV_": 319, "COV_ID": 320, "AREA": 183247.44658799999, "PERIMETER": 290114.84698199999, "acq_date_mex": "2026-01-05T13:40:00" }, "geometry": { "type": "Point", "coordinates": [ -105.09598, 24.81511 ] } },
{ "type": "Feature", "properties": { "WKT": "POINT (-103.96732 23.76942)", "latitude": 23.76942, "longitude": -103.96732, "brightness": 302.96, "scan": 0.52, "track": 0.5, "acq_date": "2026-01-06", "acq_time": 807, "acq_datetime": "2026/01/06", "confidence": "n", "brightness_2": 278.28, "frp": 1.01, "index_right": 48, "CVEGEO": "10038", "CVE_ENT": "10", "CVE_MUN": "038", "NOMGEO": "Vicente Guerrero", "NOM_ENT": "Durango", "COV_": 325, "COV_ID": 326, "AREA": 36569.5285544, "PERIMETER": 135245.891718, "acq_date_mex": "2026-01-06T02:07:00" }, "geometry": { "type": "Point", "coordinates": [ -103.96732, 23.76942 ] } },
{ "type": "Feature", "properties": { "WKT": "POINT (-105.51344 23.425)", "latitude": 23.425, "longitude": -105.51344, "brightness": 299.58, "scan": 0.32, "track": 0.55, "acq_date": "2026-01-06", "acq_time": 807, "acq_datetime": "2026/01/06", "confidence": "n", "brightness_2": 282.03, "frp": 0.89, "index_right": 17, "CVEGEO": "10023", "CVE_ENT": "10", "CVE_MUN": "023", "NOMGEO": "Pueblo Nuevo", "NOM_ENT": "Durango", "COV_": 294, "COV_ID": 292, "AREA": 689248.15241099999, "PERIMETER": 483819.55518800003, "acq_date_mex": "2026-01-06T02:07:00" }, "geometry": { "type": "Point", "coordinates": [ -105.51344, 23.425 ] } },
{ "type": "Feature", "properties": { "WKT": "POINT (-105.51313 23.42572)", "latitude": 23.42572, "longitude": -105.51313, "brightness": 299.74, "scan": 0.32, "track": 0.55, "acq_date": "2026-01-06", "acq_time": 807, "acq_datetime": "2026/01/06", "confidence": "n", "brightness_2": 281.87, "frp": 0.58, "index_right": 17, "CVEGEO": "10023", "CVE_ENT": "10", "CVE_MUN": "023", "NOMGEO": "Pueblo Nuevo", "NOM_ENT": "Durango", "COV_": 294, "COV_ID": 292, "AREA": 689248.15241099999, "PERIMETER": 483819.55518800003, "acq_date_mex": "2026-01-06T02:07:00" }, "geometry": { "type": "Point", "coordinates": [ -105.51313, 23.42572 ] } },
{ "type": "Feature", "properties": { "WKT": "POINT (-105.27871 23.21076)", "latitude": 23.21076, "longitude": -105.27871, "brightness": 335.99, "scan": 0.55, "track": 0.51, "acq_date": "2025-12-30", "acq_time": 2042, "acq_datetime": "2025/12/30", "confidence": "n", "brightness_2": 298.04, "frp": 6.49, "index_right": 17, "CVEGEO": "10023", "CVE_ENT": "10", "CVE_MUN": "023", "NOMGEO": "Pueblo Nuevo", "NOM_ENT": "Durango", "COV_": 294, "COV_ID": 292, "AREA": 689248.15241099999, "PERIMETER": 483819.55518800003, "acq_date_mex": "2025-12-30T14:42:00" }, "geometry": { "type": "Point", "coordinates": [ -105.27871, 23.21076 ] } },
{ "type": "Feature", "properties": { "WKT": "POINT (-105.3343 23.81095)", "latitude": 23.81095, "longitude": -105.3343, "brightness": 325.18, "scan": 0.55, "track": 0.51, "acq_date": "2025-12-30", "acq_time": 2042, "acq_datetime": "2025/12/30", "confidence": "n", "brightness_2": 293.14, "frp": 4.73, "index_right": 17, "CVEGEO": "10023", "CVE_ENT": "10", "CVE_MUN": "023", "NOMGEO": "Pueblo Nuevo", "NOM_ENT": "Durango", "COV_": 294, "COV_ID": 292, "AREA": 689248.15241099999, "PERIMETER": 483819.55518800003, "acq_date_mex": "2025-12-30T14:42:00" }, "geometry": { "type": "Point", "coordinates": [ -105.3343, 23.81095 ] } },
{ "type": "Feature", "properties": { "WKT": "POINT (-105.33559 23.80931)", "latitude": 23.80931, "longitude": -105.33559, "brightness": 296.84, "scan": 0.48, "track": 0.48, "acq_date": "2025-12-31", "acq_time": 911, "acq_datetime": "2025/12/31", "confidence": "n", "brightness_2": 271.24, "frp": 1.03, "index_right": 17, "CVEGEO": "10023", "CVE_ENT": "10", "CVE_MUN": "023", "NOMGEO": "Pueblo Nuevo", "NOM_ENT": "Durango", "COV_": 294, "COV_ID": 292, "AREA": 689248.15241099999, "PERIMETER": 483819.55518800003, "acq_date_mex": "2025-12-31T03:11:00" }, "geometry": { "type": "Point", "coordinates": [ -105.33559, 23.80931 ] } },
{ "type": "Feature", "properties": { "WKT": "POINT (-103.39677 25.48732)", "latitude": 25.48732, "longitude": -103.39677, "brightness": 307.3, "scan": 0.39, "track": 0.36, "acq_date": "2026-01-02", "acq_time": 832, "acq_datetime": "2026/01/02", "confidence": "n", "brightness_2": 286.25, "frp": 1.1, "index_right": 1, "CVEGEO": "05035", "CVE_ENT": "05", "CVE_MUN": "035", "NOMGEO": "Torreón", "NOM_ENT": "Coahuila de Zaragoza", "COV_": 40, "COV_ID": 41, "AREA": 126984.42531200001, "PERIMETER": 310843.77231299999, "acq_date_mex": "2026-01-02T02:32:00" }, "geometry": { "type": "Point", "coordinates": [ -103.39677, 25.48732 ] } },
{ "type": "Feature", "properties": { "WKT": "POINT (-103.68681 25.45911)", "latitude": 25.45911, "longitude": -103.68681, "brightness": 315.91, "scan": 0.39, "track": 0.37, "acq_date": "2026-01-02", "acq_time": 832, "acq_datetime": "2026/01/02", "confidence": "n", "brightness_2": 279.57, "frp": 1.67, "index_right": 45, "CVEGEO": "10012", "CVE_ENT": "10", "CVE_MUN": "012", "NOMGEO": "Lerdo", "NOM_ENT": "Durango", "COV_": 322, "COV_ID": 323, "AREA": 212678.88978500001, "PERIMETER": 285631.88972899999, "acq_date_mex": "2026-01-02T02:32:00" }, "geometry": { "type": "Point", "coordinates": [ -103.68681, 25.45911 ] } },
{ "type": "Feature", "properties": { "WKT": "POINT (-104.10103 23.96029)", "latitude": 23.96029, "longitude": -104.10103, "brightness": 339.97, "scan": 0.57, "track": 0.43, "acq_date": "2026-01-02", "acq_time": 1946, "acq_datetime": "2026/01/02", "confidence": "n", "brightness_2": 298.34, "frp": 36.26, "index_right": 19, "CVEGEO": "10022", "CVE_ENT": "10", "CVE_MUN": "022", "NOMGEO": "Poanas", "NOM_ENT": "Durango", "COV_": 296, "COV_ID": 298, "AREA": 111528.976388, "PERIMETER": 259042.72701, "acq_date_mex": "2026-01-02T13:46:00" }, "geometry": { "type": "Point", "coordinates": [ -104.10103, 23.96029 ] } },
{ "type": "Feature", "properties": { "WKT": "POINT (-104.10188 23.96418)", "latitude": 23.96418, "longitude": -104.10188, "brightness": 343.42, "scan": 0.57, "track": 0.43, "acq_date": "2026-01-02", "acq_time": 1946, "acq_datetime": "2026/01/02", "confidence": "n", "brightness_2": 303.18, "frp": 50.49, "index_right": 19, "CVEGEO": "10022", "CVE_ENT": "10", "CVE_MUN": "022", "NOMGEO": "Poanas", "NOM_ENT": "Durango", "COV_": 296, "COV_ID": 298, "AREA": 111528.976388, "PERIMETER": 259042.72701, "acq_date_mex": "2026-01-02T13:46:00" }, "geometry": { "type": "Point", "coordinates": [ -104.10188, 23.96418 ] } },
{ "type": "Feature", "properties": { "WKT": "POINT (-104.22695 24.35879)", "latitude": 24.35879, "longitude": -104.22695, "brightness": 344.87, "scan": 0.57, "track": 0.43, "acq_date": "2026-01-02", "acq_time": 1946, "acq_datetime": "2026/01/02", "confidence": "n", "brightness_2": 304.78, "frp": 33.74, "index_right": 33, "CVEGEO": "10020", "CVE_ENT": "10", "CVE_MUN": "020", "NOMGEO": "Pánuco de Coronado", "NOM_ENT": "Durango", "COV_": 310, "COV_ID": 311, "AREA": 101531.727402, "PERIMETER": 262457.71890699997, "acq_date_mex": "2026-01-02T13:46:00" }, "geometry": { "type": "Point", "coordinates": [ -104.22695, 24.35879 ] } },
{ "type": "Feature", "properties": { "WKT": "POINT (-103.68809 25.4595)", "latitude": 25.4595, "longitude": -103.68809, "brightness": 305.37, "scan": 0.42, "track": 0.45, "acq_date": "2026-01-03", "acq_time": 813, "acq_datetime": "2026/01/03", "confidence": "n", "brightness_2": 280.31, "frp": 0.83, "index_right": 45, "CVEGEO": "10012", "CVE_ENT": "10", "CVE_MUN": "012", "NOMGEO": "Lerdo", "NOM_ENT": "Durango", "COV_": 322, "COV_ID": 323, "AREA": 212678.88978500001, "PERIMETER": 285631.88972899999, "acq_date_mex": "2026-01-03T02:13:00" }, "geometry": { "type": "Point", "coordinates": [ -103.68809, 25.4595 ] } },
{ "type": "Feature", "properties": { "WKT": "POINT (-103.39514 25.48671)", "latitude": 25.48671, "longitude": -103.39514, "brightness": 297.57, "scan": 0.41, "track": 0.45, "acq_date": "2026-01-03", "acq_time": 813, "acq_datetime": "2026/01/03", "confidence": "n", "brightness_2": 284.66, "frp": 1.09, "index_right": 1, "CVEGEO": "05035", "CVE_ENT": "05", "CVE_MUN": "035", "NOMGEO": "Torreón", "NOM_ENT": "Coahuila de Zaragoza", "COV_": 40, "COV_ID": 41, "AREA": 126984.42531200001, "PERIMETER": 310843.77231299999, "acq_date_mex": "2026-01-03T02:13:00" }, "geometry": { "type": "Point", "coordinates": [ -103.39514, 25.48671 ] } },
{ "type": "Feature", "properties": { "WKT": "POINT (-104.07658 26.37421)", "latitude": 26.37421, "longitude": -104.07658, "brightness": 348.01, "scan": 0.33, "track": 0.55, "acq_date": "2026-01-03", "acq_time": 1927, "acq_datetime": "2026/01/03", "confidence": "n", "brightness_2": 304.21, "frp": 5.14, "index_right": 30, "CVEGEO": "10013", "CVE_ENT": "10", "CVE_MUN": "013", "NOMGEO": "Mapimí", "NOM_ENT": "Durango", "COV_": 307, "COV_ID": 308, "AREA": 766206.41040499997, "PERIMETER": 569095.79172900005, "acq_date_mex": "2026-01-03T13:27:00" }, "geometry": { "type": "Point", "coordinates": [ -104.07658, 26.37421 ] } },
{ "type": "Feature", "properties": { "WKT": "POINT (-103.39758 25.48766)", "latitude": 25.48766, "longitude": -103.39758, "brightness": 295.11, "scan": 0.4, "track": 0.6, "acq_date": "2026-01-04", "acq_time": 754, "acq_datetime": "2026/01/04", "confidence": "n", "brightness_2": 284.99, "frp": 0.46, "index_right": 1, "CVEGEO": "05035", "CVE_ENT": "05", "CVE_MUN": "035", "NOMGEO": "Torreón", "NOM_ENT": "Coahuila de Zaragoza", "COV_": 40, "COV_ID": 41, "AREA": 126984.42531200001, "PERIMETER": 310843.77231299999, "acq_date_mex": "2026-01-04T01:54:00" }, "geometry": { "type": "Point", "coordinates": [ -103.39758, 25.48766 ] } },
{ "type": "Feature", "properties": { "WKT": "POINT (-104.642 23.96652)", "latitude": 23.96652, "longitude": -104.642, "brightness": 337.48, "scan": 0.39, "track": 0.44, "acq_date": "2026-01-05", "acq_time": 2029, "acq_datetime": "2026/01/05", "confidence": "n", "brightness_2": 303.99, "frp": 2.42, "index_right": 44, "CVEGEO": "10005", "CVE_ENT": "10", "CVE_MUN": "005", "NOMGEO": "Durango", "NOM_ENT": "Durango", "COV_": 321, "COV_ID": 322, "AREA": 918510.06569800002, "PERIMETER": 698110.38960600004, "acq_date_mex": "2026-01-05T14:29:00" }, "geometry": { "type": "Point", "coordinates": [ -104.642, 23.96652 ] } },
{ "type": "Feature", "properties": { "WKT": "POINT (-104.42788 24.01216)", "latitude": 24.01216, "longitude": -104.42788, "brightness": 355.16, "scan": 0.4, "track": 0.44, "acq_date": "2026-01-05", "acq_time": 2029, "acq_datetime": "2026/01/05", "confidence": "n", "brightness_2": 313.21, "frp": 44.18, "index_right": 44, "CVEGEO": "10005", "CVE_ENT": "10", "CVE_MUN": "005", "NOMGEO": "Durango", "NOM_ENT": "Durango", "COV_": 321, "COV_ID": 322, "AREA": 918510.06569800002, "PERIMETER": 698110.38960600004, "acq_date_mex": "2026-01-05T14:29:00" }, "geometry": { "type": "Point", "coordinates": [ -104.42788, 24.01216 ] } },
{ "type": "Feature", "properties": { "WKT": "POINT (-104.43182 24.0117)", "latitude": 24.0117, "longitude": -104.43182, "brightness": 347.36, "scan": 0.4, "track": 0.44, "acq_date": "2026-01-05", "acq_time": 2029, "acq_datetime": "2026/01/05", "confidence": "n", "brightness_2": 314.07, "frp": 30.79, "index_right": 44, "CVEGEO": "10005", "CVE_ENT": "10", "CVE_MUN": "005", "NOMGEO": "Durango", "NOM_ENT": "Durango", "COV_": 321, "COV_ID": 322, "AREA": 918510.06569800002, "PERIMETER": 698110.38960600004, "acq_date_mex": "2026-01-05T14:29:00" }, "geometry": { "type": "Point", "coordinates": [ -104.43182, 24.0117 ] } },
{ "type": "Feature", "properties": { "WKT": "POINT (-104.42846 24.01622)", "latitude": 24.01622, "longitude": -104.42846, "brightness": 367.0, "scan": 0.4, "track": 0.44, "acq_date": "2026-01-05", "acq_time": 2029, "acq_datetime": "2026/01/05", "confidence": "h", "brightness_2": 319.02, "frp": 63.93, "index_right": 44, "CVEGEO": "10005", "CVE_ENT": "10", "CVE_MUN": "005", "NOMGEO": "Durango", "NOM_ENT": "Durango", "COV_": 321, "COV_ID": 322, "AREA": 918510.06569800002, "PERIMETER": 698110.38960600004, "acq_date_mex": "2026-01-05T14:29:00" }, "geometry": { "type": "Point", "coordinates": [ -104.42846, 24.01622 ] } },
{ "type": "Feature", "properties": { "WKT": "POINT (-104.43238 24.01576)", "latitude": 24.01576, "longitude": -104.43238, "brightness": 367.0, "scan": 0.4, "track": 0.44, "acq_date": "2026-01-05", "acq_time": 2029, "acq_datetime": "2026/01/05", "confidence": "h", "brightness_2": 316.86, "frp": 27.06, "index_right": 44, "CVEGEO": "10005", "CVE_ENT": "10", "CVE_MUN": "005", "NOMGEO": "Durango", "NOM_ENT": "Durango", "COV_": 321, "COV_ID": 322, "AREA": 918510.06569800002, "PERIMETER": 698110.38960600004, "acq_date_mex": "2026-01-05T14:29:00" }, "geometry": { "type": "Point", "coordinates": [ -104.43238, 24.01576 ] } },
{ "type": "Feature", "properties": { "WKT": "POINT (-104.42059 24.01715)", "latitude": 24.01715, "longitude": -104.42059, "brightness": 350.11, "scan": 0.4, "track": 0.44, "acq_date": "2026-01-05", "acq_time": 2029, "acq_datetime": "2026/01/05", "confidence": "n", "brightness_2": 310.8, "frp": 22.25, "index_right": 44, "CVEGEO": "10005", "CVE_ENT": "10", "CVE_MUN": "005", "NOMGEO": "Durango", "NOM_ENT": "Durango", "COV_": 321, "COV_ID": 322, "AREA": 918510.06569800002, "PERIMETER": 698110.38960600004, "acq_date_mex": "2026-01-05T14:29:00" }, "geometry": { "type": "Point", "coordinates": [ -104.42059, 24.01715 ] } },
{ "type": "Feature", "properties": { "WKT": "POINT (-104.42452 24.01669)", "latitude": 24.01669, "longitude": -104.42452, "brightness": 355.33, "scan": 0.4, "track": 0.44, "acq_date": "2026-01-05", "acq_time": 2029, "acq_datetime": "2026/01/05", "confidence": "n", "brightness_2": 317.76, "frp": 63.93, "index_right": 44, "CVEGEO": "10005", "CVE_ENT": "10", "CVE_MUN": "005", "NOMGEO": "Durango", "NOM_ENT": "Durango", "COV_": 321, "COV_ID": 322, "AREA": 918510.06569800002, "PERIMETER": 698110.38960600004, "acq_date_mex": "2026-01-05T14:29:00" }, "geometry": { "type": "Point", "coordinates": [ -104.42452, 24.01669 ] } },
{ "type": "Feature", "properties": { "WKT": "POINT (-104.43631 24.0153)", "latitude": 24.0153, "longitude": -104.43631, "brightness": 333.94, "scan": 0.4, "track": 0.44, "acq_date": "2026-01-05", "acq_time": 2029, "acq_datetime": "2026/01/05", "confidence": "n", "brightness_2": 306.31, "frp": 27.06, "index_right": 44, "CVEGEO": "10005", "CVE_ENT": "10", "CVE_MUN": "005", "NOMGEO": "Durango", "NOM_ENT": "Durango", "COV_": 321, "COV_ID": 322, "AREA": 918510.06569800002, "PERIMETER": 698110.38960600004, "acq_date_mex": "2026-01-05T14:29:00" }, "geometry": { "type": "Point", "coordinates": [ -104.43631, 24.0153 ] } },
{ "type": "Feature", "properties": { "WKT": "POINT (-104.42902 24.02028)", "latitude": 24.02028, "longitude": -104.42902, "brightness": 367.0, "scan": 0.4, "track": 0.44, "acq_date": "2026-01-05", "acq_time": 2029, "acq_datetime": "2026/01/05", "confidence": "h", "brightness_2": 350.48, "frp": 63.93, "index_right": 44, "CVEGEO": "10005", "CVE_ENT": "10", "CVE_MUN": "005", "NOMGEO": "Durango", "NOM_ENT": "Durango", "COV_": 321, "COV_ID": 322, "AREA": 918510.06569800002, "PERIMETER": 698110.38960600004, "acq_date_mex": "2026-01-05T14:29:00" }, "geometry": { "type": "Point", "coordinates": [ -104.42902, 24.02028 ] } },
{ "type": "Feature", "properties": { "WKT": "POINT (-104.42509 24.02075)", "latitude": 24.02075, "longitude": -104.42509, "brightness": 341.46, "scan": 0.4, "track": 0.44, "acq_date": "2026-01-05", "acq_time": 2029, "acq_datetime": "2026/01/05", "confidence": "n", "brightness_2": 305.52, "frp": 63.93, "index_right": 44, "CVEGEO": "10005", "CVE_ENT": "10", "CVE_MUN": "005", "NOMGEO": "Durango", "NOM_ENT": "Durango", "COV_": 321, "COV_ID": 322, "AREA": 918510.06569800002, "PERIMETER": 698110.38960600004, "acq_date_mex": "2026-01-05T14:29:00" }, "geometry": { "type": "Point", "coordinates": [ -104.42509, 24.02075 ] } },
{ "type": "Feature", "properties": { "WKT": "POINT (-104.43295 24.01982)", "latitude": 24.01982, "longitude": -104.43295, "brightness": 367.0, "scan": 0.4, "track": 0.44, "acq_date": "2026-01-05", "acq_time": 2029, "acq_datetime": "2026/01/05", "confidence": "l", "brightness_2": 327.12, "frp": 27.06, "index_right": 44, "CVEGEO": "10005", "CVE_ENT": "10", "CVE_MUN": "005", "NOMGEO": "Durango", "NOM_ENT": "Durango", "COV_": 321, "COV_ID": 322, "AREA": 918510.06569800002, "PERIMETER": 698110.38960600004, "acq_date_mex": "2026-01-05T14:29:00" }, "geometry": { "type": "Point", "coordinates": [ -104.43295, 24.01982 ] } },
{ "type": "Feature", "properties": { "WKT": "POINT (-104.63845 24.09906)", "latitude": 24.09906, "longitude": -104.63845, "brightness": 334.11, "scan": 0.39, "track": 0.44, "acq_date": "2026-01-05", "acq_time": 2029, "acq_datetime": "2026/01/05", "confidence": "l", "brightness_2": 305.82, "frp": 3.52, "index_right": 44, "CVEGEO": "10005", "CVE_ENT": "10", "CVE_MUN": "005", "NOMGEO": "Durango", "NOM_ENT": "Durango", "COV_": 321, "COV_ID": 322, "AREA": 918510.06569800002, "PERIMETER": 698110.38960600004, "acq_date_mex": "2026-01-05T14:29:00" }, "geometry": { "type": "Point", "coordinates": [ -104.63845, 24.09906 ] } },
{ "type": "Feature", "properties": { "WKT": "POINT (-104.6428 24.10263)", "latitude": 24.10263, "longitude": -104.6428, "brightness": 338.82, "scan": 0.39, "track": 0.44, "acq_date": "2026-01-05", "acq_time": 2029, "acq_datetime": "2026/01/05", "confidence": "n", "brightness_2": 306.39, "frp": 9.37, "index_right": 44, "CVEGEO": "10005", "CVE_ENT": "10", "CVE_MUN": "005", "NOMGEO": "Durango", "NOM_ENT": "Durango", "COV_": 321, "COV_ID": 322, "AREA": 918510.06569800002, "PERIMETER": 698110.38960600004, "acq_date_mex": "2026-01-05T14:29:00" }, "geometry": { "type": "Point", "coordinates": [ -104.6428, 24.10263 ] } },
{ "type": "Feature", "properties": { "WKT": "POINT (-104.63968 24.10708)", "latitude": 24.10708, "longitude": -104.63968, "brightness": 341.15, "scan": 0.39, "track": 0.44, "acq_date": "2026-01-05", "acq_time": 2029, "acq_datetime": "2026/01/05", "confidence": "n", "brightness_2": 305.73, "frp": 5.55, "index_right": 44, "CVEGEO": "10005", "CVE_ENT": "10", "CVE_MUN": "005", "NOMGEO": "Durango", "NOM_ENT": "Durango", "COV_": 321, "COV_ID": 322, "AREA": 918510.06569800002, "PERIMETER": 698110.38960600004, "acq_date_mex": "2026-01-05T14:29:00" }, "geometry": { "type": "Point", "coordinates": [ -104.63968, 24.10708 ] } },
{ "type": "Feature", "properties": { "WKT": "POINT (-104.64349 24.10662)", "latitude": 24.10662, "longitude": -104.64349, "brightness": 339.66, "scan": 0.39, "track": 0.44, "acq_date": "2026-01-05", "acq_time": 2029, "acq_datetime": "2026/01/05", "confidence": "n", "brightness_2": 305.69, "frp": 7.98, "index_right": 44, "CVEGEO": "10005", "CVE_ENT": "10", "CVE_MUN": "005", "NOMGEO": "Durango", "NOM_ENT": "Durango", "COV_": 321, "COV_ID": 322, "AREA": 918510.06569800002, "PERIMETER": 698110.38960600004, "acq_date_mex": "2026-01-05T14:29:00" }, "geometry": { "type": "Point", "coordinates": [ -104.64349, 24.10662 ] } },
{ "type": "Feature", "properties": { "WKT": "POINT (-104.64032 24.11108)", "latitude": 24.11108, "longitude": -104.64032, "brightness": 338.46, "scan": 0.39, "track": 0.44, "acq_date": "2026-01-05", "acq_time": 2029, "acq_datetime": "2026/01/05", "confidence": "n", "brightness_2": 302.69, "frp": 5.55, "index_right": 44, "CVEGEO": "10005", "CVE_ENT": "10", "CVE_MUN": "005", "NOMGEO": "Durango", "NOM_ENT": "Durango", "COV_": 321, "COV_ID": 322, "AREA": 918510.06569800002, "PERIMETER": 698110.38960600004, "acq_date_mex": "2026-01-05T14:29:00" }, "geometry": { "type": "Point", "coordinates": [ -104.64032, 24.11108 ] } },
{ "type": "Feature", "properties": { "WKT": "POINT (-104.7093 24.14562)", "latitude": 24.14562, "longitude": -104.7093, "brightness": 342.31, "scan": 0.39, "track": 0.44, "acq_date": "2026-01-05", "acq_time": 2029, "acq_datetime": "2026/01/05", "confidence": "n", "brightness_2": 303.86, "frp": 4.13, "index_right": 44, "CVEGEO": "10005", "CVE_ENT": "10", "CVE_MUN": "005", "NOMGEO": "Durango", "NOM_ENT": "Durango", "COV_": 321, "COV_ID": 322, "AREA": 918510.06569800002, "PERIMETER": 698110.38960600004, "acq_date_mex": "2026-01-05T14:29:00" }, "geometry": { "type": "Point", "coordinates": [ -104.7093, 24.14562 ] } },
{ "type": "Feature", "properties": { "WKT": "POINT (-104.39925 24.33838)", "latitude": 24.33838, "longitude": -104.39925, "brightness": 340.27, "scan": 0.41, "track": 0.45, "acq_date": "2026-01-05", "acq_time": 2029, "acq_datetime": "2026/01/05", "confidence": "n", "brightness_2": 305.76, "frp": 7.37, "index_right": 44, "CVEGEO": "10005", "CVE_ENT": "10", "CVE_MUN": "005", "NOMGEO": "Durango", "NOM_ENT": "Durango", "COV_": 321, "COV_ID": 322, "AREA": 918510.06569800002, "PERIMETER": 698110.38960600004, "acq_date_mex": "2026-01-05T14:29:00" }, "geometry": { "type": "Point", "coordinates": [ -104.39925, 24.33838 ] } },
{ "type": "Feature", "properties": { "WKT": "POINT (-104.40319 24.33792)", "latitude": 24.33792, "longitude": -104.40319, "brightness": 338.68, "scan": 0.41, "track": 0.45, "acq_date": "2026-01-05", "acq_time": 2029, "acq_datetime": "2026/01/05", "confidence": "n", "brightness_2": 306.08, "frp": 8.68, "index_right": 44, "CVEGEO": "10005", "CVE_ENT": "10", "CVE_MUN": "005", "NOMGEO": "Durango", "NOM_ENT": "Durango", "COV_": 321, "COV_ID": 322, "AREA": 918510.06569800002, "PERIMETER": 698110.38960600004, "acq_date_mex": "2026-01-05T14:29:00" }, "geometry": { "type": "Point", "coordinates": [ -104.40319, 24.33792 ] } },
{ "type": "Feature", "properties": { "WKT": "POINT (-104.3998 24.34247)", "latitude": 24.34247, "longitude": -104.3998, "brightness": 339.67, "scan": 0.41, "track": 0.45, "acq_date": "2026-01-05", "acq_time": 2029, "acq_datetime": "2026/01/05", "confidence": "n", "brightness_2": 304.78, "frp": 3.33, "index_right": 44, "CVEGEO": "10005", "CVE_ENT": "10", "CVE_MUN": "005", "NOMGEO": "Durango", "NOM_ENT": "Durango", "COV_": 321, "COV_ID": 322, "AREA": 918510.06569800002, "PERIMETER": 698110.38960600004, "acq_date_mex": "2026-01-05T14:29:00" }, "geometry": { "type": "Point", "coordinates": [ -104.3998, 24.34247 ] } },
{ "type": "Feature", "properties": { "WKT": "POINT (-105.08862 24.81976)", "latitude": 24.81976, "longitude": -105.08862, "brightness": 351.68, "scan": 0.57, "track": 0.43, "acq_date": "2026-01-05", "acq_time": 2029, "acq_datetime": "2026/01/05", "confidence": "n", "brightness_2": 316.76, "frp": 34.3, "index_right": 42, "CVEGEO": "10039", "CVE_ENT": "10", "CVE_MUN": "039", "NOMGEO": "Nuevo Ideal", "NOM_ENT": "Durango", "COV_": 319, "COV_ID": 320, "AREA": 183247.44658799999, "PERIMETER": 290114.84698199999, "acq_date_mex": "2026-01-05T14:29:00" }, "geometry": { "type": "Point", "coordinates": [ -105.08862, 24.81976 ] } },
{ "type": "Feature", "properties": { "WKT": "POINT (-105.09419 24.81909)", "latitude": 24.81909, "longitude": -105.09419, "brightness": 351.49, "scan": 0.57, "track": 0.43, "acq_date": "2026-01-05", "acq_time": 2029, "acq_datetime": "2026/01/05", "confidence": "n", "brightness_2": 308.3, "frp": 34.3, "index_right": 42, "CVEGEO": "10039", "CVE_ENT": "10", "CVE_MUN": "039", "NOMGEO": "Nuevo Ideal", "NOM_ENT": "Durango", "COV_": 319, "COV_ID": 320, "AREA": 183247.44658799999, "PERIMETER": 290114.84698199999, "acq_date_mex": "2026-01-05T14:29:00" }, "geometry": { "type": "Point", "coordinates": [ -105.09419, 24.81909 ] } },
{ "type": "Feature", "properties": { "WKT": "POINT (-105.0836 24.82438)", "latitude": 24.82438, "longitude": -105.0836, "brightness": 334.83, "scan": 0.57, "track": 0.43, "acq_date": "2026-01-05", "acq_time": 2029, "acq_datetime": "2026/01/05", "confidence": "n", "brightness_2": 303.22, "frp": 5.98, "index_right": 42, "CVEGEO": "10039", "CVE_ENT": "10", "CVE_MUN": "039", "NOMGEO": "Nuevo Ideal", "NOM_ENT": "Durango", "COV_": 319, "COV_ID": 320, "AREA": 183247.44658799999, "PERIMETER": 290114.84698199999, "acq_date_mex": "2026-01-05T14:29:00" }, "geometry": { "type": "Point", "coordinates": [ -105.0836, 24.82438 ] } },
{ "type": "Feature", "properties": { "WKT": "POINT (-105.08917 24.8237)", "latitude": 24.8237, "longitude": -105.08917, "brightness": 346.57, "scan": 0.57, "track": 0.43, "acq_date": "2026-01-05", "acq_time": 2029, "acq_datetime": "2026/01/05", "confidence": "n", "brightness_2": 306.43, "frp": 17.71, "index_right": 42, "CVEGEO": "10039", "CVE_ENT": "10", "CVE_MUN": "039", "NOMGEO": "Nuevo Ideal", "NOM_ENT": "Durango", "COV_": 319, "COV_ID": 320, "AREA": 183247.44658799999, "PERIMETER": 290114.84698199999, "acq_date_mex": "2026-01-05T14:29:00" }, "geometry": { "type": "Point", "coordinates": [ -105.08917, 24.8237 ] } },
{ "type": "Feature", "properties": { "WKT": "POINT (-103.39722 25.48723)", "latitude": 25.48723, "longitude": -103.39722, "brightness": 302.1, "scan": 0.38, "track": 0.43, "acq_date": "2026-01-06", "acq_time": 856, "acq_datetime": "2026/01/06", "confidence": "n", "brightness_2": 286.0, "frp": 1.13, "index_right": 1, "CVEGEO": "05035", "CVE_ENT": "05", "CVE_MUN": "035", "NOMGEO": "Torreón", "NOM_ENT": "Coahuila de Zaragoza", "COV_": 40, "COV_ID": 41, "AREA": 126984.42531200001, "PERIMETER": 310843.77231299999, "acq_date_mex": "2026-01-06T02:56:00" }, "geometry": { "type": "Point", "coordinates": [ -103.39722, 25.48723 ] } },
{ "type": "Feature", "properties": { "WKT": "POINT (-103.96583 23.76426)", "latitude": 23.76426, "longitude": -103.96583, "brightness": 305.39, "scan": 0.57, "track": 0.43, "acq_date": "2026-01-06", "acq_time": 858, "acq_datetime": "2026/01/06", "confidence": "n", "brightness_2": 272.05, "frp": 2.06, "index_right": 48, "CVEGEO": "10038", "CVE_ENT": "10", "CVE_MUN": "038", "NOMGEO": "Vicente Guerrero", "NOM_ENT": "Durango", "COV_": 325, "COV_ID": 326, "AREA": 36569.5285544, "PERIMETER": 135245.891718, "acq_date_mex": "2026-01-06T02:58:00" }, "geometry": { "type": "Point", "coordinates": [ -103.96583, 23.76426 ] } }
]
}
