{
"type": "FeatureCollection",
"name": "centroides",
"crs": { "type": "name", "properties": { "name": "urn:ogc:def:crs:OGC:1.3:CRS84" } },
"features": [
{ "type": "Feature", "properties": { "cluster": 0, "fpc_inicio": "2026-01-05T13:19:00", "fpc_final": "2026-01-05T15:54:00", "num_puntos": 35, "AQ_ha": 206.2394, "NOMGEO": "Durango", "NOM_ENT": "Durango", "NOM_NUC": "Sin Información" }, "geometry": { "type": "Point", "coordinates": [ -104.427022247626127, 24.018369643490743 ] } },
{ "type": "Feature", "properties": { "cluster": 1, "fpc_inicio": "2026-01-05T13:19:00", "fpc_final": "2026-01-05T15:54:00", "num_puntos": 23, "AQ_ha": 100.5812, "NOMGEO": "Durango", "NOM_ENT": "Durango", "NOM_NUC": "Sin Información" }, "geometry": { "type": "Point", "coordinates": [ -104.6420730963343, 24.109014549134205 ] } },
{ "type": "Feature", "properties": { "cluster": 2, "fpc_inicio": "2025-12-30T13:32:00", "fpc_final": "2025-12-31T03:11:00", "num_puntos": 6, "AQ_ha": 8.7219, "NOMGEO": "Pueblo Nuevo", "NOM_ENT": "Durango", "NOM_NUC": "Sin Información" }, "geometry": { "type": "Point", "coordinates": [ -105.335423791983359, 23.809887614712871 ] } },
{ "type": "Feature", "properties": { "cluster": 3, "fpc_inicio": "2025-12-30T14:42:00", "fpc_final": "2025-12-30T15:12:00", "num_puntos": 5, "AQ_ha": 5.8545, "NOMGEO": "Pueblo Nuevo", "NOM_ENT": "Durango", "NOM_NUC": "San Bernardino de Milpillas Chico" }, "geometry": { "type": "Point", "coordinates": [ -105.27675589440021, 23.209690182897862 ] } },
{ "type": "Feature", "properties": { "cluster": 4, "fpc_inicio": "2026-01-02T02:32:00", "fpc_final": "2026-01-03T02:41:00", "num_puntos": 5, "AQ_ha": 5.8115, "NOMGEO": "Lerdo", "NOM_ENT": "Durango", "NOM_NUC": "Sin Información" }, "geometry": { "type": "Point", "coordinates": [ -103.687356246006573, 25.459304163013112 ] } },
{ "type": "Feature", "properties": { "cluster": 5, "fpc_inicio": "2026-01-02T02:32:00", "fpc_final": "2026-01-06T03:26:00", "num_puntos": 10, "AQ_ha": 3.6619, "NOMGEO": "Torreón", "NOM_ENT": "Coahuila de Zaragoza", "NOM_NUC": "Sin Información" }, "geometry": { "type": "Point", "coordinates": [ -103.396503774389259, 25.488157693385045 ] } },
{ "type": "Feature", "properties": { "cluster": 6, "fpc_inicio": "2026-01-05T13:19:00", "fpc_final": "2026-01-05T14:59:00", "num_puntos": 15, "AQ_ha": 77.8606, "NOMGEO": "Nuevo Ideal", "NOM_ENT": "Durango", "NOM_NUC": "Astilleros de Abajo" }, "geometry": { "type": "Point", "coordinates": [ -105.089751830585556, 24.819726915756558 ] } }
]
}
