{
"type": "FeatureCollection",
"name": "dbscan_espaciotemporal_5dias",
"crs": { "type": "name", "properties": { "name": "urn:ogc:def:crs:EPSG::32613" } },
"features": [
{ "type": "Feature", "properties": { "WKT": "POINT (-104.0675 23.97696)", "latitude": 23.97696, "longitude": -104.0675, "brightness": 316.71, "scan": 1.13, "track": 1.06, "acq_date": "2026-01-02T00:00:00", "acq_time": 2140, "acq_datetime": "2026-01-02T00:00:00", "confidence": "75", "brightness_2": 304.26, "frp": 9.34, "SATELITE": "MODIS_7d", "index_right": 19, "CVEGEO": "10022", "CVE_ENT": "10", "CVE_MUN": "022", "NOMGEO": "Poanas", "NOM_ENT": "Durango", "acq_date_mex": "2026-01-02T15:40:00", "etiqueta": "HISTORIAL", "id_unico": "23.977_-104.0675_2026-01-02 15:40:00", "cluster": -1 }, "geometry": { "type": "Point", "coordinates": [ 594865.279443196719512, 2651989.419463993981481 ] } },
{ "type": "Feature", "properties": { "WKT": "POINT (-103.874 24.23063)", "latitude": 24.23063, "longitude": -103.874, "brightness": 317.47, "scan": 1.1, "track": 1.05, "acq_date": "2026-01-02T00:00:00", "acq_time": 2140, "acq_datetime": "2026-01-02T00:00:00", "confidence": "66", "brightness_2": 296.54, "frp": 12.67, "SATELITE": "MODIS_7d", "index_right": 23, "CVEGEO": "10004", "CVE_ENT": "10", "CVE_MUN": "004", "NOMGEO": "Cuencamé", "NOM_ENT": "Durango", "acq_date_mex": "2026-01-02T15:40:00", "etiqueta": "HISTORIAL", "id_unico": "24.2306_-103.874_2026-01-02 15:40:00", "cluster": -1 }, "geometry": { "type": "Point", "coordinates": [ 614326.556763905682601, 2680221.967328335158527 ] } },
{ "type": "Feature", "properties": { "WKT": "POINT (-104.42257 24.0117)", "latitude": 24.0117, "longitude": -104.42257, "brightness": 328.72, "scan": 1.06, "track": 1.03, "acq_date": "2026-01-05T00:00:00", "acq_time": 2154, "acq_datetime": "2026-01-05T00:00:00", "confidence": "84", "brightness_2": 303.25, "frp": 22.49, "SATELITE": "MODIS_7d", "index_right": 44, "CVEGEO": "10005", "CVE_ENT": "10", "CVE_MUN": "005", "NOMGEO": "Durango", "NOM_ENT": "Durango", "acq_date_mex": "2026-01-05T15:54:00", "etiqueta": "HISTORIAL", "id_unico": "24.0117_-104.4226_2026-01-05 15:54:00", "cluster": 0 }, "geometry": { "type": "Point", "coordinates": [ 558726.384121321723796, 2655642.313275509513915 ] } },
{ "type": "Feature", "properties": { "WKT": "POINT (-104.43257 24.01032)", "latitude": 24.01032, "longitude": -104.43257, "brightness": 323.94, "scan": 1.05, "track": 1.03, "acq_date": "2026-01-05T00:00:00", "acq_time": 2154, "acq_datetime": "2026-01-05T00:00:00", "confidence": "80", "brightness_2": 304.4, "frp": 16.53, "SATELITE": "MODIS_7d", "index_right": 44, "CVEGEO": "10005", "CVE_ENT": "10", "CVE_MUN": "005", "NOMGEO": "Durango", "NOM_ENT": "Durango", "acq_date_mex": "2026-01-05T15:54:00", "etiqueta": "HISTORIAL", "id_unico": "24.0103_-104.4326_2026-01-05 15:54:00", "cluster": 0 }, "geometry": { "type": "Point", "coordinates": [ 557709.946913781343028, 2655485.387854341883212 ] } },
{ "type": "Feature", "properties": { "WKT": "POINT (-104.4207 24.02263)", "latitude": 24.02263, "longitude": -104.4207, "brightness": 317.25, "scan": 1.06, "track": 1.03, "acq_date": "2026-01-05T00:00:00", "acq_time": 2154, "acq_datetime": "2026-01-05T00:00:00", "confidence": "72", "brightness_2": 300.23, "frp": 11.37, "SATELITE": "MODIS_7d", "index_right": 44, "CVEGEO": "10005", "CVE_ENT": "10", "CVE_MUN": "005", "NOMGEO": "Durango", "NOM_ENT": "Durango", "acq_date_mex": "2026-01-05T15:54:00", "etiqueta": "HISTORIAL", "id_unico": "24.0226_-104.4207_2026-01-05 15:54:00", "cluster": 0 }, "geometry": { "type": "Point", "coordinates": [ 558911.593038868857548, 2656853.241988668683916 ] } },
{ "type": "Feature", "properties": { "WKT": "POINT (-104.43072 24.02128)", "latitude": 24.02128, "longitude": -104.43072, "brightness": 321.69, "scan": 1.06, "track": 1.03, "acq_date": "2026-01-05T00:00:00", "acq_time": 2154, "acq_datetime": "2026-01-05T00:00:00", "confidence": "77", "brightness_2": 303.56, "frp": 16.04, "SATELITE": "MODIS_7d", "index_right": 44, "CVEGEO": "10005", "CVE_ENT": "10", "CVE_MUN": "005", "NOMGEO": "Durango", "NOM_ENT": "Durango", "acq_date_mex": "2026-01-05T15:54:00", "etiqueta": "HISTORIAL", "id_unico": "24.0213_-104.4307_2026-01-05 15:54:00", "cluster": 0 }, "geometry": { "type": "Point", "coordinates": [ 557893.196492186747491, 2656699.614693195093423 ] } },
{ "type": "Feature", "properties": { "WKT": "POINT (-104.64487 24.11095)", "latitude": 24.11095, "longitude": -104.64487, "brightness": 354.4, "scan": 1.04, "track": 1.02, "acq_date": "2026-01-05T00:00:00", "acq_time": 2154, "acq_datetime": "2026-01-05T00:00:00", "confidence": "97", "brightness_2": 303.7, "frp": 68.69, "SATELITE": "MODIS_7d", "index_right": 44, "CVEGEO": "10005", "CVE_ENT": "10", "CVE_MUN": "005", "NOMGEO": "Durango", "NOM_ENT": "Durango", "acq_date_mex": "2026-01-05T15:54:00", "etiqueta": "HISTORIAL", "id_unico": "24.111_-104.6449_2026-01-05 15:54:00", "cluster": 1 }, "geometry": { "type": "Point", "coordinates": [ 536089.773677810910158, 2666556.026224114466459 ] } },
{ "type": "Feature", "properties": { "WKT": "POINT (-104.63644 24.12119)", "latitude": 24.12119, "longitude": -104.63644, "brightness": 372.67, "scan": 1.04, "track": 1.02, "acq_date": "2026-01-05T00:00:00", "acq_time": 2154, "acq_datetime": "2026-01-05T00:00:00", "confidence": "100", "brightness_2": 306.21, "frp": 125.79, "SATELITE": "MODIS_7d", "index_right": 44, "CVEGEO": "10005", "CVE_ENT": "10", "CVE_MUN": "005", "NOMGEO": "Durango", "NOM_ENT": "Durango", "acq_date_mex": "2026-01-05T15:54:00", "etiqueta": "HISTORIAL", "id_unico": "24.1212_-104.6364_2026-01-05 15:54:00", "cluster": 1 }, "geometry": { "type": "Point", "coordinates": [ 536943.53323755483143, 2667691.964148934930563 ] } },
{ "type": "Feature", "properties": { "WKT": "POINT (-104.64632 24.11983)", "latitude": 24.11983, "longitude": -104.64632, "brightness": 353.48, "scan": 1.04, "track": 1.02, "acq_date": "2026-01-05T00:00:00", "acq_time": 2154, "acq_datetime": "2026-01-05T00:00:00", "confidence": "97", "brightness_2": 304.74, "frp": 66.38, "SATELITE": "MODIS_7d", "index_right": 44, "CVEGEO": "10005", "CVE_ENT": "10", "CVE_MUN": "005", "NOMGEO": "Durango", "NOM_ENT": "Durango", "acq_date_mex": "2026-01-05T15:54:00", "etiqueta": "HISTORIAL", "id_unico": "24.1198_-104.6463_2026-01-05 15:54:00", "cluster": 1 }, "geometry": { "type": "Point", "coordinates": [ 535939.937779647996649, 2667538.820832621306181 ] } },
{ "type": "Feature", "properties": { "WKT": "POINT (-104.63783 24.13008)", "latitude": 24.13008, "longitude": -104.63783, "brightness": 324.52, "scan": 1.04, "track": 1.02, "acq_date": "2026-01-05T00:00:00", "acq_time": 2154, "acq_datetime": "2026-01-05T00:00:00", "confidence": "79", "brightness_2": 298.26, "frp": 17.63, "SATELITE": "MODIS_7d", "index_right": 44, "CVEGEO": "10005", "CVE_ENT": "10", "CVE_MUN": "005", "NOMGEO": "Durango", "NOM_ENT": "Durango", "acq_date_mex": "2026-01-05T15:54:00", "etiqueta": "HISTORIAL", "id_unico": "24.1301_-104.6378_2026-01-05 15:54:00", "cluster": -1 }, "geometry": { "type": "Point", "coordinates": [ 536799.742584715364501, 2668675.874622801318765 ] } },
{ "type": "Feature", "properties": { "WKT": "POINT (-105.00629 24.91029)", "latitude": 24.91029, "longitude": -105.00629, "brightness": 313.04, "scan": 1.03, "track": 1.01, "acq_date": "2026-01-05T00:00:00", "acq_time": 2154, "acq_datetime": "2026-01-05T00:00:00", "confidence": "65", "brightness_2": 301.96, "frp": 5.55, "SATELITE": "MODIS_7d", "index_right": 42, "CVEGEO": "10039", "CVE_ENT": "10", "CVE_MUN": "039", "NOMGEO": "Nuevo Ideal", "NOM_ENT": "Durango", "acq_date_mex": "2026-01-05T15:54:00", "etiqueta": "HISTORIAL", "id_unico": "24.9103_-105.0063_2026-01-05 15:54:00", "cluster": -1 }, "geometry": { "type": "Point", "coordinates": [ 499364.817830094310921, 2755014.361363213974983 ] } },
{ "type": "Feature", "properties": { "WKT": "POINT (-105.01613 24.90892)", "latitude": 24.90892, "longitude": -105.01613, "brightness": 312.57, "scan": 1.03, "track": 1.01, "acq_date": "2026-01-05T00:00:00", "acq_time": 2154, "acq_datetime": "2026-01-05T00:00:00", "confidence": "63", "brightness_2": 301.75, "frp": 5.04, "SATELITE": "MODIS_7d", "index_right": 42, "CVEGEO": "10039", "CVE_ENT": "10", "CVE_MUN": "039", "NOMGEO": "Nuevo Ideal", "NOM_ENT": "Durango", "acq_date_mex": "2026-01-05T15:54:00", "etiqueta": "HISTORIAL", "id_unico": "24.9089_-105.0161_2026-01-05 15:54:00", "cluster": -1 }, "geometry": { "type": "Point", "coordinates": [ 498371.128519177669659, 2754862.746936221607029 ] } },
{ "type": "Feature", "properties": { "WKT": "POINT (-105.33435 23.80883)", "latitude": 23.80883, "longitude": -105.33435, "brightness": 331.05, "scan": 0.43, "track": 0.62, "acq_date": "2025-12-30T00:00:00", "acq_time": 1932, "acq_datetime": "2025-12-30T00:00:00", "confidence": "n", "brightness_2": 290.37, "frp": 3.57, "SATELITE": "VIIRS_SNPP_7d", "index_right": 17, "CVEGEO": "10023", "CVE_ENT": "10", "CVE_MUN": "023", "NOMGEO": "Pueblo Nuevo", "NOM_ENT": "Durango", "acq_date_mex": "2025-12-30T13:32:00", "etiqueta": "HISTORIAL", "id_unico": "23.8088_-105.3344_2025-12-30 13:32:00", "cluster": 2 }, "geometry": { "type": "Point", "coordinates": [ 465942.724202421610244, 2633101.737328176852316 ] } },
{ "type": "Feature", "properties": { "WKT": "POINT (-105.33466 23.81098)", "latitude": 23.81098, "longitude": -105.33466, "brightness": 327.76, "scan": 0.43, "track": 0.62, "acq_date": "2025-12-30T00:00:00", "acq_time": 1932, "acq_datetime": "2025-12-30T00:00:00", "confidence": "n", "brightness_2": 290.47, "frp": 2.85, "SATELITE": "VIIRS_SNPP_7d", "index_right": 17, "CVEGEO": "10023", "CVE_ENT": "10", "CVE_MUN": "023", "NOMGEO": "Pueblo Nuevo", "NOM_ENT": "Durango", "acq_date_mex": "2025-12-30T13:32:00", "etiqueta": "HISTORIAL", "id_unico": "23.811_-105.3347_2025-12-30 13:32:00", "cluster": 2 }, "geometry": { "type": "Point", "coordinates": [ 465911.708287253102753, 2633339.843543301802129 ] } },
{ "type": "Feature", "properties": { "WKT": "POINT (-105.27336 23.20889)", "latitude": 23.20889, "longitude": -105.27336, "brightness": 330.51, "scan": 0.68, "track": 0.74, "acq_date": "2025-12-30T00:00:00", "acq_time": 2112, "acq_datetime": "2025-12-30T00:00:00", "confidence": "n", "brightness_2": 295.06, "frp": 8.06, "SATELITE": "VIIRS_SNPP_7d", "index_right": 17, "CVEGEO": "10023", "CVE_ENT": "10", "CVE_MUN": "023", "NOMGEO": "Pueblo Nuevo", "NOM_ENT": "Durango", "acq_date_mex": "2025-12-30T15:12:00", "etiqueta": "HISTORIAL", "id_unico": "23.2089_-105.2734_2025-12-30 15:12:00", "cluster": 3 }, "geometry": { "type": "Point", "coordinates": [ 472028.869428060133941, 2566670.427491367794573 ] } },
{ "type": "Feature", "properties": { "WKT": "POINT (-105.27849 23.20958)", "latitude": 23.20958, "longitude": -105.27849, "brightness": 334.38, "scan": 0.68, "track": 0.74, "acq_date": "2025-12-30T00:00:00", "acq_time": 2112, "acq_datetime": "2025-12-30T00:00:00", "confidence": "n", "brightness_2": 295.61, "frp": 8.4, "SATELITE": "VIIRS_SNPP_7d", "index_right": 17, "CVEGEO": "10023", "CVE_ENT": "10", "CVE_MUN": "023", "NOMGEO": "Pueblo Nuevo", "NOM_ENT": "Durango", "acq_date_mex": "2025-12-30T15:12:00", "etiqueta": "HISTORIAL", "id_unico": "23.2096_-105.2785_2025-12-30 15:12:00", "cluster": 3 }, "geometry": { "type": "Point", "coordinates": [ 471504.093748791317921, 2566747.809164334554225 ] } },
{ "type": "Feature", "properties": { "WKT": "POINT (-105.27522 23.2098)", "latitude": 23.2098, "longitude": -105.27522, "brightness": 351.21, "scan": 0.68, "track": 0.74, "acq_date": "2025-12-30T00:00:00", "acq_time": 2112, "acq_datetime": "2025-12-30T00:00:00", "confidence": "n", "brightness_2": 295.81, "frp": 19.42, "SATELITE": "VIIRS_SNPP_7d", "index_right": 17, "CVEGEO": "10023", "CVE_ENT": "10", "CVE_MUN": "023", "NOMGEO": "Pueblo Nuevo", "NOM_ENT": "Durango", "acq_date_mex": "2025-12-30T15:12:00", "etiqueta": "HISTORIAL", "id_unico": "23.2098_-105.2752_2025-12-30 15:12:00", "cluster": 3 }, "geometry": { "type": "Point", "coordinates": [ 471838.737555387429893, 2566771.526769179850817 ] } },
{ "type": "Feature", "properties": { "WKT": "POINT (-105.70444 23.9778)", "latitude": 23.9778, "longitude": -105.70444, "brightness": 367.0, "scan": 0.66, "track": 0.73, "acq_date": "2025-12-30T00:00:00", "acq_time": 2112, "acq_datetime": "2025-12-30T00:00:00", "confidence": "h", "brightness_2": 294.8, "frp": 12.51, "SATELITE": "VIIRS_SNPP_7d", "index_right": 20, "CVEGEO": "10026", "CVE_ENT": "10", "CVE_MUN": "026", "NOMGEO": "San Dimas", "NOM_ENT": "Durango", "acq_date_mex": "2025-12-30T15:12:00", "etiqueta": "HISTORIAL", "id_unico": "23.9778_-105.7044_2025-12-30 15:12:00", "cluster": -1 }, "geometry": { "type": "Point", "coordinates": [ 428337.147567586565856, 2651947.727024426218122 ] } },
{ "type": "Feature", "properties": { "WKT": "POINT (-105.27317 23.21587)", "latitude": 23.21587, "longitude": -105.27317, "brightness": 328.69, "scan": 0.68, "track": 0.74, "acq_date": "2025-12-30T00:00:00", "acq_time": 2112, "acq_datetime": "2025-12-30T00:00:00", "confidence": "n", "brightness_2": 292.61, "frp": 8.06, "SATELITE": "VIIRS_SNPP_7d", "index_right": 17, "CVEGEO": "10023", "CVE_ENT": "10", "CVE_MUN": "023", "NOMGEO": "Pueblo Nuevo", "NOM_ENT": "Durango", "acq_date_mex": "2025-12-30T15:12:00", "etiqueta": "HISTORIAL", "id_unico": "23.2159_-105.2732_2025-12-30 15:12:00", "cluster": -1 }, "geometry": { "type": "Point", "coordinates": [ 472049.763031225244049, 2567443.101815862115473 ] } },
{ "type": "Feature", "properties": { "WKT": "POINT (-105.27636 23.2087)", "latitude": 23.2087, "longitude": -105.27636, "brightness": 342.45, "scan": 0.68, "track": 0.74, "acq_date": "2025-12-30T00:00:00", "acq_time": 2112, "acq_datetime": "2025-12-30T00:00:00", "confidence": "n", "brightness_2": 295.71, "frp": 15.54, "SATELITE": "VIIRS_SNPP_7d", "index_right": 17, "CVEGEO": "10023", "CVE_ENT": "10", "CVE_MUN": "023", "NOMGEO": "Pueblo Nuevo", "NOM_ENT": "Durango", "acq_date_mex": "2025-12-30T15:12:00", "etiqueta": "HISTORIAL", "id_unico": "23.2087_-105.2764_2025-12-30 15:12:00", "cluster": 3 }, "geometry": { "type": "Point", "coordinates": [ 471721.857537685427815, 2566649.97415721649304 ] } },
{ "type": "Feature", "properties": { "WKT": "POINT (-103.68585 25.46049)", "latitude": 25.46049, "longitude": -103.68585, "brightness": 306.27, "scan": 0.55, "track": 0.43, "acq_date": "2026-01-02T00:00:00", "acq_time": 902, "acq_datetime": "2026-01-02T00:00:00", "confidence": "n", "brightness_2": 279.28, "frp": 1.4, "SATELITE": "VIIRS_SNPP_7d", "index_right": 45, "CVEGEO": "10012", "CVE_ENT": "10", "CVE_MUN": "012", "NOMGEO": "Lerdo", "NOM_ENT": "Durango", "acq_date_mex": "2026-01-02T03:02:00", "etiqueta": "HISTORIAL", "id_unico": "25.4605_-103.6858_2026-01-02 03:02:00", "cluster": 4 }, "geometry": { "type": "Point", "coordinates": [ 632119.325961262802593, 2816590.161315858829767 ] } },
{ "type": "Feature", "properties": { "WKT": "POINT (-103.68974 25.46143)", "latitude": 25.46143, "longitude": -103.68974, "brightness": 305.44, "scan": 0.55, "track": 0.43, "acq_date": "2026-01-02T00:00:00", "acq_time": 902, "acq_datetime": "2026-01-02T00:00:00", "confidence": "n", "brightness_2": 279.18, "frp": 1.0, "SATELITE": "VIIRS_SNPP_7d", "index_right": 45, "CVEGEO": "10012", "CVE_ENT": "10", "CVE_MUN": "012", "NOMGEO": "Lerdo", "NOM_ENT": "Durango", "acq_date_mex": "2026-01-02T03:02:00", "etiqueta": "HISTORIAL", "id_unico": "25.4614_-103.6897_2026-01-02 03:02:00", "cluster": 4 }, "geometry": { "type": "Point", "coordinates": [ 631727.174074212904088, 2816690.418440730310977 ] } },
{ "type": "Feature", "properties": { "WKT": "POINT (-104.00719 26.79672)", "latitude": 26.79672, "longitude": -104.00719, "brightness": 345.36, "scan": 0.41, "track": 0.37, "acq_date": "2026-01-02T00:00:00", "acq_time": 2016, "acq_datetime": "2026-01-02T00:00:00", "confidence": "n", "brightness_2": 306.38, "frp": 8.06, "SATELITE": "VIIRS_SNPP_7d", "index_right": 13, "CVEGEO": "08036", "CVE_ENT": "08", "CVE_MUN": "036", "NOMGEO": "Jiménez", "NOM_ENT": "Chihuahua", "acq_date_mex": "2026-01-02T14:16:00", "etiqueta": "HISTORIAL", "id_unico": "26.7967_-104.0072_2026-01-02 14:16:00", "cluster": -1 }, "geometry": { "type": "Point", "coordinates": [ 598681.282275239471346, 2964305.903066078666598 ] } },
{ "type": "Feature", "properties": { "WKT": "POINT (-104.22441 24.35739)", "latitude": 24.35739, "longitude": -104.22441, "brightness": 339.67, "scan": 0.39, "track": 0.36, "acq_date": "2026-01-02T00:00:00", "acq_time": 2016, "acq_datetime": "2026-01-02T00:00:00", "confidence": "n", "brightness_2": 309.1, "frp": 3.91, "SATELITE": "VIIRS_SNPP_7d", "index_right": 33, "CVEGEO": "10020", "CVE_ENT": "10", "CVE_MUN": "020", "NOMGEO": "Pánuco de Coronado", "NOM_ENT": "Durango", "acq_date_mex": "2026-01-02T14:16:00", "etiqueta": "HISTORIAL", "id_unico": "24.3574_-104.2244_2026-01-02 14:16:00", "cluster": -1 }, "geometry": { "type": "Point", "coordinates": [ 578668.303637682460248, 2694015.116268689278513 ] } },
{ "type": "Feature", "properties": { "WKT": "POINT (-103.68749 25.45749)", "latitude": 25.45749, "longitude": -103.68749, "brightness": 302.85, "scan": 0.38, "track": 0.36, "acq_date": "2026-01-03T00:00:00", "acq_time": 841, "acq_datetime": "2026-01-03T00:00:00", "confidence": "n", "brightness_2": 277.97, "frp": 0.82, "SATELITE": "VIIRS_SNPP_7d", "index_right": 45, "CVEGEO": "10012", "CVE_ENT": "10", "CVE_MUN": "012", "NOMGEO": "Lerdo", "NOM_ENT": "Durango", "acq_date_mex": "2026-01-03T02:41:00", "etiqueta": "HISTORIAL", "id_unico": "25.4575_-103.6875_2026-01-03 02:41:00", "cluster": 4 }, "geometry": { "type": "Point", "coordinates": [ 631957.701094882329926, 2816256.274442467372864 ] } },
{ "type": "Feature", "properties": { "WKT": "POINT (-103.39585 25.48866)", "latitude": 25.48866, "longitude": -103.39585, "brightness": 300.73, "scan": 0.39, "track": 0.36, "acq_date": "2026-01-03T00:00:00", "acq_time": 841, "acq_datetime": "2026-01-03T00:00:00", "confidence": "n", "brightness_2": 285.87, "frp": 0.54, "SATELITE": "VIIRS_SNPP_7d", "index_right": 1, "CVEGEO": "05035", "CVE_ENT": "05", "CVE_MUN": "035", "NOMGEO": "Torreón", "NOM_ENT": "Coahuila de Zaragoza", "acq_date_mex": "2026-01-03T02:41:00", "etiqueta": "HISTORIAL", "id_unico": "25.4887_-103.3958_2026-01-03 02:41:00", "cluster": 5 }, "geometry": { "type": "Point", "coordinates": [ 661241.568674912443385, 2820029.673194691073149 ] } },
{ "type": "Feature", "properties": { "WKT": "POINT (-104.97465 24.84488)", "latitude": 24.84488, "longitude": -104.97465, "brightness": 332.28, "scan": 0.5, "track": 0.41, "acq_date": "2026-01-03T00:00:00", "acq_time": 1955, "acq_datetime": "2026-01-03T00:00:00", "confidence": "l", "brightness_2": 306.5, "frp": 1.83, "SATELITE": "VIIRS_SNPP_7d", "index_right": 42, "CVEGEO": "10039", "CVE_ENT": "10", "CVE_MUN": "039", "NOMGEO": "Nuevo Ideal", "NOM_ENT": "Durango", "acq_date_mex": "2026-01-03T13:55:00", "etiqueta": "HISTORIAL", "id_unico": "24.8449_-104.9746_2026-01-03 13:55:00", "cluster": -1 }, "geometry": { "type": "Point", "coordinates": [ 502561.263520018954296, 2747771.94748093560338 ] } },
{ "type": "Feature", "properties": { "WKT": "POINT (-104.97772 24.84493)", "latitude": 24.84493, "longitude": -104.97772, "brightness": 335.23, "scan": 0.5, "track": 0.41, "acq_date": "2026-01-03T00:00:00", "acq_time": 1955, "acq_datetime": "2026-01-03T00:00:00", "confidence": "n", "brightness_2": 307.0, "frp": 2.75, "SATELITE": "VIIRS_SNPP_7d", "index_right": 42, "CVEGEO": "10039", "CVE_ENT": "10", "CVE_MUN": "039", "NOMGEO": "Nuevo Ideal", "NOM_ENT": "Durango", "acq_date_mex": "2026-01-03T13:55:00", "etiqueta": "HISTORIAL", "id_unico": "24.8449_-104.9777_2026-01-03 13:55:00", "cluster": -1 }, "geometry": { "type": "Point", "coordinates": [ 502251.081973164982628, 2747777.429624694865197 ] } },
{ "type": "Feature", "properties": { "WKT": "POINT (-105.09657 25.02509)", "latitude": 25.02509, "longitude": -105.09657, "brightness": 331.93, "scan": 0.5, "track": 0.41, "acq_date": "2026-01-03T00:00:00", "acq_time": 1955, "acq_datetime": "2026-01-03T00:00:00", "confidence": "l", "brightness_2": 305.81, "frp": 3.03, "SATELITE": "VIIRS_SNPP_7d", "index_right": 42, "CVEGEO": "10039", "CVE_ENT": "10", "CVE_MUN": "039", "NOMGEO": "Nuevo Ideal", "NOM_ENT": "Durango", "acq_date_mex": "2026-01-03T13:55:00", "etiqueta": "HISTORIAL", "id_unico": "25.0251_-105.0966_2026-01-03 13:55:00", "cluster": -1 }, "geometry": { "type": "Point", "coordinates": [ 490257.126150865398813, 2767729.405384358484298 ] } },
{ "type": "Feature", "properties": { "WKT": "POINT (-105.40944 25.47719)", "latitude": 25.47719, "longitude": -105.40944, "brightness": 332.4, "scan": 0.51, "track": 0.41, "acq_date": "2026-01-03T00:00:00", "acq_time": 1957, "acq_datetime": "2026-01-03T00:00:00", "confidence": "n", "brightness_2": 301.98, "frp": 4.03, "SATELITE": "VIIRS_SNPP_7d", "index_right": 32, "CVEGEO": "10018", "CVE_ENT": "10", "CVE_MUN": "018", "NOMGEO": "El Oro", "NOM_ENT": "Durango", "acq_date_mex": "2026-01-03T13:57:00", "etiqueta": "HISTORIAL", "id_unico": "25.4772_-105.4094_2026-01-03 13:57:00", "cluster": -1 }, "geometry": { "type": "Point", "coordinates": [ 458844.310194038669579, 2817851.274517475627363 ] } },
{ "type": "Feature", "properties": { "WKT": "POINT (-104.07552 26.37375)", "latitude": 26.37375, "longitude": -104.07552, "brightness": 335.58, "scan": 0.44, "track": 0.38, "acq_date": "2026-01-03T00:00:00", "acq_time": 1957, "acq_datetime": "2026-01-03T00:00:00", "confidence": "n", "brightness_2": 305.28, "frp": 4.05, "SATELITE": "VIIRS_SNPP_7d", "index_right": 30, "CVEGEO": "10013", "CVE_ENT": "10", "CVE_MUN": "013", "NOMGEO": "Mapimí", "NOM_ENT": "Durango", "acq_date_mex": "2026-01-03T13:57:00", "etiqueta": "HISTORIAL", "id_unico": "26.3738_-104.0755_2026-01-03 13:57:00", "cluster": -1 }, "geometry": { "type": "Point", "coordinates": [ 592227.515024170395918, 2917405.908266734797508 ] } },
{ "type": "Feature", "properties": { "WKT": "POINT (-103.39551 25.48706)", "latitude": 25.48706, "longitude": -103.39551, "brightness": 302.17, "scan": 0.5, "track": 0.41, "acq_date": "2026-01-04T00:00:00", "acq_time": 824, "acq_datetime": "2026-01-04T00:00:00", "confidence": "n", "brightness_2": 283.92, "frp": 0.91, "SATELITE": "VIIRS_SNPP_7d", "index_right": 1, "CVEGEO": "05035", "CVE_ENT": "05", "CVE_MUN": "035", "NOMGEO": "Torreón", "NOM_ENT": "Coahuila de Zaragoza", "acq_date_mex": "2026-01-04T02:24:00", "etiqueta": "HISTORIAL", "id_unico": "25.4871_-103.3955_2026-01-04 02:24:00", "cluster": 5 }, "geometry": { "type": "Point", "coordinates": [ 661277.885707241250202, 2819852.863688654731959 ] } },
{ "type": "Feature", "properties": { "WKT": "POINT (-104.56682 24.10534)", "latitude": 24.10534, "longitude": -104.56682, "brightness": 340.9, "scan": 0.61, "track": 0.54, "acq_date": "2026-01-04T00:00:00", "acq_time": 1938, "acq_datetime": "2026-01-04T00:00:00", "confidence": "n", "brightness_2": 301.99, "frp": 5.25, "SATELITE": "VIIRS_SNPP_7d", "index_right": 44, "CVEGEO": "10005", "CVE_ENT": "10", "CVE_MUN": "005", "NOMGEO": "Durango", "NOM_ENT": "Durango", "acq_date_mex": "2026-01-04T13:38:00", "etiqueta": "HISTORIAL", "id_unico": "24.1053_-104.5668_2026-01-04 13:38:00", "cluster": -1 }, "geometry": { "type": "Point", "coordinates": [ 544023.546645188005641, 2665957.191161772236228 ] } },
{ "type": "Feature", "properties": { "WKT": "POINT (-104.43636 24.01183)", "latitude": 24.01183, "longitude": -104.43636, "brightness": 340.93, "scan": 0.59, "track": 0.7, "acq_date": "2026-01-05T00:00:00", "acq_time": 1919, "acq_datetime": "2026-01-05T00:00:00", "confidence": "n", "brightness_2": 301.23, "frp": 4.03, "SATELITE": "VIIRS_SNPP_7d", "index_right": 44, "CVEGEO": "10005", "CVE_ENT": "10", "CVE_MUN": "005", "NOMGEO": "Durango", "NOM_ENT": "Durango", "acq_date_mex": "2026-01-05T13:19:00", "etiqueta": "HISTORIAL", "id_unico": "24.0118_-104.4364_2026-01-05 13:19:00", "cluster": 0 }, "geometry": { "type": "Point", "coordinates": [ 557323.810790849034674, 2655651.02335673943162 ] } },
{ "type": "Feature", "properties": { "WKT": "POINT (-104.57619 24.02507)", "latitude": 24.02507, "longitude": -104.57619, "brightness": 327.9, "scan": 0.6, "track": 0.71, "acq_date": "2026-01-05T00:00:00", "acq_time": 1919, "acq_datetime": "2026-01-05T00:00:00", "confidence": "l", "brightness_2": 300.09, "frp": 4.42, "SATELITE": "VIIRS_SNPP_7d", "index_right": 44, "CVEGEO": "10005", "CVE_ENT": "10", "CVE_MUN": "005", "NOMGEO": "Durango", "NOM_ENT": "Durango", "acq_date_mex": "2026-01-05T13:19:00", "etiqueta": "HISTORIAL", "id_unico": "24.0251_-104.5762_2026-01-05 13:19:00", "cluster": -1 }, "geometry": { "type": "Point", "coordinates": [ 543098.080199423362501, 2657067.037411933764815 ] } },
{ "type": "Feature", "properties": { "WKT": "POINT (-104.63793 24.09847)", "latitude": 24.09847, "longitude": -104.63793, "brightness": 332.71, "scan": 0.6, "track": 0.71, "acq_date": "2026-01-05T00:00:00", "acq_time": 1919, "acq_datetime": "2026-01-05T00:00:00", "confidence": "n", "brightness_2": 301.17, "frp": 7.54, "SATELITE": "VIIRS_SNPP_7d", "index_right": 44, "CVEGEO": "10005", "CVE_ENT": "10", "CVE_MUN": "005", "NOMGEO": "Durango", "NOM_ENT": "Durango", "acq_date_mex": "2026-01-05T13:19:00", "etiqueta": "HISTORIAL", "id_unico": "24.0985_-104.6379_2026-01-05 13:19:00", "cluster": 1 }, "geometry": { "type": "Point", "coordinates": [ 536798.617427420685999, 2665176.082373436540365 ] } },
{ "type": "Feature", "properties": { "WKT": "POINT (-104.63966 24.10489)", "latitude": 24.10489, "longitude": -104.63966, "brightness": 367.0, "scan": 0.6, "track": 0.71, "acq_date": "2026-01-05T00:00:00", "acq_time": 1919, "acq_datetime": "2026-01-05T00:00:00", "confidence": "h", "brightness_2": 301.25, "frp": 14.24, "SATELITE": "VIIRS_SNPP_7d", "index_right": 44, "CVEGEO": "10005", "CVE_ENT": "10", "CVE_MUN": "005", "NOMGEO": "Durango", "NOM_ENT": "Durango", "acq_date_mex": "2026-01-05T13:19:00", "etiqueta": "HISTORIAL", "id_unico": "24.1049_-104.6397_2026-01-05 13:19:00", "cluster": 1 }, "geometry": { "type": "Point", "coordinates": [ 536620.963559394003823, 2665886.431989017874002 ] } },
{ "type": "Feature", "properties": { "WKT": "POINT (-104.6409 24.09697)", "latitude": 24.09697, "longitude": -104.6409, "brightness": 342.32, "scan": 0.6, "track": 0.71, "acq_date": "2026-01-05T00:00:00", "acq_time": 1919, "acq_datetime": "2026-01-05T00:00:00", "confidence": "n", "brightness_2": 302.18, "frp": 6.54, "SATELITE": "VIIRS_SNPP_7d", "index_right": 44, "CVEGEO": "10005", "CVE_ENT": "10", "CVE_MUN": "005", "NOMGEO": "Durango", "NOM_ENT": "Durango", "acq_date_mex": "2026-01-05T13:19:00", "etiqueta": "HISTORIAL", "id_unico": "24.097_-104.6409_2026-01-05 13:19:00", "cluster": 1 }, "geometry": { "type": "Point", "coordinates": [ 536497.186811778927222, 2665009.23152283532545 ] } },
{ "type": "Feature", "properties": { "WKT": "POINT (-104.64236 24.10345)", "latitude": 24.10345, "longitude": -104.64236, "brightness": 367.0, "scan": 0.6, "track": 0.71, "acq_date": "2026-01-05T00:00:00", "acq_time": 1919, "acq_datetime": "2026-01-05T00:00:00", "confidence": "h", "brightness_2": 302.19, "frp": 17.09, "SATELITE": "VIIRS_SNPP_7d", "index_right": 44, "CVEGEO": "10005", "CVE_ENT": "10", "CVE_MUN": "005", "NOMGEO": "Durango", "NOM_ENT": "Durango", "acq_date_mex": "2026-01-05T13:19:00", "etiqueta": "HISTORIAL", "id_unico": "24.1034_-104.6424_2026-01-05 13:19:00", "cluster": 1 }, "geometry": { "type": "Point", "coordinates": [ 536346.969517832971178, 2665726.297522530891001 ] } },
{ "type": "Feature", "properties": { "WKT": "POINT (-105.08831 24.81681)", "latitude": 24.81681, "longitude": -105.08831, "brightness": 338.95, "scan": 0.62, "track": 0.71, "acq_date": "2026-01-05T00:00:00", "acq_time": 1919, "acq_datetime": "2026-01-05T00:00:00", "confidence": "n", "brightness_2": 299.21, "frp": 4.87, "SATELITE": "VIIRS_SNPP_7d", "index_right": 42, "CVEGEO": "10039", "CVE_ENT": "10", "CVE_MUN": "039", "NOMGEO": "Nuevo Ideal", "NOM_ENT": "Durango", "acq_date_mex": "2026-01-05T13:19:00", "etiqueta": "HISTORIAL", "id_unico": "24.8168_-105.0883_2026-01-05 13:19:00", "cluster": 6 }, "geometry": { "type": "Point", "coordinates": [ 491075.493799985852093, 2744666.515440132468939 ] } },
{ "type": "Feature", "properties": { "WKT": "POINT (-105.09427 24.81529)", "latitude": 24.81529, "longitude": -105.09427, "brightness": 334.24, "scan": 0.62, "track": 0.71, "acq_date": "2026-01-05T00:00:00", "acq_time": 1919, "acq_datetime": "2026-01-05T00:00:00", "confidence": "n", "brightness_2": 299.34, "frp": 4.87, "SATELITE": "VIIRS_SNPP_7d", "index_right": 42, "CVEGEO": "10039", "CVE_ENT": "10", "CVE_MUN": "039", "NOMGEO": "Nuevo Ideal", "NOM_ENT": "Durango", "acq_date_mex": "2026-01-05T13:19:00", "etiqueta": "HISTORIAL", "id_unico": "24.8153_-105.0943_2026-01-05 13:19:00", "cluster": 6 }, "geometry": { "type": "Point", "coordinates": [ 490473.066545233596116, 2744498.614795809146017 ] } },
{ "type": "Feature", "properties": { "WKT": "POINT (-104.43322 24.01348)", "latitude": 24.01348, "longitude": -104.43322, "brightness": 352.99, "scan": 0.5, "track": 0.66, "acq_date": "2026-01-05T00:00:00", "acq_time": 2059, "acq_datetime": "2026-01-05T00:00:00", "confidence": "n", "brightness_2": 309.09, "frp": 21.39, "SATELITE": "VIIRS_SNPP_7d", "index_right": 44, "CVEGEO": "10005", "CVE_ENT": "10", "CVE_MUN": "005", "NOMGEO": "Durango", "NOM_ENT": "Durango", "acq_date_mex": "2026-01-05T14:59:00", "etiqueta": "HISTORIAL", "id_unico": "24.0135_-104.4332_2026-01-05 14:59:00", "cluster": 0 }, "geometry": { "type": "Point", "coordinates": [ 557642.429406484821811, 2655834.989640618208796 ] } },
{ "type": "Feature", "properties": { "WKT": "POINT (-104.42818 24.01388)", "latitude": 24.01388, "longitude": -104.42818, "brightness": 356.84, "scan": 0.5, "track": 0.66, "acq_date": "2026-01-05T00:00:00", "acq_time": 2059, "acq_datetime": "2026-01-05T00:00:00", "confidence": "n", "brightness_2": 314.39, "frp": 21.39, "SATELITE": "VIIRS_SNPP_7d", "index_right": 44, "CVEGEO": "10005", "CVE_ENT": "10", "CVE_MUN": "005", "NOMGEO": "Durango", "NOM_ENT": "Durango", "acq_date_mex": "2026-01-05T14:59:00", "etiqueta": "HISTORIAL", "id_unico": "24.0139_-104.4282_2026-01-05 14:59:00", "cluster": 0 }, "geometry": { "type": "Point", "coordinates": [ 558154.836973897763528, 2655881.349506054539233 ] } },
{ "type": "Feature", "properties": { "WKT": "POINT (-104.42316 24.01429)", "latitude": 24.01429, "longitude": -104.42316, "brightness": 367.0, "scan": 0.5, "track": 0.66, "acq_date": "2026-01-05T00:00:00", "acq_time": 2059, "acq_datetime": "2026-01-05T00:00:00", "confidence": "h", "brightness_2": 309.42, "frp": 37.12, "SATELITE": "VIIRS_SNPP_7d", "index_right": 44, "CVEGEO": "10005", "CVE_ENT": "10", "CVE_MUN": "005", "NOMGEO": "Durango", "NOM_ENT": "Durango", "acq_date_mex": "2026-01-05T14:59:00", "etiqueta": "HISTORIAL", "id_unico": "24.0143_-104.4232_2026-01-05 14:59:00", "cluster": 0 }, "geometry": { "type": "Point", "coordinates": [ 558665.203067342750728, 2655928.826623294502497 ] } },
{ "type": "Feature", "properties": { "WKT": "POINT (-104.6436 23.96582)", "latitude": 23.96582, "longitude": -104.6436, "brightness": 343.75, "scan": 0.48, "track": 0.65, "acq_date": "2026-01-05T00:00:00", "acq_time": 2059, "acq_datetime": "2026-01-05T00:00:00", "confidence": "n", "brightness_2": 302.52, "frp": 4.11, "SATELITE": "VIIRS_SNPP_7d", "index_right": 44, "CVEGEO": "10005", "CVE_ENT": "10", "CVE_MUN": "005", "NOMGEO": "Durango", "NOM_ENT": "Durango", "acq_date_mex": "2026-01-05T14:59:00", "etiqueta": "HISTORIAL", "id_unico": "23.9658_-104.6436_2026-01-05 14:59:00", "cluster": -1 }, "geometry": { "type": "Point", "coordinates": [ 536259.552390288095921, 2650488.153322167694569 ] } },
{ "type": "Feature", "properties": { "WKT": "POINT (-104.85798 23.07786)", "latitude": 23.07786, "longitude": -104.85798, "brightness": 330.51, "scan": 0.46, "track": 0.63, "acq_date": "2026-01-05T00:00:00", "acq_time": 2059, "acq_datetime": "2026-01-05T00:00:00", "confidence": "n", "brightness_2": 299.84, "frp": 2.18, "SATELITE": "VIIRS_SNPP_7d", "index_right": 46, "CVEGEO": "10014", "CVE_ENT": "10", "CVE_MUN": "014", "NOMGEO": "Mezquital", "NOM_ENT": "Durango", "acq_date_mex": "2026-01-05T14:59:00", "etiqueta": "HISTORIAL", "id_unico": "23.0779_-104.858_2026-01-05 14:59:00", "cluster": -1 }, "geometry": { "type": "Point", "coordinates": [ 514546.075748770497739, 2552145.952090563252568 ] } },
{ "type": "Feature", "properties": { "WKT": "POINT (-105.08632 24.8148)", "latitude": 24.8148, "longitude": -105.08632, "brightness": 349.8, "scan": 0.46, "track": 0.64, "acq_date": "2026-01-05T00:00:00", "acq_time": 2059, "acq_datetime": "2026-01-05T00:00:00", "confidence": "n", "brightness_2": 301.07, "frp": 8.46, "SATELITE": "VIIRS_SNPP_7d", "index_right": 42, "CVEGEO": "10039", "CVE_ENT": "10", "CVE_MUN": "039", "NOMGEO": "Nuevo Ideal", "NOM_ENT": "Durango", "acq_date_mex": "2026-01-05T14:59:00", "etiqueta": "HISTORIAL", "id_unico": "24.8148_-105.0863_2026-01-05 14:59:00", "cluster": 6 }, "geometry": { "type": "Point", "coordinates": [ 491276.460266316076741, 2744443.827698186505586 ] } },
{ "type": "Feature", "properties": { "WKT": "POINT (-105.09106 24.81443)", "latitude": 24.81443, "longitude": -105.09106, "brightness": 335.43, "scan": 0.46, "track": 0.64, "acq_date": "2026-01-05T00:00:00", "acq_time": 2059, "acq_datetime": "2026-01-05T00:00:00", "confidence": "n", "brightness_2": 300.65, "frp": 6.17, "SATELITE": "VIIRS_SNPP_7d", "index_right": 42, "CVEGEO": "10039", "CVE_ENT": "10", "CVE_MUN": "039", "NOMGEO": "Nuevo Ideal", "NOM_ENT": "Durango", "acq_date_mex": "2026-01-05T14:59:00", "etiqueta": "HISTORIAL", "id_unico": "24.8144_-105.0911_2026-01-05 14:59:00", "cluster": 6 }, "geometry": { "type": "Point", "coordinates": [ 490797.406058147433214, 2744403.170307446271181 ] } },
{ "type": "Feature", "properties": { "WKT": "POINT (-105.08681 24.82073)", "latitude": 24.82073, "longitude": -105.08681, "brightness": 330.35, "scan": 0.46, "track": 0.64, "acq_date": "2026-01-05T00:00:00", "acq_time": 2059, "acq_datetime": "2026-01-05T00:00:00", "confidence": "l", "brightness_2": 301.38, "frp": 8.46, "SATELITE": "VIIRS_SNPP_7d", "index_right": 42, "CVEGEO": "10039", "CVE_ENT": "10", "CVE_MUN": "039", "NOMGEO": "Nuevo Ideal", "NOM_ENT": "Durango", "acq_date_mex": "2026-01-05T14:59:00", "etiqueta": "HISTORIAL", "id_unico": "24.8207_-105.0868_2026-01-05 14:59:00", "cluster": 6 }, "geometry": { "type": "Point", "coordinates": [ 491227.358177691407036, 2745100.464009780902416 ] } },
{ "type": "Feature", "properties": { "WKT": "POINT (-105.09157 24.82036)", "latitude": 24.82036, "longitude": -105.09157, "brightness": 334.21, "scan": 0.46, "track": 0.64, "acq_date": "2026-01-05T00:00:00", "acq_time": 2059, "acq_datetime": "2026-01-05T00:00:00", "confidence": "n", "brightness_2": 301.39, "frp": 6.17, "SATELITE": "VIIRS_SNPP_7d", "index_right": 42, "CVEGEO": "10039", "CVE_ENT": "10", "CVE_MUN": "039", "NOMGEO": "Nuevo Ideal", "NOM_ENT": "Durango", "acq_date_mex": "2026-01-05T14:59:00", "etiqueta": "HISTORIAL", "id_unico": "24.8204_-105.0916_2026-01-05 14:59:00", "cluster": 6 }, "geometry": { "type": "Point", "coordinates": [ 490746.305491803097539, 2745059.809716471470892 ] } },
{ "type": "Feature", "properties": { "WKT": "POINT (-105.07782 24.82739)", "latitude": 24.82739, "longitude": -105.07782, "brightness": 367.0, "scan": 0.46, "track": 0.64, "acq_date": "2026-01-05T00:00:00", "acq_time": 2059, "acq_datetime": "2026-01-05T00:00:00", "confidence": "h", "brightness_2": 299.57, "frp": 37.59, "SATELITE": "VIIRS_SNPP_7d", "index_right": 42, "CVEGEO": "10039", "CVE_ENT": "10", "CVE_MUN": "039", "NOMGEO": "Nuevo Ideal", "NOM_ENT": "Durango", "acq_date_mex": "2026-01-05T14:59:00", "etiqueta": "HISTORIAL", "id_unico": "24.8274_-105.0778_2026-01-05 14:59:00", "cluster": 6 }, "geometry": { "type": "Point", "coordinates": [ 492136.269447680329904, 2745837.351483414880931 ] } },
{ "type": "Feature", "properties": { "WKT": "POINT (-105.08257 24.82702)", "latitude": 24.82702, "longitude": -105.08257, "brightness": 345.33, "scan": 0.46, "track": 0.64, "acq_date": "2026-01-05T00:00:00", "acq_time": 2059, "acq_datetime": "2026-01-05T00:00:00", "confidence": "n", "brightness_2": 305.34, "frp": 34.13, "SATELITE": "VIIRS_SNPP_7d", "index_right": 42, "CVEGEO": "10039", "CVE_ENT": "10", "CVE_MUN": "039", "NOMGEO": "Nuevo Ideal", "NOM_ENT": "Durango", "acq_date_mex": "2026-01-05T14:59:00", "etiqueta": "HISTORIAL", "id_unico": "24.827_-105.0826_2026-01-05 14:59:00", "cluster": 6 }, "geometry": { "type": "Point", "coordinates": [ 491656.255753637698945, 2745796.664921248331666 ] } },
{ "type": "Feature", "properties": { "WKT": "POINT (-104.64226 24.11478)", "latitude": 24.11478, "longitude": -104.64226, "brightness": 343.44, "scan": 0.49, "track": 0.65, "acq_date": "2026-01-05T00:00:00", "acq_time": 2059, "acq_datetime": "2026-01-05T00:00:00", "confidence": "n", "brightness_2": 310.66, "frp": 28.75, "SATELITE": "VIIRS_SNPP_7d", "index_right": 44, "CVEGEO": "10005", "CVE_ENT": "10", "CVE_MUN": "005", "NOMGEO": "Durango", "NOM_ENT": "Durango", "acq_date_mex": "2026-01-05T14:59:00", "etiqueta": "HISTORIAL", "id_unico": "24.1148_-104.6423_2026-01-05 14:59:00", "cluster": 1 }, "geometry": { "type": "Point", "coordinates": [ 536353.93326816696208, 2666980.746382979210466 ] } },
{ "type": "Feature", "properties": { "WKT": "POINT (-104.63717 24.11517)", "latitude": 24.11517, "longitude": -104.63717, "brightness": 367.0, "scan": 0.49, "track": 0.65, "acq_date": "2026-01-05T00:00:00", "acq_time": 2059, "acq_datetime": "2026-01-05T00:00:00", "confidence": "h", "brightness_2": 299.89, "frp": 28.75, "SATELITE": "VIIRS_SNPP_7d", "index_right": 44, "CVEGEO": "10005", "CVE_ENT": "10", "CVE_MUN": "005", "NOMGEO": "Durango", "NOM_ENT": "Durango", "acq_date_mex": "2026-01-05T14:59:00", "etiqueta": "HISTORIAL", "id_unico": "24.1152_-104.6372_2026-01-05 14:59:00", "cluster": 1 }, "geometry": { "type": "Point", "coordinates": [ 536871.077566394815221, 2667025.254953913390636 ] } },
{ "type": "Feature", "properties": { "WKT": "POINT (-104.6415 24.10875)", "latitude": 24.10875, "longitude": -104.6415, "brightness": 346.67, "scan": 0.49, "track": 0.65, "acq_date": "2026-01-05T00:00:00", "acq_time": 2059, "acq_datetime": "2026-01-05T00:00:00", "confidence": "n", "brightness_2": 303.47, "frp": 5.24, "SATELITE": "VIIRS_SNPP_7d", "index_right": 44, "CVEGEO": "10005", "CVE_ENT": "10", "CVE_MUN": "005", "NOMGEO": "Durango", "NOM_ENT": "Durango", "acq_date_mex": "2026-01-05T14:59:00", "etiqueta": "HISTORIAL", "id_unico": "24.1088_-104.6415_2026-01-05 14:59:00", "cluster": 1 }, "geometry": { "type": "Point", "coordinates": [ 536432.872515504597686, 2666313.320187860168517 ] } },
{ "type": "Feature", "properties": { "WKT": "POINT (-104.64066 24.10273)", "latitude": 24.10273, "longitude": -104.64066, "brightness": 331.73, "scan": 0.49, "track": 0.65, "acq_date": "2026-01-05T00:00:00", "acq_time": 2059, "acq_datetime": "2026-01-05T00:00:00", "confidence": "l", "brightness_2": 303.34, "frp": 5.24, "SATELITE": "VIIRS_SNPP_7d", "index_right": 44, "CVEGEO": "10005", "CVE_ENT": "10", "CVE_MUN": "005", "NOMGEO": "Durango", "NOM_ENT": "Durango", "acq_date_mex": "2026-01-05T14:59:00", "etiqueta": "HISTORIAL", "id_unico": "24.1027_-104.6407_2026-01-05 14:59:00", "cluster": 1 }, "geometry": { "type": "Point", "coordinates": [ 536519.946285445359536, 2665647.022851873654872 ] } },
{ "type": "Feature", "properties": { "WKT": "POINT (-104.64429 24.11295)", "latitude": 24.11295, "longitude": -104.64429, "brightness": 353.35, "scan": 0.49, "track": 0.65, "acq_date": "2026-01-05T00:00:00", "acq_time": 2059, "acq_datetime": "2026-01-05T00:00:00", "confidence": "n", "brightness_2": 302.19, "frp": 19.16, "SATELITE": "VIIRS_SNPP_7d", "index_right": 44, "CVEGEO": "10005", "CVE_ENT": "10", "CVE_MUN": "005", "NOMGEO": "Durango", "NOM_ENT": "Durango", "acq_date_mex": "2026-01-05T14:59:00", "etiqueta": "HISTORIAL", "id_unico": "24.113_-104.6443_2026-01-05 14:59:00", "cluster": 1 }, "geometry": { "type": "Point", "coordinates": [ 536148.154561540577561, 2666777.609522169455886 ] } },
{ "type": "Feature", "properties": { "WKT": "POINT (-104.63926 24.11337)", "latitude": 24.11337, "longitude": -104.63926, "brightness": 367.0, "scan": 0.49, "track": 0.65, "acq_date": "2026-01-05T00:00:00", "acq_time": 2059, "acq_datetime": "2026-01-05T00:00:00", "confidence": "h", "brightness_2": 312.25, "frp": 19.16, "SATELITE": "VIIRS_SNPP_7d", "index_right": 44, "CVEGEO": "10005", "CVE_ENT": "10", "CVE_MUN": "005", "NOMGEO": "Durango", "NOM_ENT": "Durango", "acq_date_mex": "2026-01-05T14:59:00", "etiqueta": "HISTORIAL", "id_unico": "24.1134_-104.6393_2026-01-05 14:59:00", "cluster": 1 }, "geometry": { "type": "Point", "coordinates": [ 536659.200837253243662, 2666825.416338182985783 ] } },
{ "type": "Feature", "properties": { "WKT": "POINT (-104.64339 24.10694)", "latitude": 24.10694, "longitude": -104.64339, "brightness": 337.11, "scan": 0.49, "track": 0.65, "acq_date": "2026-01-05T00:00:00", "acq_time": 2059, "acq_datetime": "2026-01-05T00:00:00", "confidence": "n", "brightness_2": 302.05, "frp": 19.16, "SATELITE": "VIIRS_SNPP_7d", "index_right": 44, "CVEGEO": "10005", "CVE_ENT": "10", "CVE_MUN": "005", "NOMGEO": "Durango", "NOM_ENT": "Durango", "acq_date_mex": "2026-01-05T14:59:00", "etiqueta": "HISTORIAL", "id_unico": "24.1069_-104.6434_2026-01-05 14:59:00", "cluster": 1 }, "geometry": { "type": "Point", "coordinates": [ 536241.307426888495684, 2666112.432956896256655 ] } },
{ "type": "Feature", "properties": { "WKT": "POINT (-104.64245 24.10093)", "latitude": 24.10093, "longitude": -104.64245, "brightness": 333.74, "scan": 0.49, "track": 0.65, "acq_date": "2026-01-05T00:00:00", "acq_time": 2059, "acq_datetime": "2026-01-05T00:00:00", "confidence": "l", "brightness_2": 304.49, "frp": 7.91, "SATELITE": "VIIRS_SNPP_7d", "index_right": 44, "CVEGEO": "10005", "CVE_ENT": "10", "CVE_MUN": "005", "NOMGEO": "Durango", "NOM_ENT": "Durango", "acq_date_mex": "2026-01-05T14:59:00", "etiqueta": "HISTORIAL", "id_unico": "24.1009_-104.6424_2026-01-05 14:59:00", "cluster": 1 }, "geometry": { "type": "Point", "coordinates": [ 536338.533755930722691, 2665447.267771324608475 ] } },
{ "type": "Feature", "properties": { "WKT": "POINT (-104.42832 24.02599)", "latitude": 24.02599, "longitude": -104.42832, "brightness": 353.97, "scan": 0.5, "track": 0.66, "acq_date": "2026-01-05T00:00:00", "acq_time": 2059, "acq_datetime": "2026-01-05T00:00:00", "confidence": "n", "brightness_2": 304.93, "frp": 11.52, "SATELITE": "VIIRS_SNPP_7d", "index_right": 44, "CVEGEO": "10005", "CVE_ENT": "10", "CVE_MUN": "005", "NOMGEO": "Durango", "NOM_ENT": "Durango", "acq_date_mex": "2026-01-05T14:59:00", "etiqueta": "HISTORIAL", "id_unico": "24.026_-104.4283_2026-01-05 14:59:00", "cluster": 0 }, "geometry": { "type": "Point", "coordinates": [ 558135.152700569131412, 2657222.085624090395868 ] } },
{ "type": "Feature", "properties": { "WKT": "POINT (-104.42327 24.02637)", "latitude": 24.02637, "longitude": -104.42327, "brightness": 348.62, "scan": 0.5, "track": 0.66, "acq_date": "2026-01-05T00:00:00", "acq_time": 2059, "acq_datetime": "2026-01-05T00:00:00", "confidence": "n", "brightness_2": 300.29, "frp": 11.02, "SATELITE": "VIIRS_SNPP_7d", "index_right": 44, "CVEGEO": "10005", "CVE_ENT": "10", "CVE_MUN": "005", "NOMGEO": "Durango", "NOM_ENT": "Durango", "acq_date_mex": "2026-01-05T14:59:00", "etiqueta": "HISTORIAL", "id_unico": "24.0264_-104.4233_2026-01-05 14:59:00", "cluster": 0 }, "geometry": { "type": "Point", "coordinates": [ 558648.53534252056852, 2657266.254057785496116 ] } },
{ "type": "Feature", "properties": { "WKT": "POINT (-104.42275 24.02025)", "latitude": 24.02025, "longitude": -104.42275, "brightness": 336.63, "scan": 0.5, "track": 0.66, "acq_date": "2026-01-05T00:00:00", "acq_time": 2059, "acq_datetime": "2026-01-05T00:00:00", "confidence": "n", "brightness_2": 301.97, "frp": 19.66, "SATELITE": "VIIRS_SNPP_7d", "index_right": 44, "CVEGEO": "10005", "CVE_ENT": "10", "CVE_MUN": "005", "NOMGEO": "Durango", "NOM_ENT": "Durango", "acq_date_mex": "2026-01-05T14:59:00", "etiqueta": "HISTORIAL", "id_unico": "24.0202_-104.4227_2026-01-05 14:59:00", "cluster": 0 }, "geometry": { "type": "Point", "coordinates": [ 558704.195426446502097, 2656588.876512555871159 ] } },
{ "type": "Feature", "properties": { "WKT": "POINT (-104.43282 24.01949)", "latitude": 24.01949, "longitude": -104.43282, "brightness": 367.0, "scan": 0.5, "track": 0.66, "acq_date": "2026-01-05T00:00:00", "acq_time": 2059, "acq_datetime": "2026-01-05T00:00:00", "confidence": "h", "brightness_2": 310.76, "frp": 20.0, "SATELITE": "VIIRS_SNPP_7d", "index_right": 44, "CVEGEO": "10005", "CVE_ENT": "10", "CVE_MUN": "005", "NOMGEO": "Durango", "NOM_ENT": "Durango", "acq_date_mex": "2026-01-05T14:59:00", "etiqueta": "HISTORIAL", "id_unico": "24.0195_-104.4328_2026-01-05 14:59:00", "cluster": 0 }, "geometry": { "type": "Point", "coordinates": [ 557680.429928551660851, 2656500.567491751164198 ] } },
{ "type": "Feature", "properties": { "WKT": "POINT (-104.4278 24.01987)", "latitude": 24.01987, "longitude": -104.4278, "brightness": 367.0, "scan": 0.5, "track": 0.66, "acq_date": "2026-01-05T00:00:00", "acq_time": 2059, "acq_datetime": "2026-01-05T00:00:00", "confidence": "h", "brightness_2": 314.28, "frp": 20.0, "SATELITE": "VIIRS_SNPP_7d", "index_right": 44, "CVEGEO": "10005", "CVE_ENT": "10", "CVE_MUN": "005", "NOMGEO": "Durango", "NOM_ENT": "Durango", "acq_date_mex": "2026-01-05T14:59:00", "etiqueta": "HISTORIAL", "id_unico": "24.0199_-104.4278_2026-01-05 14:59:00", "cluster": 0 }, "geometry": { "type": "Point", "coordinates": [ 558190.788549724966288, 2656544.70661483053118 ] } },
{ "type": "Feature", "properties": { "WKT": "POINT (-104.41772 24.02062)", "latitude": 24.02062, "longitude": -104.41772, "brightness": 367.0, "scan": 0.5, "track": 0.66, "acq_date": "2026-01-05T00:00:00", "acq_time": 2059, "acq_datetime": "2026-01-05T00:00:00", "confidence": "h", "brightness_2": 302.68, "frp": 19.66, "SATELITE": "VIIRS_SNPP_7d", "index_right": 44, "CVEGEO": "10005", "CVE_ENT": "10", "CVE_MUN": "005", "NOMGEO": "Durango", "NOM_ENT": "Durango", "acq_date_mex": "2026-01-05T14:59:00", "etiqueta": "HISTORIAL", "id_unico": "24.0206_-104.4177_2026-01-05 14:59:00", "cluster": 0 }, "geometry": { "type": "Point", "coordinates": [ 559215.570200808695517, 2656631.949296534992754 ] } },
{ "type": "Feature", "properties": { "WKT": "POINT (-104.4323 24.01337)", "latitude": 24.01337, "longitude": -104.4323, "brightness": 367.0, "scan": 0.5, "track": 0.66, "acq_date": "2026-01-05T00:00:00", "acq_time": 2059, "acq_datetime": "2026-01-05T00:00:00", "confidence": "h", "brightness_2": 309.72, "frp": 20.0, "SATELITE": "VIIRS_SNPP_7d", "index_right": 44, "CVEGEO": "10005", "CVE_ENT": "10", "CVE_MUN": "005", "NOMGEO": "Durango", "NOM_ENT": "Durango", "acq_date_mex": "2026-01-05T14:59:00", "etiqueta": "HISTORIAL", "id_unico": "24.0134_-104.4323_2026-01-05 14:59:00", "cluster": 0 }, "geometry": { "type": "Point", "coordinates": [ 557736.046042479225434, 2655823.187673035543412 ] } },
{ "type": "Feature", "properties": { "WKT": "POINT (-104.42727 24.01375)", "latitude": 24.01375, "longitude": -104.42727, "brightness": 367.0, "scan": 0.5, "track": 0.66, "acq_date": "2026-01-05T00:00:00", "acq_time": 2059, "acq_datetime": "2026-01-05T00:00:00", "confidence": "h", "brightness_2": 315.04, "frp": 20.0, "SATELITE": "VIIRS_SNPP_7d", "index_right": 44, "CVEGEO": "10005", "CVE_ENT": "10", "CVE_MUN": "005", "NOMGEO": "Durango", "NOM_ENT": "Durango", "acq_date_mex": "2026-01-05T14:59:00", "etiqueta": "HISTORIAL", "id_unico": "24.0138_-104.4273_2026-01-05 14:59:00", "cluster": 0 }, "geometry": { "type": "Point", "coordinates": [ 558247.44578386831563, 2655867.332391256466508 ] } },
{ "type": "Feature", "properties": { "WKT": "POINT (-104.42223 24.01413)", "latitude": 24.01413, "longitude": -104.42223, "brightness": 367.0, "scan": 0.5, "track": 0.66, "acq_date": "2026-01-05T00:00:00", "acq_time": 2059, "acq_datetime": "2026-01-05T00:00:00", "confidence": "h", "brightness_2": 308.05, "frp": 19.66, "SATELITE": "VIIRS_SNPP_7d", "index_right": 44, "CVEGEO": "10005", "CVE_ENT": "10", "CVE_MUN": "005", "NOMGEO": "Durango", "NOM_ENT": "Durango", "acq_date_mex": "2026-01-05T14:59:00", "etiqueta": "HISTORIAL", "id_unico": "24.0141_-104.4222_2026-01-05 14:59:00", "cluster": 0 }, "geometry": { "type": "Point", "coordinates": [ 558759.859852766967379, 2655911.4996148487553 ] } },
{ "type": "Feature", "properties": { "WKT": "POINT (-104.42921 24.02612)", "latitude": 24.02612, "longitude": -104.42921, "brightness": 347.01, "scan": 0.5, "track": 0.66, "acq_date": "2026-01-05T00:00:00", "acq_time": 2059, "acq_datetime": "2026-01-05T00:00:00", "confidence": "n", "brightness_2": 304.98, "frp": 13.9, "SATELITE": "VIIRS_SNPP_7d", "index_right": 44, "CVEGEO": "10005", "CVE_ENT": "10", "CVE_MUN": "005", "NOMGEO": "Durango", "NOM_ENT": "Durango", "acq_date_mex": "2026-01-05T14:59:00", "etiqueta": "HISTORIAL", "id_unico": "24.0261_-104.4292_2026-01-05 14:59:00", "cluster": 0 }, "geometry": { "type": "Point", "coordinates": [ 558044.586622704286128, 2657236.111555536277592 ] } },
{ "type": "Feature", "properties": { "WKT": "POINT (-104.42418 24.02653)", "latitude": 24.02653, "longitude": -104.42418, "brightness": 351.41, "scan": 0.5, "track": 0.66, "acq_date": "2026-01-05T00:00:00", "acq_time": 2059, "acq_datetime": "2026-01-05T00:00:00", "confidence": "n", "brightness_2": 301.34, "frp": 12.98, "SATELITE": "VIIRS_SNPP_7d", "index_right": 44, "CVEGEO": "10005", "CVE_ENT": "10", "CVE_MUN": "005", "NOMGEO": "Durango", "NOM_ENT": "Durango", "acq_date_mex": "2026-01-05T14:59:00", "etiqueta": "HISTORIAL", "id_unico": "24.0265_-104.4242_2026-01-05 14:59:00", "cluster": 0 }, "geometry": { "type": "Point", "coordinates": [ 558555.921493683359586, 2657283.589964525774121 ] } },
{ "type": "Feature", "properties": { "WKT": "POINT (-104.42367 24.02041)", "latitude": 24.02041, "longitude": -104.42367, "brightness": 342.86, "scan": 0.5, "track": 0.66, "acq_date": "2026-01-05T00:00:00", "acq_time": 2059, "acq_datetime": "2026-01-05T00:00:00", "confidence": "n", "brightness_2": 303.23, "frp": 12.98, "SATELITE": "VIIRS_SNPP_7d", "index_right": 44, "CVEGEO": "10005", "CVE_ENT": "10", "CVE_MUN": "005", "NOMGEO": "Durango", "NOM_ENT": "Durango", "acq_date_mex": "2026-01-05T14:59:00", "etiqueta": "HISTORIAL", "id_unico": "24.0204_-104.4237_2026-01-05 14:59:00", "cluster": 0 }, "geometry": { "type": "Point", "coordinates": [ 558610.56015697971452, 2656606.207972993608564 ] } },
{ "type": "Feature", "properties": { "WKT": "POINT (-104.43372 24.01959)", "latitude": 24.01959, "longitude": -104.43372, "brightness": 367.0, "scan": 0.5, "track": 0.66, "acq_date": "2026-01-05T00:00:00", "acq_time": 2059, "acq_datetime": "2026-01-05T00:00:00", "confidence": "h", "brightness_2": 308.54, "frp": 13.9, "SATELITE": "VIIRS_SNPP_7d", "index_right": 44, "CVEGEO": "10005", "CVE_ENT": "10", "CVE_MUN": "005", "NOMGEO": "Durango", "NOM_ENT": "Durango", "acq_date_mex": "2026-01-05T14:59:00", "etiqueta": "HISTORIAL", "id_unico": "24.0196_-104.4337_2026-01-05 14:59:00", "cluster": 0 }, "geometry": { "type": "Point", "coordinates": [ 557588.856194892316125, 2656511.270745926070958 ] } },
{ "type": "Feature", "properties": { "WKT": "POINT (-104.4287 24.02)", "latitude": 24.02, "longitude": -104.4287, "brightness": 367.0, "scan": 0.5, "track": 0.66, "acq_date": "2026-01-05T00:00:00", "acq_time": 2059, "acq_datetime": "2026-01-05T00:00:00", "confidence": "h", "brightness_2": 316.49, "frp": 13.9, "SATELITE": "VIIRS_SNPP_7d", "index_right": 44, "CVEGEO": "10005", "CVE_ENT": "10", "CVE_MUN": "005", "NOMGEO": "Durango", "NOM_ENT": "Durango", "acq_date_mex": "2026-01-05T14:59:00", "etiqueta": "HISTORIAL", "id_unico": "24.02_-104.4287_2026-01-05 14:59:00", "cluster": 0 }, "geometry": { "type": "Point", "coordinates": [ 558099.201154051814228, 2656558.728144085034728 ] } },
{ "type": "Feature", "properties": { "WKT": "POINT (-104.41864 24.02082)", "latitude": 24.02082, "longitude": -104.41864, "brightness": 367.0, "scan": 0.5, "track": 0.66, "acq_date": "2026-01-05T00:00:00", "acq_time": 2059, "acq_datetime": "2026-01-05T00:00:00", "confidence": "h", "brightness_2": 304.01, "frp": 12.98, "SATELITE": "VIIRS_SNPP_7d", "index_right": 44, "CVEGEO": "10005", "CVE_ENT": "10", "CVE_MUN": "005", "NOMGEO": "Durango", "NOM_ENT": "Durango", "acq_date_mex": "2026-01-05T14:59:00", "etiqueta": "HISTORIAL", "id_unico": "24.0208_-104.4186_2026-01-05 14:59:00", "cluster": 0 }, "geometry": { "type": "Point", "coordinates": [ 559121.916216074372642, 2656653.706141921225935 ] } },
{ "type": "Feature", "properties": { "WKT": "POINT (-103.96952 23.76703)", "latitude": 23.76703, "longitude": -103.96952, "brightness": 297.0, "scan": 0.65, "track": 0.73, "acq_date": "2026-01-06T00:00:00", "acq_time": 745, "acq_datetime": "2026-01-06T00:00:00", "confidence": "n", "brightness_2": 277.42, "frp": 0.99, "SATELITE": "VIIRS_SNPP_7d", "index_right": 48, "CVEGEO": "10038", "CVE_ENT": "10", "CVE_MUN": "038", "NOMGEO": "Vicente Guerrero", "NOM_ENT": "Durango", "acq_date_mex": "2026-01-06T01:45:00", "etiqueta": "HOY", "id_unico": "23.767_-103.9695_2026-01-06 01:45:00", "cluster": -1 }, "geometry": { "type": "Point", "coordinates": [ 605002.894361381186172, 2628814.487544927280396 ] } },
{ "type": "Feature", "properties": { "WKT": "POINT (-103.96935 23.76868)", "latitude": 23.76868, "longitude": -103.96935, "brightness": 296.38, "scan": 0.65, "track": 0.73, "acq_date": "2026-01-06T00:00:00", "acq_time": 745, "acq_datetime": "2026-01-06T00:00:00", "confidence": "n", "brightness_2": 277.25, "frp": 1.28, "SATELITE": "VIIRS_SNPP_7d", "index_right": 48, "CVEGEO": "10038", "CVE_ENT": "10", "CVE_MUN": "038", "NOMGEO": "Vicente Guerrero", "NOM_ENT": "Durango", "acq_date_mex": "2026-01-06T01:45:00", "etiqueta": "HOY", "id_unico": "23.7687_-103.9694_2026-01-06 01:45:00", "cluster": -1 }, "geometry": { "type": "Point", "coordinates": [ 605018.893498384160921, 2628997.305684280581772 ] } },
{ "type": "Feature", "properties": { "WKT": "POINT (-103.39683 25.4869)", "latitude": 25.4869, "longitude": -103.39683, "brightness": 297.92, "scan": 0.45, "track": 0.63, "acq_date": "2026-01-06T00:00:00", "acq_time": 926, "acq_datetime": "2026-01-06T00:00:00", "confidence": "n", "brightness_2": 283.75, "frp": 0.6, "SATELITE": "VIIRS_SNPP_7d", "index_right": 1, "CVEGEO": "05035", "CVE_ENT": "05", "CVE_MUN": "035", "NOMGEO": "Torreón", "NOM_ENT": "Coahuila de Zaragoza", "acq_date_mex": "2026-01-06T03:26:00", "etiqueta": "HOY", "id_unico": "25.4869_-103.3968_2026-01-06 03:26:00", "cluster": 5 }, "geometry": { "type": "Point", "coordinates": [ 661145.395258017117158, 2819833.542680473066866 ] } },
{ "type": "Feature", "properties": { "WKT": "POINT (-105.33684 23.80743)", "latitude": 23.80743, "longitude": -105.33684, "brightness": 331.43, "scan": 0.54, "track": 0.42, "acq_date": "2025-12-30T00:00:00", "acq_time": 1953, "acq_datetime": "2025-12-30T00:00:00", "confidence": "n", "brightness_2": 293.58, "frp": 4.3, "SATELITE": "VIIRS_NOAA_7d_J1", "index_right": 17, "CVEGEO": "10023", "CVE_ENT": "10", "CVE_MUN": "023", "NOMGEO": "Pueblo Nuevo", "NOM_ENT": "Durango", "acq_date_mex": "2025-12-30T13:53:00", "etiqueta": "HISTORIAL", "id_unico": "23.8074_-105.3368_2025-12-30 13:53:00", "cluster": 2 }, "geometry": { "type": "Point", "coordinates": [ 465688.72011748602381, 2632947.339620161801577 ] } },
{ "type": "Feature", "properties": { "WKT": "POINT (-105.33859 23.80867)", "latitude": 23.80867, "longitude": -105.33859, "brightness": 299.7, "scan": 0.4, "track": 0.45, "acq_date": "2025-12-31T00:00:00", "acq_time": 820, "acq_datetime": "2025-12-31T00:00:00", "confidence": "n", "brightness_2": 272.71, "frp": 0.59, "SATELITE": "VIIRS_NOAA_7d_J1", "index_right": 17, "CVEGEO": "10023", "CVE_ENT": "10", "CVE_MUN": "023", "NOMGEO": "Pueblo Nuevo", "NOM_ENT": "Durango", "acq_date_mex": "2025-12-31T02:20:00", "etiqueta": "HISTORIAL", "id_unico": "23.8087_-105.3386_2025-12-31 02:20:00", "cluster": 2 }, "geometry": { "type": "Point", "coordinates": [ 465510.787272691901308, 2633085.047215795144439 ] } },
{ "type": "Feature", "properties": { "WKT": "POINT (-103.94562 25.26181)", "latitude": 25.26181, "longitude": -103.94562, "brightness": 296.31, "scan": 0.34, "track": 0.56, "acq_date": "2026-01-01T00:00:00", "acq_time": 800, "acq_datetime": "2026-01-01T00:00:00", "confidence": "n", "brightness_2": 278.94, "frp": 0.73, "SATELITE": "VIIRS_NOAA_7d_J1", "index_right": 36, "CVEGEO": "10015", "CVE_ENT": "10", "CVE_MUN": "015", "NOMGEO": "Nazas", "NOM_ENT": "Durango", "acq_date_mex": "2026-01-01T02:00:00", "etiqueta": "HISTORIAL", "id_unico": "25.2618_-103.9456_2026-01-01 02:00:00", "cluster": -1 }, "geometry": { "type": "Point", "coordinates": [ 606174.449636008124799, 2794355.049985844176263 ] } },
{ "type": "Feature", "properties": { "WKT": "POINT (-105.02321 24.92322)", "latitude": 24.92322, "longitude": -105.02321, "brightness": 341.19, "scan": 0.47, "track": 0.48, "acq_date": "2026-01-02T00:00:00", "acq_time": 2036, "acq_datetime": "2026-01-02T00:00:00", "confidence": "n", "brightness_2": 303.94, "frp": 5.2, "SATELITE": "VIIRS_NOAA_7d_J1", "index_right": 42, "CVEGEO": "10039", "CVE_ENT": "10", "CVE_MUN": "039", "NOMGEO": "Nuevo Ideal", "NOM_ENT": "Durango", "acq_date_mex": "2026-01-02T14:36:00", "etiqueta": "HISTORIAL", "id_unico": "24.9232_-105.0232_2026-01-02 14:36:00", "cluster": -1 }, "geometry": { "type": "Point", "coordinates": [ 497656.432194944645744, 2756446.251208813861012 ] } },
{ "type": "Feature", "properties": { "WKT": "POINT (-105.02657 24.92312)", "latitude": 24.92312, "longitude": -105.02657, "brightness": 339.42, "scan": 0.47, "track": 0.48, "acq_date": "2026-01-02T00:00:00", "acq_time": 2036, "acq_datetime": "2026-01-02T00:00:00", "confidence": "n", "brightness_2": 302.07, "frp": 1.8, "SATELITE": "VIIRS_NOAA_7d_J1", "index_right": 42, "CVEGEO": "10039", "CVE_ENT": "10", "CVE_MUN": "039", "NOMGEO": "Nuevo Ideal", "NOM_ENT": "Durango", "acq_date_mex": "2026-01-02T14:36:00", "etiqueta": "HISTORIAL", "id_unico": "24.9231_-105.0266_2026-01-02 14:36:00", "cluster": -1 }, "geometry": { "type": "Point", "coordinates": [ 497317.162983799935319, 2756435.24057177035138 ] } },
{ "type": "Feature", "properties": { "WKT": "POINT (-103.39657 25.48736)", "latitude": 25.48736, "longitude": -103.39657, "brightness": 299.48, "scan": 0.47, "track": 0.48, "acq_date": "2026-01-03T00:00:00", "acq_time": 904, "acq_datetime": "2026-01-03T00:00:00", "confidence": "n", "brightness_2": 284.73, "frp": 0.86, "SATELITE": "VIIRS_NOAA_7d_J1", "index_right": 1, "CVEGEO": "05035", "CVE_ENT": "05", "CVE_MUN": "035", "NOMGEO": "Torreón", "NOM_ENT": "Coahuila de Zaragoza", "acq_date_mex": "2026-01-03T03:04:00", "etiqueta": "HISTORIAL", "id_unico": "25.4874_-103.3966_2026-01-03 03:04:00", "cluster": 5 }, "geometry": { "type": "Point", "coordinates": [ 661170.920203993446194, 2819884.808657952584326 ] } },
{ "type": "Feature", "properties": { "WKT": "POINT (-106.89561 25.13393)", "latitude": 25.13393, "longitude": -106.89561, "brightness": 328.17, "scan": 0.38, "track": 0.36, "acq_date": "2026-01-03T00:00:00", "acq_time": 2018, "acq_datetime": "2026-01-03T00:00:00", "confidence": "n", "brightness_2": 302.56, "frp": 1.52, "SATELITE": "VIIRS_NOAA_7d_J1", "index_right": 41, "CVEGEO": "10034", "CVE_ENT": "10", "CVE_MUN": "034", "NOMGEO": "Tamazula", "NOM_ENT": "Durango", "acq_date_mex": "2026-01-03T14:18:00", "etiqueta": "HISTORIAL", "id_unico": "25.1339_-106.8956_2026-01-03 14:18:00", "cluster": -1 }, "geometry": { "type": "Point", "coordinates": [ 308899.97858616837766, 2781120.776761563960463 ] } },
{ "type": "Feature", "properties": { "WKT": "POINT (-105.25705 23.13503)", "latitude": 23.13503, "longitude": -105.25705, "brightness": 332.66, "scan": 0.4, "track": 0.37, "acq_date": "2026-01-03T00:00:00", "acq_time": 2018, "acq_datetime": "2026-01-03T00:00:00", "confidence": "l", "brightness_2": 306.97, "frp": 4.58, "SATELITE": "VIIRS_NOAA_7d_J1", "index_right": 17, "CVEGEO": "10023", "CVE_ENT": "10", "CVE_MUN": "023", "NOMGEO": "Pueblo Nuevo", "NOM_ENT": "Durango", "acq_date_mex": "2026-01-03T14:18:00", "etiqueta": "HISTORIAL", "id_unico": "23.135_-105.257_2026-01-03 14:18:00", "cluster": -1 }, "geometry": { "type": "Point", "coordinates": [ 473683.337943204620387, 2558490.867376524023712 ] } },
{ "type": "Feature", "properties": { "WKT": "POINT (-105.41149 25.47529)", "latitude": 25.47529, "longitude": -105.41149, "brightness": 337.19, "scan": 0.41, "track": 0.37, "acq_date": "2026-01-03T00:00:00", "acq_time": 2018, "acq_datetime": "2026-01-03T00:00:00", "confidence": "n", "brightness_2": 301.82, "frp": 5.42, "SATELITE": "VIIRS_NOAA_7d_J1", "index_right": 32, "CVEGEO": "10018", "CVE_ENT": "10", "CVE_MUN": "018", "NOMGEO": "El Oro", "NOM_ENT": "Durango", "acq_date_mex": "2026-01-03T14:18:00", "etiqueta": "HISTORIAL", "id_unico": "25.4753_-105.4115_2026-01-03 14:18:00", "cluster": -1 }, "geometry": { "type": "Point", "coordinates": [ 458637.598076522990596, 2817641.508227547630668 ] } },
{ "type": "Feature", "properties": { "WKT": "POINT (-103.3971 25.48869)", "latitude": 25.48869, "longitude": -103.3971, "brightness": 303.65, "scan": 0.42, "track": 0.37, "acq_date": "2026-01-04T00:00:00", "acq_time": 843, "acq_datetime": "2026-01-04T00:00:00", "confidence": "n", "brightness_2": 285.92, "frp": 0.81, "SATELITE": "VIIRS_NOAA_7d_J1", "index_right": 1, "CVEGEO": "05035", "CVE_ENT": "05", "CVE_MUN": "035", "NOMGEO": "Torreón", "NOM_ENT": "Coahuila de Zaragoza", "acq_date_mex": "2026-01-04T02:43:00", "etiqueta": "HISTORIAL", "id_unico": "25.4887_-103.3971_2026-01-04 02:43:00", "cluster": 5 }, "geometry": { "type": "Point", "coordinates": [ 661115.863781031453982, 2820031.482234976254404 ] } },
{ "type": "Feature", "properties": { "WKT": "POINT (-104.63461 23.97913)", "latitude": 23.97913, "longitude": -104.63461, "brightness": 328.26, "scan": 0.43, "track": 0.38, "acq_date": "2026-01-04T00:00:00", "acq_time": 1957, "acq_datetime": "2026-01-04T00:00:00", "confidence": "l", "brightness_2": 299.45, "frp": 4.54, "SATELITE": "VIIRS_NOAA_7d_J1", "index_right": 44, "CVEGEO": "10005", "CVE_ENT": "10", "CVE_MUN": "005", "NOMGEO": "Durango", "NOM_ENT": "Durango", "acq_date_mex": "2026-01-04T13:57:00", "etiqueta": "HISTORIAL", "id_unico": "23.9791_-104.6346_2026-01-04 13:57:00", "cluster": -1 }, "geometry": { "type": "Point", "coordinates": [ 537170.370240767952055, 2651964.110616254620254 ] } },
{ "type": "Feature", "properties": { "WKT": "POINT (-103.39689 25.48823)", "latitude": 25.48823, "longitude": -103.39689, "brightness": 301.18, "scan": 0.43, "track": 0.38, "acq_date": "2026-01-05T00:00:00", "acq_time": 826, "acq_datetime": "2026-01-05T00:00:00", "confidence": "n", "brightness_2": 284.29, "frp": 0.87, "SATELITE": "VIIRS_NOAA_7d_J1", "index_right": 1, "CVEGEO": "05035", "CVE_ENT": "05", "CVE_MUN": "035", "NOMGEO": "Torreón", "NOM_ENT": "Coahuila de Zaragoza", "acq_date_mex": "2026-01-05T02:26:00", "etiqueta": "HISTORIAL", "id_unico": "25.4882_-103.3969_2026-01-05 02:26:00", "cluster": 5 }, "geometry": { "type": "Point", "coordinates": [ 661137.589107663137838, 2819980.785323568154126 ] } },
{ "type": "Feature", "properties": { "WKT": "POINT (-104.43135 24.01403)", "latitude": 24.01403, "longitude": -104.43135, "brightness": 330.9, "scan": 0.49, "track": 0.48, "acq_date": "2026-01-05T00:00:00", "acq_time": 1940, "acq_datetime": "2026-01-05T00:00:00", "confidence": "l", "brightness_2": 301.08, "frp": 7.79, "SATELITE": "VIIRS_NOAA_7d_J1", "index_right": 44, "CVEGEO": "10005", "CVE_ENT": "10", "CVE_MUN": "005", "NOMGEO": "Durango", "NOM_ENT": "Durango", "acq_date_mex": "2026-01-05T13:40:00", "etiqueta": "HISTORIAL", "id_unico": "24.014_-104.4314_2026-01-05 13:40:00", "cluster": 0 }, "geometry": { "type": "Point", "coordinates": [ 557832.36962576105725, 2655896.651332292705774 ] } },
{ "type": "Feature", "properties": { "WKT": "POINT (-104.436 24.01308)", "latitude": 24.01308, "longitude": -104.436, "brightness": 339.57, "scan": 0.49, "track": 0.48, "acq_date": "2026-01-05T00:00:00", "acq_time": 1940, "acq_datetime": "2026-01-05T00:00:00", "confidence": "n", "brightness_2": 306.65, "frp": 7.79, "SATELITE": "VIIRS_NOAA_7d_J1", "index_right": 44, "CVEGEO": "10005", "CVE_ENT": "10", "CVE_MUN": "005", "NOMGEO": "Durango", "NOM_ENT": "Durango", "acq_date_mex": "2026-01-05T13:40:00", "etiqueta": "HISTORIAL", "id_unico": "24.0131_-104.436_2026-01-05 13:40:00", "cluster": 0 }, "geometry": { "type": "Point", "coordinates": [ 557359.870223745587282, 2655789.56711167935282 ] } },
{ "type": "Feature", "properties": { "WKT": "POINT (-104.57235 24.02656)", "latitude": 24.02656, "longitude": -104.57235, "brightness": 342.74, "scan": 0.5, "track": 0.49, "acq_date": "2026-01-05T00:00:00", "acq_time": 1940, "acq_datetime": "2026-01-05T00:00:00", "confidence": "n", "brightness_2": 304.45, "frp": 5.41, "SATELITE": "VIIRS_NOAA_7d_J1", "index_right": 44, "CVEGEO": "10005", "CVE_ENT": "10", "CVE_MUN": "005", "NOMGEO": "Durango", "NOM_ENT": "Durango", "acq_date_mex": "2026-01-05T13:40:00", "etiqueta": "HISTORIAL", "id_unico": "24.0266_-104.5724_2026-01-05 13:40:00", "cluster": -1 }, "geometry": { "type": "Point", "coordinates": [ 543488.080950665287673, 2657233.18615700211376 ] } },
{ "type": "Feature", "properties": { "WKT": "POINT (-104.64046 24.09938)", "latitude": 24.09938, "longitude": -104.64046, "brightness": 348.89, "scan": 0.5, "track": 0.49, "acq_date": "2026-01-05T00:00:00", "acq_time": 1940, "acq_datetime": "2026-01-05T00:00:00", "confidence": "n", "brightness_2": 305.36, "frp": 8.44, "SATELITE": "VIIRS_NOAA_7d_J1", "index_right": 44, "CVEGEO": "10005", "CVE_ENT": "10", "CVE_MUN": "005", "NOMGEO": "Durango", "NOM_ENT": "Durango", "acq_date_mex": "2026-01-05T13:40:00", "etiqueta": "HISTORIAL", "id_unico": "24.0994_-104.6405_2026-01-05 13:40:00", "cluster": 1 }, "geometry": { "type": "Point", "coordinates": [ 536541.223014494404197, 2665276.173512422479689 ] } },
{ "type": "Feature", "properties": { "WKT": "POINT (-104.63657 24.10479)", "latitude": 24.10479, "longitude": -104.63657, "brightness": 339.92, "scan": 0.5, "track": 0.49, "acq_date": "2026-01-05T00:00:00", "acq_time": 1940, "acq_datetime": "2026-01-05T00:00:00", "confidence": "n", "brightness_2": 302.65, "frp": 8.44, "SATELITE": "VIIRS_NOAA_7d_J1", "index_right": 44, "CVEGEO": "10005", "CVE_ENT": "10", "CVE_MUN": "005", "NOMGEO": "Durango", "NOM_ENT": "Durango", "acq_date_mex": "2026-01-05T13:40:00", "etiqueta": "HISTORIAL", "id_unico": "24.1048_-104.6366_2026-01-05 13:40:00", "cluster": 1 }, "geometry": { "type": "Point", "coordinates": [ 536935.028406069846824, 2665876.170376729685813 ] } },
{ "type": "Feature", "properties": { "WKT": "POINT (-104.64139 24.1038)", "latitude": 24.1038, "longitude": -104.64139, "brightness": 348.94, "scan": 0.5, "track": 0.49, "acq_date": "2026-01-05T00:00:00", "acq_time": 1940, "acq_datetime": "2026-01-05T00:00:00", "confidence": "n", "brightness_2": 307.19, "frp": 8.44, "SATELITE": "VIIRS_NOAA_7d_J1", "index_right": 44, "CVEGEO": "10005", "CVE_ENT": "10", "CVE_MUN": "005", "NOMGEO": "Durango", "NOM_ENT": "Durango", "acq_date_mex": "2026-01-05T13:40:00", "etiqueta": "HISTORIAL", "id_unico": "24.1038_-104.6414_2026-01-05 13:40:00", "cluster": 1 }, "geometry": { "type": "Point", "coordinates": [ 536445.452473456738517, 2665765.300070316530764 ] } },
{ "type": "Feature", "properties": { "WKT": "POINT (-105.08614 24.81713)", "latitude": 24.81713, "longitude": -105.08614, "brightness": 334.8, "scan": 0.51, "track": 0.5, "acq_date": "2026-01-05T00:00:00", "acq_time": 1940, "acq_datetime": "2026-01-05T00:00:00", "confidence": "n", "brightness_2": 303.03, "frp": 4.05, "SATELITE": "VIIRS_NOAA_7d_J1", "index_right": 42, "CVEGEO": "10039", "CVE_ENT": "10", "CVE_MUN": "039", "NOMGEO": "Nuevo Ideal", "NOM_ENT": "Durango", "acq_date_mex": "2026-01-05T13:40:00", "etiqueta": "HISTORIAL", "id_unico": "24.8171_-105.0861_2026-01-05 13:40:00", "cluster": 6 }, "geometry": { "type": "Point", "coordinates": [ 491294.813951379561331, 2744701.807618009392172 ] } },
{ "type": "Feature", "properties": { "WKT": "POINT (-105.09106 24.81612)", "latitude": 24.81612, "longitude": -105.09106, "brightness": 346.83, "scan": 0.51, "track": 0.5, "acq_date": "2026-01-05T00:00:00", "acq_time": 1940, "acq_datetime": "2026-01-05T00:00:00", "confidence": "n", "brightness_2": 305.09, "frp": 5.35, "SATELITE": "VIIRS_NOAA_7d_J1", "index_right": 42, "CVEGEO": "10039", "CVE_ENT": "10", "CVE_MUN": "039", "NOMGEO": "Nuevo Ideal", "NOM_ENT": "Durango", "acq_date_mex": "2026-01-05T13:40:00", "etiqueta": "HISTORIAL", "id_unico": "24.8161_-105.0911_2026-01-05 13:40:00", "cluster": 6 }, "geometry": { "type": "Point", "coordinates": [ 490797.530875295284204, 2744590.297122871503234 ] } },
{ "type": "Feature", "properties": { "WKT": "POINT (-105.09598 24.81511)", "latitude": 24.81511, "longitude": -105.09598, "brightness": 333.18, "scan": 0.52, "track": 0.5, "acq_date": "2026-01-05T00:00:00", "acq_time": 1940, "acq_datetime": "2026-01-05T00:00:00", "confidence": "n", "brightness_2": 304.43, "frp": 5.35, "SATELITE": "VIIRS_NOAA_7d_J1", "index_right": 42, "CVEGEO": "10039", "CVE_ENT": "10", "CVE_MUN": "039", "NOMGEO": "Nuevo Ideal", "NOM_ENT": "Durango", "acq_date_mex": "2026-01-05T13:40:00", "etiqueta": "HISTORIAL", "id_unico": "24.8151_-105.096_2026-01-05 13:40:00", "cluster": 6 }, "geometry": { "type": "Point", "coordinates": [ 490300.239696751115844, 2744478.804542715195566 ] } },
{ "type": "Feature", "properties": { "WKT": "POINT (-103.96732 23.76942)", "latitude": 23.76942, "longitude": -103.96732, "brightness": 302.96, "scan": 0.52, "track": 0.5, "acq_date": "2026-01-06T00:00:00", "acq_time": 807, "acq_datetime": "2026-01-06T00:00:00", "confidence": "n", "brightness_2": 278.28, "frp": 1.01, "SATELITE": "VIIRS_NOAA_7d_J1", "index_right": 48, "CVEGEO": "10038", "CVE_ENT": "10", "CVE_MUN": "038", "NOMGEO": "Vicente Guerrero", "NOM_ENT": "Durango", "acq_date_mex": "2026-01-06T02:07:00", "etiqueta": "HOY", "id_unico": "23.7694_-103.9673_2026-01-06 02:07:00", "cluster": -1 }, "geometry": { "type": "Point", "coordinates": [ 605225.161881970823742, 2629080.74198834085837 ] } },
{ "type": "Feature", "properties": { "WKT": "POINT (-105.51344 23.425)", "latitude": 23.425, "longitude": -105.51344, "brightness": 299.58, "scan": 0.32, "track": 0.55, "acq_date": "2026-01-06T00:00:00", "acq_time": 807, "acq_datetime": "2026-01-06T00:00:00", "confidence": "n", "brightness_2": 282.03, "frp": 0.89, "SATELITE": "VIIRS_NOAA_7d_J1", "index_right": 17, "CVEGEO": "10023", "CVE_ENT": "10", "CVE_MUN": "023", "NOMGEO": "Pueblo Nuevo", "NOM_ENT": "Durango", "acq_date_mex": "2026-01-06T02:07:00", "etiqueta": "HOY", "id_unico": "23.425_-105.5134_2026-01-06 02:07:00", "cluster": -1 }, "geometry": { "type": "Point", "coordinates": [ 447547.576674411888234, 2590661.841720084194094 ] } },
{ "type": "Feature", "properties": { "WKT": "POINT (-105.51313 23.42572)", "latitude": 23.42572, "longitude": -105.51313, "brightness": 299.74, "scan": 0.32, "track": 0.55, "acq_date": "2026-01-06T00:00:00", "acq_time": 807, "acq_datetime": "2026-01-06T00:00:00", "confidence": "n", "brightness_2": 281.87, "frp": 0.58, "SATELITE": "VIIRS_NOAA_7d_J1", "index_right": 17, "CVEGEO": "10023", "CVE_ENT": "10", "CVE_MUN": "023", "NOMGEO": "Pueblo Nuevo", "NOM_ENT": "Durango", "acq_date_mex": "2026-01-06T02:07:00", "etiqueta": "HOY", "id_unico": "23.4257_-105.5131_2026-01-06 02:07:00", "cluster": -1 }, "geometry": { "type": "Point", "coordinates": [ 447579.530300846905448, 2590741.439229709096253 ] } },
{ "type": "Feature", "properties": { "WKT": "POINT (-105.3343 23.81095)", "latitude": 23.81095, "longitude": -105.3343, "brightness": 325.18, "scan": 0.55, "track": 0.51, "acq_date": "2025-12-30T00:00:00", "acq_time": 2042, "acq_datetime": "2025-12-30T00:00:00", "confidence": "n", "brightness_2": 293.14, "frp": 4.73, "SATELITE": "VIIRS_NOAA_7d_J2", "index_right": 17, "CVEGEO": "10023", "CVE_ENT": "10", "CVE_MUN": "023", "NOMGEO": "Pueblo Nuevo", "NOM_ENT": "Durango", "acq_date_mex": "2025-12-30T14:42:00", "etiqueta": "HISTORIAL", "id_unico": "23.8109_-105.3343_2025-12-30 14:42:00", "cluster": 2 }, "geometry": { "type": "Point", "coordinates": [ 465948.370156841527205, 2633336.435743804555386 ] } },
{ "type": "Feature", "properties": { "WKT": "POINT (-105.27871 23.21076)", "latitude": 23.21076, "longitude": -105.27871, "brightness": 335.99, "scan": 0.55, "track": 0.51, "acq_date": "2025-12-30T00:00:00", "acq_time": 2042, "acq_datetime": "2025-12-30T00:00:00", "confidence": "n", "brightness_2": 298.04, "frp": 6.49, "SATELITE": "VIIRS_NOAA_7d_J2", "index_right": 17, "CVEGEO": "10023", "CVE_ENT": "10", "CVE_MUN": "023", "NOMGEO": "Pueblo Nuevo", "NOM_ENT": "Durango", "acq_date_mex": "2025-12-30T14:42:00", "etiqueta": "HISTORIAL", "id_unico": "23.2108_-105.2787_2025-12-30 14:42:00", "cluster": 3 }, "geometry": { "type": "Point", "coordinates": [ 471481.833017673809081, 2566878.482511783018708 ] } },
{ "type": "Feature", "properties": { "WKT": "POINT (-105.33559 23.80931)", "latitude": 23.80931, "longitude": -105.33559, "brightness": 296.84, "scan": 0.48, "track": 0.48, "acq_date": "2025-12-31T00:00:00", "acq_time": 911, "acq_datetime": "2025-12-31T00:00:00", "confidence": "n", "brightness_2": 271.24, "frp": 1.03, "SATELITE": "VIIRS_NOAA_7d_J2", "index_right": 17, "CVEGEO": "10023", "CVE_ENT": "10", "CVE_MUN": "023", "NOMGEO": "Pueblo Nuevo", "NOM_ENT": "Durango", "acq_date_mex": "2025-12-31T03:11:00", "etiqueta": "HISTORIAL", "id_unico": "23.8093_-105.3356_2025-12-31 03:11:00", "cluster": 2 }, "geometry": { "type": "Point", "coordinates": [ 465816.541050973406527, 2633155.177410260774195 ] } },
{ "type": "Feature", "properties": { "WKT": "POINT (-103.39677 25.48732)", "latitude": 25.48732, "longitude": -103.39677, "brightness": 307.3, "scan": 0.39, "track": 0.36, "acq_date": "2026-01-02T00:00:00", "acq_time": 832, "acq_datetime": "2026-01-02T00:00:00", "confidence": "n", "brightness_2": 286.25, "frp": 1.1, "SATELITE": "VIIRS_NOAA_7d_J2", "index_right": 1, "CVEGEO": "05035", "CVE_ENT": "05", "CVE_MUN": "035", "NOMGEO": "Torreón", "NOM_ENT": "Coahuila de Zaragoza", "acq_date_mex": "2026-01-02T02:32:00", "etiqueta": "HISTORIAL", "id_unico": "25.4873_-103.3968_2026-01-02 02:32:00", "cluster": 5 }, "geometry": { "type": "Point", "coordinates": [ 661150.866969398339279, 2819880.135943570639938 ] } },
{ "type": "Feature", "properties": { "WKT": "POINT (-103.68681 25.45911)", "latitude": 25.45911, "longitude": -103.68681, "brightness": 315.91, "scan": 0.39, "track": 0.37, "acq_date": "2026-01-02T00:00:00", "acq_time": 832, "acq_datetime": "2026-01-02T00:00:00", "confidence": "n", "brightness_2": 279.57, "frp": 1.67, "SATELITE": "VIIRS_NOAA_7d_J2", "index_right": 45, "CVEGEO": "10012", "CVE_ENT": "10", "CVE_MUN": "012", "NOMGEO": "Lerdo", "NOM_ENT": "Durango", "acq_date_mex": "2026-01-02T02:32:00", "etiqueta": "HISTORIAL", "id_unico": "25.4591_-103.6868_2026-01-02 02:32:00", "cluster": 4 }, "geometry": { "type": "Point", "coordinates": [ 632024.30685036117211, 2816436.369324945379049 ] } },
{ "type": "Feature", "properties": { "WKT": "POINT (-104.10103 23.96029)", "latitude": 23.96029, "longitude": -104.10103, "brightness": 339.97, "scan": 0.57, "track": 0.43, "acq_date": "2026-01-02T00:00:00", "acq_time": 1946, "acq_datetime": "2026-01-02T00:00:00", "confidence": "n", "brightness_2": 298.34, "frp": 36.26, "SATELITE": "VIIRS_NOAA_7d_J2", "index_right": 19, "CVEGEO": "10022", "CVE_ENT": "10", "CVE_MUN": "022", "NOMGEO": "Poanas", "NOM_ENT": "Durango", "acq_date_mex": "2026-01-02T13:46:00", "etiqueta": "HISTORIAL", "id_unico": "23.9603_-104.101_2026-01-02 13:46:00", "cluster": -1 }, "geometry": { "type": "Point", "coordinates": [ 591465.771849353564903, 2650121.515205353032798 ] } },
{ "type": "Feature", "properties": { "WKT": "POINT (-104.10188 23.96418)", "latitude": 23.96418, "longitude": -104.10188, "brightness": 343.42, "scan": 0.57, "track": 0.43, "acq_date": "2026-01-02T00:00:00", "acq_time": 1946, "acq_datetime": "2026-01-02T00:00:00", "confidence": "n", "brightness_2": 303.18, "frp": 50.49, "SATELITE": "VIIRS_NOAA_7d_J2", "index_right": 19, "CVEGEO": "10022", "CVE_ENT": "10", "CVE_MUN": "022", "NOMGEO": "Poanas", "NOM_ENT": "Durango", "acq_date_mex": "2026-01-02T13:46:00", "etiqueta": "HISTORIAL", "id_unico": "23.9642_-104.1019_2026-01-02 13:46:00", "cluster": -1 }, "geometry": { "type": "Point", "coordinates": [ 591376.5415251419181, 2650551.675057759974152 ] } },
{ "type": "Feature", "properties": { "WKT": "POINT (-104.22695 24.35879)", "latitude": 24.35879, "longitude": -104.22695, "brightness": 344.87, "scan": 0.57, "track": 0.43, "acq_date": "2026-01-02T00:00:00", "acq_time": 1946, "acq_datetime": "2026-01-02T00:00:00", "confidence": "n", "brightness_2": 304.78, "frp": 33.74, "SATELITE": "VIIRS_NOAA_7d_J2", "index_right": 33, "CVEGEO": "10020", "CVE_ENT": "10", "CVE_MUN": "020", "NOMGEO": "Pánuco de Coronado", "NOM_ENT": "Durango", "acq_date_mex": "2026-01-02T13:46:00", "etiqueta": "HISTORIAL", "id_unico": "24.3588_-104.227_2026-01-02 13:46:00", "cluster": -1 }, "geometry": { "type": "Point", "coordinates": [ 578409.797670048195869, 2694168.696283426135778 ] } },
{ "type": "Feature", "properties": { "WKT": "POINT (-103.39514 25.48671)", "latitude": 25.48671, "longitude": -103.39514, "brightness": 297.57, "scan": 0.41, "track": 0.45, "acq_date": "2026-01-03T00:00:00", "acq_time": 813, "acq_datetime": "2026-01-03T00:00:00", "confidence": "n", "brightness_2": 284.66, "frp": 1.09, "SATELITE": "VIIRS_NOAA_7d_J2", "index_right": 1, "CVEGEO": "05035", "CVE_ENT": "05", "CVE_MUN": "035", "NOMGEO": "Torreón", "NOM_ENT": "Coahuila de Zaragoza", "acq_date_mex": "2026-01-03T02:13:00", "etiqueta": "HISTORIAL", "id_unico": "25.4867_-103.3951_2026-01-03 02:13:00", "cluster": 5 }, "geometry": { "type": "Point", "coordinates": [ 661315.550397623097524, 2819814.54489435069263 ] } },
{ "type": "Feature", "properties": { "WKT": "POINT (-103.68809 25.4595)", "latitude": 25.4595, "longitude": -103.68809, "brightness": 305.37, "scan": 0.42, "track": 0.45, "acq_date": "2026-01-03T00:00:00", "acq_time": 813, "acq_datetime": "2026-01-03T00:00:00", "confidence": "n", "brightness_2": 280.31, "frp": 0.83, "SATELITE": "VIIRS_NOAA_7d_J2", "index_right": 45, "CVEGEO": "10012", "CVE_ENT": "10", "CVE_MUN": "012", "NOMGEO": "Lerdo", "NOM_ENT": "Durango", "acq_date_mex": "2026-01-03T02:13:00", "etiqueta": "HISTORIAL", "id_unico": "25.4595_-103.6881_2026-01-03 02:13:00", "cluster": 4 }, "geometry": { "type": "Point", "coordinates": [ 631895.179858839372173, 2816478.29572322871536 ] } },
{ "type": "Feature", "properties": { "WKT": "POINT (-104.07658 26.37421)", "latitude": 26.37421, "longitude": -104.07658, "brightness": 348.01, "scan": 0.33, "track": 0.55, "acq_date": "2026-01-03T00:00:00", "acq_time": 1927, "acq_datetime": "2026-01-03T00:00:00", "confidence": "n", "brightness_2": 304.21, "frp": 5.14, "SATELITE": "VIIRS_NOAA_7d_J2", "index_right": 30, "CVEGEO": "10013", "CVE_ENT": "10", "CVE_MUN": "013", "NOMGEO": "Mapimí", "NOM_ENT": "Durango", "acq_date_mex": "2026-01-03T13:27:00", "etiqueta": "HISTORIAL", "id_unico": "26.3742_-104.0766_2026-01-03 13:27:00", "cluster": -1 }, "geometry": { "type": "Point", "coordinates": [ 592121.397444979869761, 2917456.099407734815031 ] } },
{ "type": "Feature", "properties": { "WKT": "POINT (-103.39758 25.48766)", "latitude": 25.48766, "longitude": -103.39758, "brightness": 295.11, "scan": 0.4, "track": 0.6, "acq_date": "2026-01-04T00:00:00", "acq_time": 754, "acq_datetime": "2026-01-04T00:00:00", "confidence": "n", "brightness_2": 284.99, "frp": 0.46, "SATELITE": "VIIRS_NOAA_7d_J2", "index_right": 1, "CVEGEO": "05035", "CVE_ENT": "05", "CVE_MUN": "035", "NOMGEO": "Torreón", "NOM_ENT": "Coahuila de Zaragoza", "acq_date_mex": "2026-01-04T01:54:00", "etiqueta": "HISTORIAL", "id_unico": "25.4877_-103.3976_2026-01-04 01:54:00", "cluster": 5 }, "geometry": { "type": "Point", "coordinates": [ 661068.981896123616025, 2819916.814966160338372 ] } },
{ "type": "Feature", "properties": { "WKT": "POINT (-105.08917 24.8237)", "latitude": 24.8237, "longitude": -105.08917, "brightness": 346.57, "scan": 0.57, "track": 0.43, "acq_date": "2026-01-05T00:00:00", "acq_time": 2029, "acq_datetime": "2026-01-05T00:00:00", "confidence": "n", "brightness_2": 306.43, "frp": 17.71, "SATELITE": "VIIRS_NOAA_7d_J2", "index_right": 42, "CVEGEO": "10039", "CVE_ENT": "10", "CVE_MUN": "039", "NOMGEO": "Nuevo Ideal", "NOM_ENT": "Durango", "acq_date_mex": "2026-01-05T14:29:00", "etiqueta": "HISTORIAL", "id_unico": "24.8237_-105.0892_2026-01-05 14:29:00", "cluster": 6 }, "geometry": { "type": "Point", "coordinates": [ 490989.081553656666074, 2745429.474051610566676 ] } },
{ "type": "Feature", "properties": { "WKT": "POINT (-105.0836 24.82438)", "latitude": 24.82438, "longitude": -105.0836, "brightness": 334.83, "scan": 0.57, "track": 0.43, "acq_date": "2026-01-05T00:00:00", "acq_time": 2029, "acq_datetime": "2026-01-05T00:00:00", "confidence": "n", "brightness_2": 303.22, "frp": 5.98, "SATELITE": "VIIRS_NOAA_7d_J2", "index_right": 42, "CVEGEO": "10039", "CVE_ENT": "10", "CVE_MUN": "039", "NOMGEO": "Nuevo Ideal", "NOM_ENT": "Durango", "acq_date_mex": "2026-01-05T14:29:00", "etiqueta": "HISTORIAL", "id_unico": "24.8244_-105.0836_2026-01-05 14:29:00", "cluster": 6 }, "geometry": { "type": "Point", "coordinates": [ 491551.994557448138949, 2745504.41147895809263 ] } },
{ "type": "Feature", "properties": { "WKT": "POINT (-105.09419 24.81909)", "latitude": 24.81909, "longitude": -105.09419, "brightness": 351.49, "scan": 0.57, "track": 0.43, "acq_date": "2026-01-05T00:00:00", "acq_time": 2029, "acq_datetime": "2026-01-05T00:00:00", "confidence": "n", "brightness_2": 308.3, "frp": 34.3, "SATELITE": "VIIRS_NOAA_7d_J2", "index_right": 42, "CVEGEO": "10039", "CVE_ENT": "10", "CVE_MUN": "039", "NOMGEO": "Nuevo Ideal", "NOM_ENT": "Durango", "acq_date_mex": "2026-01-05T14:29:00", "etiqueta": "HISTORIAL", "id_unico": "24.8191_-105.0942_2026-01-05 14:29:00", "cluster": 6 }, "geometry": { "type": "Point", "coordinates": [ 490481.441678076749668, 2744919.367867169901729 ] } },
{ "type": "Feature", "properties": { "WKT": "POINT (-105.08862 24.81976)", "latitude": 24.81976, "longitude": -105.08862, "brightness": 351.68, "scan": 0.57, "track": 0.43, "acq_date": "2026-01-05T00:00:00", "acq_time": 2029, "acq_datetime": "2026-01-05T00:00:00", "confidence": "n", "brightness_2": 316.76, "frp": 34.3, "SATELITE": "VIIRS_NOAA_7d_J2", "index_right": 42, "CVEGEO": "10039", "CVE_ENT": "10", "CVE_MUN": "039", "NOMGEO": "Nuevo Ideal", "NOM_ENT": "Durango", "acq_date_mex": "2026-01-05T14:29:00", "etiqueta": "HISTORIAL", "id_unico": "24.8198_-105.0886_2026-01-05 14:29:00", "cluster": 6 }, "geometry": { "type": "Point", "coordinates": [ 491044.377605321991723, 2744993.177342079114169 ] } },
{ "type": "Feature", "properties": { "WKT": "POINT (-104.3998 24.34247)", "latitude": 24.34247, "longitude": -104.3998, "brightness": 339.67, "scan": 0.41, "track": 0.45, "acq_date": "2026-01-05T00:00:00", "acq_time": 2029, "acq_datetime": "2026-01-05T00:00:00", "confidence": "n", "brightness_2": 304.78, "frp": 3.33, "SATELITE": "VIIRS_NOAA_7d_J2", "index_right": 44, "CVEGEO": "10005", "CVE_ENT": "10", "CVE_MUN": "005", "NOMGEO": "Durango", "NOM_ENT": "Durango", "acq_date_mex": "2026-01-05T14:29:00", "etiqueta": "HISTORIAL", "id_unico": "24.3425_-104.3998_2026-01-05 14:29:00", "cluster": -1 }, "geometry": { "type": "Point", "coordinates": [ 560885.08831691625528, 2692275.033285194076598 ] } },
{ "type": "Feature", "properties": { "WKT": "POINT (-104.40319 24.33792)", "latitude": 24.33792, "longitude": -104.40319, "brightness": 338.68, "scan": 0.41, "track": 0.45, "acq_date": "2026-01-05T00:00:00", "acq_time": 2029, "acq_datetime": "2026-01-05T00:00:00", "confidence": "n", "brightness_2": 306.08, "frp": 8.68, "SATELITE": "VIIRS_NOAA_7d_J2", "index_right": 44, "CVEGEO": "10005", "CVE_ENT": "10", "CVE_MUN": "005", "NOMGEO": "Durango", "NOM_ENT": "Durango", "acq_date_mex": "2026-01-05T14:29:00", "etiqueta": "HISTORIAL", "id_unico": "24.3379_-104.4032_2026-01-05 14:29:00", "cluster": -1 }, "geometry": { "type": "Point", "coordinates": [ 560543.356807983480394, 2691769.763576011173427 ] } },
{ "type": "Feature", "properties": { "WKT": "POINT (-104.39925 24.33838)", "latitude": 24.33838, "longitude": -104.39925, "brightness": 340.27, "scan": 0.41, "track": 0.45, "acq_date": "2026-01-05T00:00:00", "acq_time": 2029, "acq_datetime": "2026-01-05T00:00:00", "confidence": "n", "brightness_2": 305.76, "frp": 7.37, "SATELITE": "VIIRS_NOAA_7d_J2", "index_right": 44, "CVEGEO": "10005", "CVE_ENT": "10", "CVE_MUN": "005", "NOMGEO": "Durango", "NOM_ENT": "Durango", "acq_date_mex": "2026-01-05T14:29:00", "etiqueta": "HISTORIAL", "id_unico": "24.3384_-104.3992_2026-01-05 14:29:00", "cluster": -1 }, "geometry": { "type": "Point", "coordinates": [ 560942.839500119676813, 2691822.417643284425139 ] } },
{ "type": "Feature", "properties": { "WKT": "POINT (-104.7093 24.14562)", "latitude": 24.14562, "longitude": -104.7093, "brightness": 342.31, "scan": 0.39, "track": 0.44, "acq_date": "2026-01-05T00:00:00", "acq_time": 2029, "acq_datetime": "2026-01-05T00:00:00", "confidence": "n", "brightness_2": 303.86, "frp": 4.13, "SATELITE": "VIIRS_NOAA_7d_J2", "index_right": 44, "CVEGEO": "10005", "CVE_ENT": "10", "CVE_MUN": "005", "NOMGEO": "Durango", "NOM_ENT": "Durango", "acq_date_mex": "2026-01-05T14:29:00", "etiqueta": "HISTORIAL", "id_unico": "24.1456_-104.7093_2026-01-05 14:29:00", "cluster": -1 }, "geometry": { "type": "Point", "coordinates": [ 529534.128464222420007, 2670379.500215484760702 ] } },
{ "type": "Feature", "properties": { "WKT": "POINT (-104.64032 24.11108)", "latitude": 24.11108, "longitude": -104.64032, "brightness": 338.46, "scan": 0.39, "track": 0.44, "acq_date": "2026-01-05T00:00:00", "acq_time": 2029, "acq_datetime": "2026-01-05T00:00:00", "confidence": "n", "brightness_2": 302.69, "frp": 5.55, "SATELITE": "VIIRS_NOAA_7d_J2", "index_right": 44, "CVEGEO": "10005", "CVE_ENT": "10", "CVE_MUN": "005", "NOMGEO": "Durango", "NOM_ENT": "Durango", "acq_date_mex": "2026-01-05T14:29:00", "etiqueta": "HISTORIAL", "id_unico": "24.1111_-104.6403_2026-01-05 14:29:00", "cluster": 1 }, "geometry": { "type": "Point", "coordinates": [ 536552.13056152802892, 2666571.597724283579737 ] } },
{ "type": "Feature", "properties": { "WKT": "POINT (-104.64349 24.10662)", "latitude": 24.10662, "longitude": -104.64349, "brightness": 339.66, "scan": 0.39, "track": 0.44, "acq_date": "2026-01-05T00:00:00", "acq_time": 2029, "acq_datetime": "2026-01-05T00:00:00", "confidence": "n", "brightness_2": 305.69, "frp": 7.98, "SATELITE": "VIIRS_NOAA_7d_J2", "index_right": 44, "CVEGEO": "10005", "CVE_ENT": "10", "CVE_MUN": "005", "NOMGEO": "Durango", "NOM_ENT": "Durango", "acq_date_mex": "2026-01-05T14:29:00", "etiqueta": "HISTORIAL", "id_unico": "24.1066_-104.6435_2026-01-05 14:29:00", "cluster": 1 }, "geometry": { "type": "Point", "coordinates": [ 536231.234652030747384, 2666076.977717452682555 ] } },
{ "type": "Feature", "properties": { "WKT": "POINT (-104.63968 24.10708)", "latitude": 24.10708, "longitude": -104.63968, "brightness": 341.15, "scan": 0.39, "track": 0.44, "acq_date": "2026-01-05T00:00:00", "acq_time": 2029, "acq_datetime": "2026-01-05T00:00:00", "confidence": "n", "brightness_2": 305.73, "frp": 5.55, "SATELITE": "VIIRS_NOAA_7d_J2", "index_right": 44, "CVEGEO": "10005", "CVE_ENT": "10", "CVE_MUN": "005", "NOMGEO": "Durango", "NOM_ENT": "Durango", "acq_date_mex": "2026-01-05T14:29:00", "etiqueta": "HISTORIAL", "id_unico": "24.1071_-104.6397_2026-01-05 14:29:00", "cluster": 1 }, "geometry": { "type": "Point", "coordinates": [ 536618.308171384269372, 2666128.89681761385873 ] } },
{ "type": "Feature", "properties": { "WKT": "POINT (-104.6428 24.10263)", "latitude": 24.10263, "longitude": -104.6428, "brightness": 338.82, "scan": 0.39, "track": 0.44, "acq_date": "2026-01-05T00:00:00", "acq_time": 2029, "acq_datetime": "2026-01-05T00:00:00", "confidence": "n", "brightness_2": 306.39, "frp": 9.37, "SATELITE": "VIIRS_NOAA_7d_J2", "index_right": 44, "CVEGEO": "10005", "CVE_ENT": "10", "CVE_MUN": "005", "NOMGEO": "Durango", "NOM_ENT": "Durango", "acq_date_mex": "2026-01-05T14:29:00", "etiqueta": "HISTORIAL", "id_unico": "24.1026_-104.6428_2026-01-05 14:29:00", "cluster": 1 }, "geometry": { "type": "Point", "coordinates": [ 536302.483054180396721, 2665635.395782978273928 ] } },
{ "type": "Feature", "properties": { "WKT": "POINT (-104.63845 24.09906)", "latitude": 24.09906, "longitude": -104.63845, "brightness": 334.11, "scan": 0.39, "track": 0.44, "acq_date": "2026-01-05T00:00:00", "acq_time": 2029, "acq_datetime": "2026-01-05T00:00:00", "confidence": "l", "brightness_2": 305.82, "frp": 3.52, "SATELITE": "VIIRS_NOAA_7d_J2", "index_right": 44, "CVEGEO": "10005", "CVE_ENT": "10", "CVE_MUN": "005", "NOMGEO": "Durango", "NOM_ENT": "Durango", "acq_date_mex": "2026-01-05T14:29:00", "etiqueta": "HISTORIAL", "id_unico": "24.0991_-104.6385_2026-01-05 14:29:00", "cluster": 1 }, "geometry": { "type": "Point", "coordinates": [ 536745.598974048160017, 2665241.269030631519854 ] } },
{ "type": "Feature", "properties": { "WKT": "POINT (-104.43295 24.01982)", "latitude": 24.01982, "longitude": -104.43295, "brightness": 367.0, "scan": 0.4, "track": 0.44, "acq_date": "2026-01-05T00:00:00", "acq_time": 2029, "acq_datetime": "2026-01-05T00:00:00", "confidence": "l", "brightness_2": 327.12, "frp": 27.06, "SATELITE": "VIIRS_NOAA_7d_J2", "index_right": 44, "CVEGEO": "10005", "CVE_ENT": "10", "CVE_MUN": "005", "NOMGEO": "Durango", "NOM_ENT": "Durango", "acq_date_mex": "2026-01-05T14:29:00", "etiqueta": "HISTORIAL", "id_unico": "24.0198_-104.433_2026-01-05 14:29:00", "cluster": 0 }, "geometry": { "type": "Point", "coordinates": [ 557667.061850172001868, 2656537.051114165224135 ] } },
{ "type": "Feature", "properties": { "WKT": "POINT (-104.42509 24.02075)", "latitude": 24.02075, "longitude": -104.42509, "brightness": 341.46, "scan": 0.4, "track": 0.44, "acq_date": "2026-01-05T00:00:00", "acq_time": 2029, "acq_datetime": "2026-01-05T00:00:00", "confidence": "n", "brightness_2": 305.52, "frp": 63.93, "SATELITE": "VIIRS_NOAA_7d_J2", "index_right": 44, "CVEGEO": "10005", "CVE_ENT": "10", "CVE_MUN": "005", "NOMGEO": "Durango", "NOM_ENT": "Durango", "acq_date_mex": "2026-01-05T14:29:00", "etiqueta": "HISTORIAL", "id_unico": "24.0208_-104.4251_2026-01-05 14:29:00", "cluster": 0 }, "geometry": { "type": "Point", "coordinates": [ 558465.994549182942137, 2656643.261483961716294 ] } },
{ "type": "Feature", "properties": { "WKT": "POINT (-104.42902 24.02028)", "latitude": 24.02028, "longitude": -104.42902, "brightness": 367.0, "scan": 0.4, "track": 0.44, "acq_date": "2026-01-05T00:00:00", "acq_time": 2029, "acq_datetime": "2026-01-05T00:00:00", "confidence": "h", "brightness_2": 350.48, "frp": 63.93, "SATELITE": "VIIRS_NOAA_7d_J2", "index_right": 44, "CVEGEO": "10005", "CVE_ENT": "10", "CVE_MUN": "005", "NOMGEO": "Durango", "NOM_ENT": "Durango", "acq_date_mex": "2026-01-05T14:29:00", "etiqueta": "HISTORIAL", "id_unico": "24.0203_-104.429_2026-01-05 14:29:00", "cluster": 0 }, "geometry": { "type": "Point", "coordinates": [ 558066.531793066649698, 2656589.597103704698384 ] } },
{ "type": "Feature", "properties": { "WKT": "POINT (-104.43631 24.0153)", "latitude": 24.0153, "longitude": -104.43631, "brightness": 333.94, "scan": 0.4, "track": 0.44, "acq_date": "2026-01-05T00:00:00", "acq_time": 2029, "acq_datetime": "2026-01-05T00:00:00", "confidence": "n", "brightness_2": 306.31, "frp": 27.06, "SATELITE": "VIIRS_NOAA_7d_J2", "index_right": 44, "CVEGEO": "10005", "CVE_ENT": "10", "CVE_MUN": "005", "NOMGEO": "Durango", "NOM_ENT": "Durango", "acq_date_mex": "2026-01-05T14:29:00", "etiqueta": "HISTORIAL", "id_unico": "24.0153_-104.4363_2026-01-05 14:29:00", "cluster": 0 }, "geometry": { "type": "Point", "coordinates": [ 557327.357810319517739, 2656035.234204106032848 ] } },
{ "type": "Feature", "properties": { "WKT": "POINT (-104.42452 24.01669)", "latitude": 24.01669, "longitude": -104.42452, "brightness": 355.33, "scan": 0.4, "track": 0.44, "acq_date": "2026-01-05T00:00:00", "acq_time": 2029, "acq_datetime": "2026-01-05T00:00:00", "confidence": "n", "brightness_2": 317.76, "frp": 63.93, "SATELITE": "VIIRS_NOAA_7d_J2", "index_right": 44, "CVEGEO": "10005", "CVE_ENT": "10", "CVE_MUN": "005", "NOMGEO": "Durango", "NOM_ENT": "Durango", "acq_date_mex": "2026-01-05T14:29:00", "etiqueta": "HISTORIAL", "id_unico": "24.0167_-104.4245_2026-01-05 14:29:00", "cluster": 0 }, "geometry": { "type": "Point", "coordinates": [ 558525.80032894317992, 2656193.983519610017538 ] } },
{ "type": "Feature", "properties": { "WKT": "POINT (-104.42059 24.01715)", "latitude": 24.01715, "longitude": -104.42059, "brightness": 350.11, "scan": 0.4, "track": 0.44, "acq_date": "2026-01-05T00:00:00", "acq_time": 2029, "acq_datetime": "2026-01-05T00:00:00", "confidence": "n", "brightness_2": 310.8, "frp": 22.25, "SATELITE": "VIIRS_NOAA_7d_J2", "index_right": 44, "CVEGEO": "10005", "CVE_ENT": "10", "CVE_MUN": "005", "NOMGEO": "Durango", "NOM_ENT": "Durango", "acq_date_mex": "2026-01-05T14:29:00", "etiqueta": "HISTORIAL", "id_unico": "24.0172_-104.4206_2026-01-05 14:29:00", "cluster": 0 }, "geometry": { "type": "Point", "coordinates": [ 558925.277319753891788, 2656246.553318656980991 ] } },
{ "type": "Feature", "properties": { "WKT": "POINT (-104.43238 24.01576)", "latitude": 24.01576, "longitude": -104.43238, "brightness": 367.0, "scan": 0.4, "track": 0.44, "acq_date": "2026-01-05T00:00:00", "acq_time": 2029, "acq_datetime": "2026-01-05T00:00:00", "confidence": "h", "brightness_2": 316.86, "frp": 27.06, "SATELITE": "VIIRS_NOAA_7d_J2", "index_right": 44, "CVEGEO": "10005", "CVE_ENT": "10", "CVE_MUN": "005", "NOMGEO": "Durango", "NOM_ENT": "Durango", "acq_date_mex": "2026-01-05T14:29:00", "etiqueta": "HISTORIAL", "id_unico": "24.0158_-104.4324_2026-01-05 14:29:00", "cluster": 0 }, "geometry": { "type": "Point", "coordinates": [ 557726.842823025071993, 2656087.770373552106321 ] } },
{ "type": "Feature", "properties": { "WKT": "POINT (-104.42846 24.01622)", "latitude": 24.01622, "longitude": -104.42846, "brightness": 367.0, "scan": 0.4, "track": 0.44, "acq_date": "2026-01-05T00:00:00", "acq_time": 2029, "acq_datetime": "2026-01-05T00:00:00", "confidence": "h", "brightness_2": 319.02, "frp": 63.93, "SATELITE": "VIIRS_NOAA_7d_J2", "index_right": 44, "CVEGEO": "10005", "CVE_ENT": "10", "CVE_MUN": "005", "NOMGEO": "Durango", "NOM_ENT": "Durango", "acq_date_mex": "2026-01-05T14:29:00", "etiqueta": "HISTORIAL", "id_unico": "24.0162_-104.4285_2026-01-05 14:29:00", "cluster": 0 }, "geometry": { "type": "Point", "coordinates": [ 558125.308153625926934, 2656140.31362301344052 ] } },
{ "type": "Feature", "properties": { "WKT": "POINT (-104.43182 24.0117)", "latitude": 24.0117, "longitude": -104.43182, "brightness": 347.36, "scan": 0.4, "track": 0.44, "acq_date": "2026-01-05T00:00:00", "acq_time": 2029, "acq_datetime": "2026-01-05T00:00:00", "confidence": "n", "brightness_2": 314.07, "frp": 30.79, "SATELITE": "VIIRS_NOAA_7d_J2", "index_right": 44, "CVEGEO": "10005", "CVE_ENT": "10", "CVE_MUN": "005", "NOMGEO": "Durango", "NOM_ENT": "Durango", "acq_date_mex": "2026-01-05T14:29:00", "etiqueta": "HISTORIAL", "id_unico": "24.0117_-104.4318_2026-01-05 14:29:00", "cluster": 0 }, "geometry": { "type": "Point", "coordinates": [ 557785.610098727396689, 2655638.485939481295645 ] } },
{ "type": "Feature", "properties": { "WKT": "POINT (-104.42788 24.01216)", "latitude": 24.01216, "longitude": -104.42788, "brightness": 355.16, "scan": 0.4, "track": 0.44, "acq_date": "2026-01-05T00:00:00", "acq_time": 2029, "acq_datetime": "2026-01-05T00:00:00", "confidence": "n", "brightness_2": 313.21, "frp": 44.18, "SATELITE": "VIIRS_NOAA_7d_J2", "index_right": 44, "CVEGEO": "10005", "CVE_ENT": "10", "CVE_MUN": "005", "NOMGEO": "Durango", "NOM_ENT": "Durango", "acq_date_mex": "2026-01-05T14:29:00", "etiqueta": "HISTORIAL", "id_unico": "24.0122_-104.4279_2026-01-05 14:29:00", "cluster": 0 }, "geometry": { "type": "Point", "coordinates": [ 558186.121902170823887, 2655691.038811 ] } },
{ "type": "Feature", "properties": { "WKT": "POINT (-104.642 23.96652)", "latitude": 23.96652, "longitude": -104.642, "brightness": 337.48, "scan": 0.39, "track": 0.44, "acq_date": "2026-01-05T00:00:00", "acq_time": 2029, "acq_datetime": "2026-01-05T00:00:00", "confidence": "n", "brightness_2": 303.99, "frp": 2.42, "SATELITE": "VIIRS_NOAA_7d_J2", "index_right": 44, "CVEGEO": "10005", "CVE_ENT": "10", "CVE_MUN": "005", "NOMGEO": "Durango", "NOM_ENT": "Durango", "acq_date_mex": "2026-01-05T14:29:00", "etiqueta": "HISTORIAL", "id_unico": "23.9665_-104.642_2026-01-05 14:29:00", "cluster": -1 }, "geometry": { "type": "Point", "coordinates": [ 536422.138495149323717, 2650566.065966956317425 ] } },
{ "type": "Feature", "properties": { "WKT": "POINT (-103.39722 25.48723)", "latitude": 25.48723, "longitude": -103.39722, "brightness": 302.1, "scan": 0.38, "track": 0.43, "acq_date": "2026-01-06T00:00:00", "acq_time": 856, "acq_datetime": "2026-01-06T00:00:00", "confidence": "n", "brightness_2": 286.0, "frp": 1.13, "SATELITE": "VIIRS_NOAA_7d_J2", "index_right": 1, "CVEGEO": "05035", "CVE_ENT": "05", "CVE_MUN": "035", "NOMGEO": "Torreón", "NOM_ENT": "Coahuila de Zaragoza", "acq_date_mex": "2026-01-06T02:56:00", "etiqueta": "HOY", "id_unico": "25.4872_-103.3972_2026-01-06 02:56:00", "cluster": 5 }, "geometry": { "type": "Point", "coordinates": [ 661105.747147101676092, 2819869.622448864858598 ] } },
{ "type": "Feature", "properties": { "WKT": "POINT (-103.96583 23.76426)", "latitude": 23.76426, "longitude": -103.96583, "brightness": 305.39, "scan": 0.57, "track": 0.43, "acq_date": "2026-01-06T00:00:00", "acq_time": 858, "acq_datetime": "2026-01-06T00:00:00", "confidence": "n", "brightness_2": 272.05, "frp": 2.06, "SATELITE": "VIIRS_NOAA_7d_J2", "index_right": 48, "CVEGEO": "10038", "CVE_ENT": "10", "CVE_MUN": "038", "NOMGEO": "Vicente Guerrero", "NOM_ENT": "Durango", "acq_date_mex": "2026-01-06T02:58:00", "etiqueta": "HOY", "id_unico": "23.7643_-103.9658_2026-01-06 02:58:00", "cluster": -1 }, "geometry": { "type": "Point", "coordinates": [ 605381.153451730380766, 2628510.516148295719177 ] } }
]
}
