{
"type": "FeatureCollection",
"name": "st_alpha_resumen_5dias",
"crs": { "type": "name", "properties": { "name": "urn:ogc:def:crs:EPSG::32613" } },
"features": [
{ "type": "Feature", "properties": { "cluster": 0, "fpc_inicio": "2026-01-05T13:19:00", "fpc_final": "2026-01-05T15:54:00", "num_puntos": 35 }, "geometry": { "type": "Polygon", "coordinates": [ [ [ 558186.121902170823887, 2655691.038811 ], [ 557709.946913781343028, 2655485.387854341883212 ], [ 557323.810790849034674, 2655651.02335673943162 ], [ 557359.870223745587282, 2655789.56711167935282 ], [ 557327.357810319517739, 2656035.234204106032848 ], [ 557588.856194892316125, 2656511.270745926070958 ], [ 557667.061850172001868, 2656537.051114165224135 ], [ 557893.196492186747491, 2656699.614693195093423 ], [ 558044.586622704286128, 2657236.111555536277592 ], [ 558135.152700569131412, 2657222.085624090395868 ], [ 558555.921493683359586, 2657283.589964525774121 ], [ 558648.53534252056852, 2657266.254057785496116 ], [ 558911.593038868857548, 2656853.241988668683916 ], [ 559215.570200808695517, 2656631.949296534992754 ], [ 558925.277319753891788, 2656246.553318656980991 ], [ 558759.859852766967379, 2655911.4996148487553 ], [ 558726.384121321723796, 2655642.313275509513915 ], [ 558186.121902170823887, 2655691.038811 ] ] ] } },
{ "type": "Feature", "properties": { "cluster": 1, "fpc_inicio": "2026-01-05T13:19:00", "fpc_final": "2026-01-05T15:54:00", "num_puntos": 23 }, "geometry": { "type": "Polygon", "coordinates": [ [ [ 536745.598974048160017, 2665241.269030631519854 ], [ 536798.617427420685999, 2665176.082373436540365 ], [ 536497.186811778927222, 2665009.23152283532545 ], [ 536338.533755930722691, 2665447.267771324608475 ], [ 536302.483054180396721, 2665635.395782978273928 ], [ 536231.234652030747384, 2666076.977717452682555 ], [ 536241.307426888495684, 2666112.432956896256655 ], [ 536089.773677810910158, 2666556.026224114466459 ], [ 536148.154561540577561, 2666777.609522169455886 ], [ 535939.937779647996649, 2667538.820832621306181 ], [ 536353.93326816696208, 2666980.746382979210466 ], [ 536871.077566394815221, 2667025.254953913390636 ], [ 536659.200837253243662, 2666825.416338182985783 ], [ 536552.13056152802892, 2666571.597724283579737 ], [ 536618.308171384269372, 2666128.89681761385873 ], [ 536935.028406069846824, 2665876.170376729685813 ], [ 536745.598974048160017, 2665241.269030631519854 ] ] ] } },
{ "type": "Feature", "properties": { "cluster": 2, "fpc_inicio": "2025-12-30T13:32:00", "fpc_final": "2025-12-31T03:11:00", "num_puntos": 6 }, "geometry": { "type": "Polygon", "coordinates": [ [ [ 465948.370156841527205, 2633336.435743804555386 ], [ 465942.724202421610244, 2633101.737328176852316 ], [ 465688.72011748602381, 2632947.339620161801577 ], [ 465510.787272691901308, 2633085.047215795144439 ], [ 465911.708287253102753, 2633339.843543301802129 ], [ 465948.370156841527205, 2633336.435743804555386 ] ] ] } },
{ "type": "Feature", "properties": { "cluster": 3, "fpc_inicio": "2025-12-30T14:42:00", "fpc_final": "2025-12-30T15:12:00", "num_puntos": 5 }, "geometry": { "type": "Polygon", "coordinates": [ [ [ 471481.833017673809081, 2566878.482511783018708 ], [ 471838.737555387429893, 2566771.526769179850817 ], [ 472028.869428060133941, 2566670.427491367794573 ], [ 471721.857537685427815, 2566649.97415721649304 ], [ 471504.093748791317921, 2566747.809164334554225 ], [ 471481.833017673809081, 2566878.482511783018708 ] ] ] } },
{ "type": "Feature", "properties": { "cluster": 4, "fpc_inicio": "2026-01-02T02:32:00", "fpc_final": "2026-01-03T02:41:00", "num_puntos": 5 }, "geometry": { "type": "Polygon", "coordinates": [ [ [ 631727.174074212904088, 2816690.418440730310977 ], [ 632119.325961262802593, 2816590.161315858829767 ], [ 632024.30685036117211, 2816436.369324945379049 ], [ 631957.701094882329926, 2816256.274442467372864 ], [ 631895.179858839372173, 2816478.29572322871536 ], [ 631727.174074212904088, 2816690.418440730310977 ] ] ] } },
{ "type": "Feature", "properties": { "cluster": 5, "fpc_inicio": "2026-01-02T02:32:00", "fpc_final": "2026-01-06T03:26:00", "num_puntos": 10 }, "geometry": { "type": "Polygon", "coordinates": [ [ [ 661241.568674912443385, 2820029.673194691073149 ], [ 661315.550397623097524, 2819814.54489435069263 ], [ 661145.395258017117158, 2819833.542680473066866 ], [ 661105.747147101676092, 2819869.622448864858598 ], [ 661068.981896123616025, 2819916.814966160338372 ], [ 661115.863781031453982, 2820031.482234976254404 ], [ 661241.568674912443385, 2820029.673194691073149 ] ] ] } },
{ "type": "Feature", "properties": { "cluster": 6, "fpc_inicio": "2026-01-05T13:19:00", "fpc_final": "2026-01-05T14:59:00", "num_puntos": 15 }, "geometry": { "type": "MultiPolygon", "coordinates": [ [ [ [ 491227.358177691407036, 2745100.464009780902416 ], [ 491294.813951379561331, 2744701.807618009392172 ], [ 491276.460266316076741, 2744443.827698186505586 ], [ 490797.406058147433214, 2744403.170307446271181 ], [ 490473.066545233596116, 2744498.614795809146017 ], [ 490300.239696751115844, 2744478.804542715195566 ], [ 490481.441678076749668, 2744919.367867169901729 ], [ 490746.305491803097539, 2745059.809716471470892 ], [ 490989.081553656666074, 2745429.474051610566676 ], [ 491551.994557448138949, 2745504.41147895809263 ], [ 491227.358177691407036, 2745100.464009780902416 ] ] ], [ [ [ 491551.994557448138949, 2745504.41147895809263 ], [ 491656.255753637698945, 2745796.664921248331666 ], [ 492136.269447680329904, 2745837.351483414880931 ], [ 491551.994557448138949, 2745504.41147895809263 ] ] ] ] } }
]
}
